id,acommodation_type,Name,latitude,longitude,address,city
acom_1,Hotel,Maso franch gourmet e relais,46.1441,11.1186,"Strada Statale 612 della Val di Cembra, Maso Franch, Giovo, Comunità della Valle di Cembra, Provincia di Trento, Trentino-Alto Adige/Südtirol, 38030, Italia",region_111
acom_2,Hotel,Aquila nera,46.0745,11.3036,"Unterperg, Balsn - Maso Balsen, Auserpèrg - Frassilongo, Frassilongo - Garait, Comunità Alta Valsugana e Bersntol, Provincia di Trento, Trentino-Alto Adige/Südtirol, Italia",region_107
acom_3,Hotel,Kamauz,46.0745,11.3036,"Unterperg, Balsn - Maso Balsen, Auserpèrg - Frassilongo, Frassilongo - Garait, Comunità Alta Valsugana e Bersntol, Provincia di Trento, Trentino-Alto Adige/Südtirol, Italia",region_107
acom_4,Hotel,Belvedere,46.1133,11.3282,"SP135, Plótzer - Maso Plozzeri, Auserpèrg - San Francesco, Fierozzo - Vlarotz, Comunità Alta Valsugana e Bersntol, Provincia di Trento, Trentino-Alto Adige/Südtirol, 38050, Italia",region_108
acom_5,Holiday_house,Carlini carla  - casa roberto,46.00125454,11.34098053,"1, Via Lungovalle, Barco, Levico Terme, Comunità Alta Valsugana e Bersntol, Provincia di Trento, Trentino-Alto Adige/Südtirol, 38056, Italia",region_34
acom_6,Hotel,Hotel fior di bosco,46.1776,11.1674,"Masen, Ville, Giovo, Comunità della Valle di Cembra, Provincia di Trento, Trentino-Alto Adige/Südtirol, 38030, Italia",region_111
acom_7,Hotel,Hotel margherita,46.3122,11.6663,"SS50, Castelir di Bellamonte, Bellamonte, Predazzo, Comunità territoriale della Val di Fiemme, Provincia di Trento, Trentino-Alto Adige/Südtirol, 38037, Italia",region_55
acom_8,Hotel,Hotel san celso,46.3129,11.6663,"Via Serradori, Bellamonte, Predazzo, Comunità territoriale della Val di Fiemme, Provincia di Trento, Trentino-Alto Adige/Südtirol, 38037, Italia",region_55
acom_9,Hotel,Hotel canada,46.3037,11.6676,"Strada forestale Valonat - Calvario, Bellamonte, Predazzo, Comunità territoriale della Val di Fiemme, Provincia di Trento, Trentino-Alto Adige/Südtirol, Italia",region_55
acom_10,Hotel,Villa fontana ***,46.077346,11.116822,"12, Via Felice e Gregorio Fontana, Cristo Re, Vela, Trento, Territorio Val d'Adige, Provincia di Trento, Trentino-Alto Adige/Südtirol, 38122, Italia",region_153
acom_11,Hotel,Europa **,46.051386,11.072276,"30, Strada di Vanéze, Vaneze, Trento, Territorio Val d'Adige, Provincia di Trento, Trentino-Alto Adige/Südtirol, 38123, Italia",region_153
acom_12,Hotel,Buonconsiglio ****,46.072929,11.122554,"14, Via Gian Domenico Romagnosi, San Martino, Trento, Territorio Val d'Adige, Provincia di Trento, Trentino-Alto Adige/Südtirol, 38122, Italia",region_153
acom_13,Hotel,Le blanc hotel & spa ****,46.041741,11.059603,"Le Blanc Hotel & Spa, 58, Strada di Vason, Vason, Trento, Territorio Val d'Adige, Provincia di Trento, Trentino-Alto Adige/Südtirol, 38123, Italia",region_153
acom_14,Hotel,Grand hotel trento ****,46.071057,11.121219,"Piazza Dante, Bolghera, Centro storico, Trento, Territorio Val d'Adige, Provincia di Trento, Trentino-Alto Adige/Südtirol, 38122, Italia",region_153
acom_15,Hotel,"Ostello della gioventù ""giovane europa""",46.06997,11.119194,"12, Via Torre Vanga, Bolghera, Piedicastello, Vela, Trento, Territorio Val d'Adige, Provincia di Trento, Trentino-Alto Adige/Südtirol, 38122, Italia",region_153
acom_16,Hotel,Everest ***,46.078611,11.11841,"Everest, 14, Corso degli Alpini, Cristo Re, Martignano, Trento, Territorio Val d'Adige, Provincia di Trento, Trentino-Alto Adige/Südtirol, 38122, Italia",region_153
acom_17,Hotel,Karinhall ***,45.995601,11.126269,"Località I Grezzi, Grezzi, Mattarello, Trento, Territorio Val d'Adige, Provincia di Trento, Trentino-Alto Adige/Südtirol, 38123, Italia",region_153
acom_18,Hotel,Accademia ****,46.068788,11.120519,"3, Piazzetta Padre Diego Lainez, Bolghera, Centro storico, Trento, Territorio Val d'Adige, Provincia di Trento, Trentino-Alto Adige/Südtirol, 38122, Italia",region_153
acom_19,Hotel,Prada sport *,46.038625,11.05827,"Bar Prada Sport, 87, Strada di Vason, Vason, Trento, Territorio Val d'Adige, Provincia di Trento, Trentino-Alto Adige/Südtirol, 38122, Italia",region_153
acom_20,Hotel,Alpine mugon ****,46.041015,11.059336,"Montana, 70, Strada di Vason, Vason, Trento, Territorio Val d'Adige, Provincia di Trento, Trentino-Alto Adige/Südtirol, 38123, Italia",region_153
acom_21,Hotel,Venezia **,46.067268,11.121232,"Gelateria GROM, 27, Piazza del Duomo, Bolghera, Centro storico, Trento, Territorio Val d'Adige, Provincia di Trento, Trentino-Alto Adige/Südtirol, 38122, Italia",region_153
acom_22,Hotel,Nevada **,46.039757,11.058471,"Hotel Dolomiti Chalet, 88, Strada di Vason, Vason, Trento, Territorio Val d'Adige, Provincia di Trento, Trentino-Alto Adige/Südtirol, 38123, Italia",region_153
acom_23,Hotel,Sporting trento ***,46.051187,11.111769,"Sporting Trento, 125, Via Roberto da Sanseverino, Belvedere, San Giuseppe, Ravina, Trento, Territorio Val d'Adige, Provincia di Trento, Trentino-Alto Adige/Südtirol, 38123, Italia",region_153
acom_24,Hotel,San giorgio della scala ***,46.07352,11.103739,"Via Brescia, Piedicastello, Vela, Trento, Territorio Val d'Adige, Provincia di Trento, Trentino-Alto Adige/Südtirol, 38122, Italia",region_153
acom_25,Hotel,Laghetto ***,46.001799,11.085583,"Hotel Terme, 13, Via dei Bagni di Fieno, Lago, Bernardi, Garniga Terme, Territorio Val d'Adige, Provincia di Trento, Trentino-Alto Adige/Südtirol, 38060, Italia",region_109
acom_26,Hotel,Hotel torretta,46.3122,11.6663,"SS50, Castelir di Bellamonte, Bellamonte, Predazzo, Comunità territoriale della Val di Fiemme, Provincia di Trento, Trentino-Alto Adige/Südtirol, 38037, Italia",region_55
acom_27,Hotel,Miramonti ***,46.001956,11.085328,"Miramonti, Via dei Bagni di Fieno, Lago, Bernardi, Garniga Terme, Territorio Val d'Adige, Provincia di Trento, Trentino-Alto Adige/Südtirol, Italia",region_109
acom_28,Hotel,Dolomiti chalet family hotel ***,46.027558,11.045175,"Strada delle Viote, Trento, Territorio Val d'Adige, Provincia di Trento, Trentino-Alto Adige/Südtirol, Italia",region_153
acom_29,Hotel,Terme san leonardo ***,46.080888,11.043555,"Strada di Vigolo Baselga, Vigolo Baselga, Trento, Territorio Val d'Adige, Provincia di Trento, Trentino-Alto Adige/Südtirol, 38096, Italia",region_153
acom_30,Hotel,Garni' belvedere,46.3122283,11.6671593,"SS50, Castelir di Bellamonte, Bellamonte, Predazzo, Comunità territoriale della Val di Fiemme, Provincia di Trento, Trentino-Alto Adige/Südtirol, 38037, Italia",region_55
acom_31,Hotel,Relais villa madruzzo ****,46.074083,11.146586,"Via Ponte Alto, Marnighe, Cognola, Povo, Trento, Territorio Val d'Adige, Provincia di Trento, Trentino-Alto Adige/Südtirol, 38100, Italia",region_153
acom_32,Hotel,Relais vecchio maso ****,46.068303,11.056526,"Relais Vecchio Maso, 2, Strada del Monastero di Sant'Anna, Sopramonte, Trento, Territorio Val d'Adige, Provincia di Trento, Trentino-Alto Adige/Südtirol, 38123, Italia",region_153
acom_33,Hotel,Vela ***,46.081945,11.102854,"Via Santi Cosma e Damiano, Campotrentino, Vela, Trento, Territorio Val d'Adige, Provincia di Trento, Trentino-Alto Adige/Südtirol, 38121, Italia",region_153
acom_34,Hotel,Hotel stella alpina,46.3122283,11.6671593,"SS50, Castelir di Bellamonte, Bellamonte, Predazzo, Comunità territoriale della Val di Fiemme, Provincia di Trento, Trentino-Alto Adige/Südtirol, 38037, Italia",region_55
acom_35,Hotel,Zodiaco ***,46.051062,11.072427,"Hotel Zodiaco, Strada di Vanéze, Vaneze, Trento, Territorio Val d'Adige, Provincia di Trento, Trentino-Alto Adige/Südtirol, 38122, Italia",region_153
acom_36,Hotel,Bressan *,46.061551,10.990252,"Padergnone, Vallelaghi, Comunità della Valle dei Laghi, Provincia di Trento, Trentino-Alto Adige/Südtirol, 38096, Italia",region_159
acom_37,Hotel,Al marinaio ***,46.035116,11.126162,"Via dei Marinai d'Italia, Stella di Man, Oltrefersina, Ravina, Trento, Territorio Val d'Adige, Provincia di Trento, Trentino-Alto Adige/Südtirol, 38123, Italia",region_153
acom_38,Hotel,Albermonaco ***?,46.0731,11.126414,"Hi Hotels, 25, Via Torre D'Augusto, Corallo, San Martino, Trento, Territorio Val d'Adige, Provincia di Trento, Trentino-Alto Adige/Südtirol, 38122, Italia",region_153
acom_39,Hotel,America ***,46.071124,11.124129,"Hotel America, 52, Via Torre Verde, Bolghera, Centro storico, Trento, Territorio Val d'Adige, Provincia di Trento, Trentino-Alto Adige/Südtirol, 38122, Italia",region_153
acom_40,Hotel,Hotel bellamonte,46.3122283,11.6671593,"SS50, Castelir di Bellamonte, Bellamonte, Predazzo, Comunità territoriale della Val di Fiemme, Provincia di Trento, Trentino-Alto Adige/Südtirol, 38037, Italia",region_55
acom_41,Hotel,Monte bondone ***,46.097411,11.058246,"5, Via al Lago di Terlago, Terlago, Vallelaghi, Provincia di Trento, Trentino-Alto Adige/Südtirol, 38096, Italia",region_159
acom_42,Hotel,Hotel antico,46.3122,11.6682,"SS50, Castelir di Bellamonte, Bellamonte, Predazzo, Comunità territoriale della Val di Fiemme, Provincia di Trento, Trentino-Alto Adige/Südtirol, 38037, Italia",region_55
acom_43,Hotel,Lillà ***?,46.098071,11.058179,"13, Località Maso Travolt, Terlago, Vallelaghi, Provincia di Trento, Trentino-Alto Adige/Südtirol, 38096, Italia",region_159
acom_44,Hotel,Chalet caminetto ***,46.038109,11.055346,"Hotel Chalet Caminetto, Strada di Vason, Vason, Trento, Territorio Val d'Adige, Provincia di Trento, Trentino-Alto Adige/Südtirol, Italia",region_153
acom_45,Hotel,Vason **,46.039487,11.057727,"Hotel Vason, 100, Strada di Vason, Vason, Trento, Territorio Val d'Adige, Provincia di Trento, Trentino-Alto Adige/Südtirol, 38123, Italia",region_153
acom_46,Hotel,Montana ***?,46.040801,11.058415,"Montana, 70, Strada di Vason, Vason, Trento, Territorio Val d'Adige, Provincia di Trento, Trentino-Alto Adige/Südtirol, 38123, Italia",region_153
acom_47,Hotel,Vezzano **,46.077407,10.998532,"Erboristeria, 102, Via Roma, Vezzano, Vallelaghi, Provincia di Trento, Trentino-Alto Adige/Südtirol, 38096, Italia",region_159
acom_48,Hotel,Aquila d'oro ****,46.067842,11.121495,"Via Rodolfo Belenzani, Bolghera, Centro storico, Trento, Territorio Val d'Adige, Provincia di Trento, Trentino-Alto Adige/Südtirol, 38122, Italia",region_153
acom_49,Hotel,Norge wellness resort ****,46.048775,11.066649,"Hotel Norge, Strada del Norge, Norge, Trento, Territorio Val d'Adige, Provincia di Trento, Trentino-Alto Adige/Südtirol, Italia",region_153
acom_50,Hotel,Best western ****,46.111387,11.092597,"10, Via San Sebastian, Interporto di Trento, Canova, Roncafort, Trento, Territorio Val d'Adige, Provincia di Trento, Trentino-Alto Adige/Südtirol, 38121, Italia",region_153
acom_51,Hotel,Al vecchio mulino ***,46.076509,11.019952,"SS45bis, Vezzano, Vallelaghi, Comunità della Valle dei Laghi, Provincia di Trento, Trentino-Alto Adige/Südtirol, 38096, Italia",region_159
acom_52,Hotel,Oasi *,46.099792,11.112011,"Hotel Oasi, Via Bolzano, Centochiavi, Canova, Gardolo, Trento, Territorio Val d'Adige, Provincia di Trento, Trentino-Alto Adige/Südtirol, 38121, Italia",region_153
acom_53,Hotel,Augustus **,46.051569,11.072813,"28, Strada di Vanéze, Vaneze, Trento, Territorio Val d'Adige, Provincia di Trento, Trentino-Alto Adige/Südtirol, 38123, Italia",region_153
acom_54,Hotel,Adige ****,46.01488,11.132218,"Ronchi, Mattarello, Trento, Territorio Val d'Adige, Provincia di Trento, Trentino-Alto Adige/Südtirol, 38123, Italia",region_153
acom_55,Hotel,Hotel sole - bellamonte,46.310638,11.6747376,"Via de l'Or, Bellamonte, Predazzo, Comunità territoriale della Val di Fiemme, Provincia di Trento, Trentino-Alto Adige/Südtirol, 38037, Italia",region_55
acom_56,Hotel,Zaluna,46.3144,11.6469,"Via Prai de Mont, Somaìla, Zaluna, Bellamonte, Predazzo, Comunità territoriale della Val di Fiemme, Provincia di Trento, Trentino-Alto Adige/Südtirol, 38037, Italia",region_55
acom_57,Hotel,Torretta (dip),46.3122,11.6663,"SS50, Castelir di Bellamonte, Bellamonte, Predazzo, Comunità territoriale della Val di Fiemme, Provincia di Trento, Trentino-Alto Adige/Südtirol, 38037, Italia",region_55
acom_58,Campsite,Camping valle verde,46.30935143,11.64001465,"Strada forestale di Cece, Zaluna, Bellamonte, Predazzo, Comunità territoriale della Val di Fiemme, Provincia di Trento, Trentino-Alto Adige/Südtirol, 38037, Italia",region_55
acom_59,Campsite,Camping bellamonte,46.3111901,11.6588808,"Fiemme Village, 16, Via Cece, Bellamonte, Predazzo, Comunità territoriale della Val di Fiemme, Provincia di Trento, Trentino-Alto Adige/Südtirol, 38037, Italia",region_55
acom_60,Holiday_house,Cuccia mariaclara,46.3141,11.6608,"Via Viezzena, Bellamonte, Predazzo, Comunità territoriale della Val di Fiemme, Provincia di Trento, Trentino-Alto Adige/Südtirol, 38037, Italia",region_55
acom_61,Holiday_house,Varesco rina,46.3131,11.6625,"Via Prai de Mont, Bellamonte, Predazzo, Comunità territoriale della Val di Fiemme, Provincia di Trento, Trentino-Alto Adige/Südtirol, Italia",region_55
acom_62,Holiday_house,Mancurti olga,46.3128,11.6605,"Bellamonte, Predazzo, Comunità territoriale della Val di Fiemme, Provincia di Trento, Trentino-Alto Adige/Südtirol, Italia",region_55
acom_63,Hotel,Garni' turismo,46.1175,11.2049,"Via di Spiaz, San Rocco, Fornace, Comunità Alta Valsugana e Bersntol, Provincia di Trento, Trentino-Alto Adige/Südtirol, 38041, Italia",region_112
acom_64,Holiday_house,Cristellon jellici rosa,46.3148,11.6651,"Via de Val, Bellamonte, Predazzo, Comunità territoriale della Val di Fiemme, Provincia di Trento, Trentino-Alto Adige/Südtirol, Italia",region_55
acom_65,Hotel,Albergo ristorante alle piramidi (segonzano),46.187355,11.2584,"Alle Piramidi, Strada Provinciale 71 Fersina - Avisio, Scancio, Segonzano, Comunità della Valle di Cembra, Provincia di Trento, Trentino-Alto Adige/Südtirol, 38047, Italia",region_144
acom_66,Holiday_house,Moroni alessandro,46.3141,11.6608,"Via Viezzena, Bellamonte, Predazzo, Comunità territoriale della Val di Fiemme, Provincia di Trento, Trentino-Alto Adige/Südtirol, 38037, Italia",region_55
acom_67,Holiday_house,Deflorian sesto,46.3131,11.6609,"Via Dossi, Bellamonte, Predazzo, Comunità territoriale della Val di Fiemme, Provincia di Trento, Trentino-Alto Adige/Südtirol, Italia",region_55
acom_68,Holiday_house,Zeni maria valentina,46.3162499,11.66624,"Via de Val, Bellamonte, Predazzo, Comunità territoriale della Val di Fiemme, Provincia di Trento, Trentino-Alto Adige/Südtirol, Italia",region_55
acom_69,Holiday_house,Negro emilio,46.314499,11.661994,"Bellamonte, Predazzo, Comunità territoriale della Val di Fiemme, Provincia di Trento, Trentino-Alto Adige/Südtirol, Italia",region_55
acom_70,Holiday_house,Casa soreghina di varesco maria,46.3131,11.6625,"Via Prai de Mont, Bellamonte, Predazzo, Comunità territoriale della Val di Fiemme, Provincia di Trento, Trentino-Alto Adige/Südtirol, Italia",region_55
acom_71,Holiday_house,Iellici bianca maria,46.3128755,11.6631891,"Via Prai de Mont, Bellamonte, Predazzo, Comunità territoriale della Val di Fiemme, Provincia di Trento, Trentino-Alto Adige/Südtirol, Italia",region_55
acom_72,Holiday_house,Zorzi gianfranco,46.3141,11.6608,"Via Viezzena, Bellamonte, Predazzo, Comunità territoriale della Val di Fiemme, Provincia di Trento, Trentino-Alto Adige/Südtirol, 38037, Italia",region_55
acom_73,Holiday_house,Casati giuliano,46.3131,11.6609,"Via Dossi, Bellamonte, Predazzo, Comunità territoriale della Val di Fiemme, Provincia di Trento, Trentino-Alto Adige/Südtirol, Italia",region_55
acom_74,Hotel,Albergo ristorante doss pules,46.155827,11.155343,"Valternigo di Giovo, Verla, Giovo, Comunità della Valle di Cembra, Provincia di Trento, Trentino-Alto Adige/Südtirol, 38030, Italia",region_111
acom_75,Holiday_house,Dellantonio luigi,46.3139,11.6688,"Via Serradori, Bellamonte, Predazzo, Comunità territoriale della Val di Fiemme, Provincia di Trento, Trentino-Alto Adige/Südtirol, 38037, Italia",region_55
acom_76,Holiday_house,Baita l'or,46.312,11.6617,"Via Cece, Bellamonte, Predazzo, Comunità territoriale della Val di Fiemme, Provincia di Trento, Trentino-Alto Adige/Südtirol, Italia",region_55
acom_77,Holiday_house,Bulfon brigadoi nella,46.3139,11.6688,"Via Serradori, Bellamonte, Predazzo, Comunità territoriale della Val di Fiemme, Provincia di Trento, Trentino-Alto Adige/Südtirol, 38037, Italia",region_55
acom_78,Hotel,Bio hotel  brusago,46.1828,11.3255,"Bio Hotel Brusago, SP77, Tanel, Brusago, Bedollo, Comunità Alta Valsugana e Bersntol, Provincia di Trento, Trentino-Alto Adige/Südtirol, 38043, Italia",region_6
acom_79,Hotel,Hotel montecroce,46.1826,11.3259,"SP77, Tanel, Brusago, Bedollo, Comunità Alta Valsugana e Bersntol, Provincia di Trento, Trentino-Alto Adige/Südtirol, 38043, Italia",region_6
acom_80,Hotel,Albergo posta,46.088844,11.180852,"8, Via Roma, Orzano, Civezzano, Comunità Alta Valsugana e Bersntol, Provincia di Trento, Trentino-Alto Adige/Südtirol, 38045, Italia",region_99
acom_81,Hotel,Miralaghi **,46.058905,10.97911,"Albergo Miralaghi, 114, via Nazionale, Calavino, Madruzzo, Comunità della Valle dei Laghi, Provincia di Trento, Trentino-Alto Adige/Südtirol, 38076, Italia",region_113
acom_82,Hotel,Hotel alle piramidi,46.187355,11.2584,"Alle Piramidi, Strada Provinciale 71 Fersina - Avisio, Scancio, Segonzano, Comunità della Valle di Cembra, Provincia di Trento, Trentino-Alto Adige/Südtirol, 38047, Italia",region_144
acom_83,Hotel,Due laghi *,46.058938,10.978665,"Due Laghi, via Nazionale, Calavino, Madruzzo, Comunità della Valle dei Laghi, Provincia di Trento, Trentino-Alto Adige/Südtirol, 38072, Italia",region_113
acom_84,Holiday_house,Lagolo,46.037492,11.002635,"Via dei Pini, Lagolo, Calavino, Madruzzo, Comunità della Valle dei Laghi, Provincia di Trento, Trentino-Alto Adige/Südtirol, 38076, Italia",region_113
acom_85,Hotel,Hotel salvanel,46.2925,11.4598,"Via Carlo Esterle, Cavalese, Comunità territoriale della Val di Fiemme, Provincia di Trento, Trentino-Alto Adige/Südtirol, 38033, Italia",region_21
acom_86,Hotel,Alla rosa,46.3108059,11.6013302,"Via Garibaldi, Pè de Pardàc, Coste, Predazzo, Comunità territoriale della Val di Fiemme, Provincia di Trento, Trentino-Alto Adige/Südtirol, 38037, Italia",region_55
acom_87,Hotel,Stella,46.2901777,11.4605315,"Via Campanari, Cavalese, Comunità territoriale della Val di Fiemme, Provincia di Trento, Trentino-Alto Adige/Südtirol, 38033, Italia",region_21
acom_88,Hotel,Park hotel azalea,46.2899,11.4579,"Park Hotel Azalea, 1, Via delle Cesure, Cavalese, Comunità territoriale della Val di Fiemme, Provincia di Trento, Trentino-Alto Adige/Südtirol, 38033, Italia",region_21
acom_89,Hotel,Hotel la roccia,46.2888972,11.4685805,"Via Marco, Cavazzal, Cavalese, Comunità territoriale della Val di Fiemme, Provincia di Trento, Trentino-Alto Adige/Südtirol, 38033, Italia",region_21
acom_90,Hotel,Panorama,46.2876,11.468,"Hotel Panorama, 7, Via Cavazzal, Cavazzal, Cavalese, Comunità territoriale della Val di Fiemme, Provincia di Trento, Trentino-Alto Adige/Südtirol, 38033, Italia",region_21
acom_91,Hotel,Montanara,46.3164217,11.600369,"Via Indipendenza, Poz, Al Fol, Predazzo, Comunità territoriale della Val di Fiemme, Provincia di Trento, Trentino-Alto Adige/Südtirol, 38037, Italia",region_55
acom_92,Hotel,Latemar,46.2830673,11.4369615,"Via Latemar, Castello di Fiemme, Castello-Molina di Fiemme, Comunità territoriale della Val di Fiemme, Provincia di Trento, Trentino-Alto Adige/Südtirol, 38099, Italia",region_15
acom_93,Hotel,R.t.a. montechiara,46.1494,11.2688,"Via dei due laghi, Al Sant, Cagnotti, Campolongo, Baselga di Piné, Comunità Alta Valsugana e Bersntol, Provincia di Trento, Trentino-Alto Adige/Südtirol, 38042, Italia",region_5
acom_94,Hotel,Garni' manuela,46.2914452,11.462862,"Hotel Bellavista, 5, Via Pizzegoda, Cavazzal, Cavalese, Comunità territoriale della Val di Fiemme, Provincia di Trento, Trentino-Alto Adige/Südtirol, 38033, Italia",region_21
acom_95,Hotel,Albergo ritorante due laghi,46.1508,11.273,"Albergo due laghi, Via dei due laghi, Al Sant, Cagnotti, Campolongo, Baselga di Piné, Comunità Alta Valsugana e Bersntol, Provincia di Trento, Trentino-Alto Adige/Südtirol, 38042, Italia",region_5
acom_96,Hotel,Sport hotel sass maor,46.3098,11.6067,"Via Guglielmo Marconi, Molìn, Baldìss, Predazzo, Comunità territoriale della Val di Fiemme, Provincia di Trento, Trentino-Alto Adige/Südtirol, 38037, Italia",region_55
acom_97,Holiday_house,Andreatta onorina,46.1494088,11.2695905,"13, Via di Campolongo, Al Sant, Silari, Campolongo, Baselga di Piné, Comunità Alta Valsugana e Bersntol, Provincia di Trento, Trentino-Alto Adige/Südtirol, 38042, Italia",region_5
acom_98,Hotel,Hotel alla comparsa,46.094128,11.2339,"Albergo Comparsa, Via Domenica Targa, Guarda, Canzolino, Pergine Valsugana, Comunità Alta Valsugana e Bersntol, Provincia di Trento, Trentino-Alto Adige/Südtirol, 38042, Italia",region_125
acom_99,Hotel,Aurora,46.0836,11.2264,"Via Lungolago, Pissol, Canzolino, Pergine Valsugana, Comunità Alta Valsugana e Bersntol, Provincia di Trento, Trentino-Alto Adige/Südtirol, 38057, Italia",region_125
acom_100,Hotel,Liz,46.3071577,11.60024285,"Via Fiamme Gialle, Pè de Pardàc, Coste, Predazzo, Comunità territoriale della Val di Fiemme, Provincia di Trento, Trentino-Alto Adige/Südtirol, 38037, Italia",region_55
acom_101,Hotel,Alla comparsa,46.09415639,11.233778,"Albergo Comparsa, Via Domenica Targa, Guarda, Canzolino, Pergine Valsugana, Comunità Alta Valsugana e Bersntol, Provincia di Trento, Trentino-Alto Adige/Südtirol, 38042, Italia",region_125
acom_102,Hotel,Cauriol,46.2904,11.5676,"Galleria Valaverta, Zanolin, Ziano di Fiemme, Comunità territoriale della Val di Fiemme, Provincia di Trento, Trentino-Alto Adige/Südtirol, 38037, Italia",region_165
acom_103,Hotel,Negritella,46.2840577,11.5612795,"Via Stazione, Zanolin, Ziano di Fiemme, Comunità territoriale della Val di Fiemme, Provincia di Trento, Trentino-Alto Adige/Südtirol, 38038, Italia",region_165
acom_104,Hotel,Orso grigio,46.2915771,11.4589324,"Via Giacomo Giovanelli, Cavalese, Comunità territoriale della Val di Fiemme, Provincia di Trento, Trentino-Alto Adige/Südtirol, 38033, Italia",region_21
acom_105,Hotel,Corona,46.29,11.4386,"SP126 della Taoletta - Via A. Giovanelli, Villaggio Veronza, Carano, Ville di Fiemme, Comunità territoriale della Val di Fiemme, Provincia di Trento, Trentino-Alto Adige/Südtirol, 38099, Italia",region_164
acom_106,Hotel,Tilde,46.2911146,11.5102901,"Vicolo Scario, Tesero, Comunità territoriale della Val di Fiemme, Provincia di Trento, Trentino-Alto Adige/Südtirol, 38038, Italia",region_156
acom_107,Hotel,Albergo veronza,46.2901,11.4328,"Villaggio Veronza, Carano, Ville di Fiemme, Comunità territoriale della Val di Fiemme, Provincia di Trento, Trentino-Alto Adige/Südtirol, 38099, Italia",region_164
acom_108,Hotel,Hotel maria,46.2929,11.4438,"Via A. Giovanelli, Villaggio Veronza, Carano, Ville di Fiemme, Comunità territoriale della Val di Fiemme, Provincia di Trento, Trentino-Alto Adige/Südtirol, 38033, Italia",region_164
acom_109,Hotel,Excelsior el molin,46.2916266,11.4595622,"1, Via San Sebastiano, Cavalese, Comunità territoriale della Val di Fiemme, Provincia di Trento, Trentino-Alto Adige/Südtirol, 38033, Italia",region_21
acom_110,Hotel,Lucia,46.3423,11.5451,"SP215, Tesero, Comunità territoriale della Val di Fiemme, Provincia di Trento, Trentino-Alto Adige/Südtirol, Italia",region_156
acom_111,Hotel,Albergo bellaria,46.29227359,11.44363403,"Via A. Giovanelli, Villaggio Veronza, Carano, Ville di Fiemme, Comunità territoriale della Val di Fiemme, Provincia di Trento, Trentino-Alto Adige/Südtirol, 38033, Italia",region_164
acom_112,Campsite,Campeggio calvello,46.2921357,11.4407586,"Via Galinae, Villaggio Veronza, Carano, Ville di Fiemme, Comunità territoriale della Val di Fiemme, Provincia di Trento, Trentino-Alto Adige/Südtirol, 38099, Italia",region_164
acom_113,Hotel,Maria,46.3162,11.5973,"Corso Dolomiti, La Bìra, Al Fol, Predazzo, Comunità territoriale della Val di Fiemme, Provincia di Trento, Trentino-Alto Adige/Südtirol, 38037, Italia",region_55
acom_114,Holiday_house,Bonelli cristina,46.2915037,11.4379931,"11, Via Libertà, Villaggio Veronza, Carano, Ville di Fiemme, Comunità territoriale della Val di Fiemme, Provincia di Trento, Trentino-Alto Adige/Südtirol, 38033, Italia",region_164
acom_115,Holiday_house,Longo elisa,46.2932,11.4399,"Scuola primaria Carano, 34, Via Paredon, Villaggio Veronza, Carano, Ville di Fiemme, Comunità territoriale della Val di Fiemme, Provincia di Trento, Trentino-Alto Adige/Südtirol, 38033, Italia",region_164
acom_116,Hotel,Garni' laurino,46.289883,11.4603011,"Hotel Garnì Laurino, 14, Via Antoniazzi, Cavalese, Comunità territoriale della Val di Fiemme, Provincia di Trento, Trentino-Alto Adige/Südtirol, 38033, Italia",region_21
acom_117,Hotel,La stua,46.2932332,11.4591886,"8, Via Baldieroni, Cavalese, Comunità territoriale della Val di Fiemme, Provincia di Trento, Trentino-Alto Adige/Südtirol, 38033, Italia",region_21
acom_118,Holiday_house,Varesco wilma,46.2885,11.4401,"Via Bivio, Villaggio Veronza, Carano, Ville di Fiemme, Comunità territoriale della Val di Fiemme, Provincia di Trento, Trentino-Alto Adige/Südtirol, 38099, Italia",region_164
acom_119,Holiday_house,Segat giorgio,46.2909,11.4334,"Piazza Dolomiti, Villaggio Veronza, Carano, Ville di Fiemme, Comunità territoriale della Val di Fiemme, Provincia di Trento, Trentino-Alto Adige/Südtirol, 38033, Italia",region_164
acom_120,Hotel,Zanon,46.2904,11.5676,"Galleria Valaverta, Zanolin, Ziano di Fiemme, Comunità territoriale della Val di Fiemme, Provincia di Trento, Trentino-Alto Adige/Südtirol, 38037, Italia",region_165
acom_121,Hotel,Hotel erica,46.31501321,11.50290012,"Hotel Villa di Bosco, 2, Strada Provinciale 215 di Pampeago, Stava, Tesero, Comunità territoriale della Val di Fiemme, Provincia di Trento, Trentino-Alto Adige/Südtirol, 38038, Italia",region_156
acom_122,Hotel,Pont'hotel,46.2838831,11.5603995,"Via Stazione, Zanolin, Ziano di Fiemme, Comunità territoriale della Val di Fiemme, Provincia di Trento, Trentino-Alto Adige/Südtirol, 38038, Italia",region_165
acom_123,Hotel,Hotel garden,46.2893391,11.4526972,"Via Trento, Cavalese, Comunità territoriale della Val di Fiemme, Provincia di Trento, Trentino-Alto Adige/Südtirol, 38033, Italia",region_21
acom_124,Holiday_house,Pellegrini mariagrazia,46.2925413,11.4397947,"Cassa Rurale Centrofiemme, Via Paredon, Villaggio Veronza, Carano, Ville di Fiemme, Comunità territoriale della Val di Fiemme, Provincia di Trento, Trentino-Alto Adige/Südtirol, 38099, Italia",region_164
acom_125,Holiday_house,Delvai augusto,46.2935,11.438,"SP126 della Taoletta - Via Federico Tommasi, Villaggio Veronza, Carano, Ville di Fiemme, Comunità territoriale della Val di Fiemme, Provincia di Trento, Trentino-Alto Adige/Südtirol, 38099, Italia",region_164
acom_126,Holiday_house,Quadraroli florenza,46.29191,11.43259,"Via Lagorai, Villaggio Veronza, Carano, Ville di Fiemme, Comunità territoriale della Val di Fiemme, Provincia di Trento, Trentino-Alto Adige/Südtirol, 38099, Italia",region_164
acom_127,Hotel,Olimpionico hotel,46.28340644,11.43887043,"Latemar, Via Latemar, Castello di Fiemme, Castello-Molina di Fiemme, Comunità territoriale della Val di Fiemme, Provincia di Trento, Trentino-Alto Adige/Südtirol, 38099, Italia",region_15
acom_128,Holiday_house,Giovanelli firmo,46.2931,11.4398,"Via Paredon, Villaggio Veronza, Carano, Ville di Fiemme, Comunità territoriale della Val di Fiemme, Provincia di Trento, Trentino-Alto Adige/Südtirol, 38099, Italia",region_164
acom_129,Hotel,Rio stava family resort & spa,46.2960997,11.5044179,"Strada Provinciale 215 di Pampeago, Tesero, Comunità territoriale della Val di Fiemme, Provincia di Trento, Trentino-Alto Adige/Südtirol, 38038, Italia",region_156
acom_130,Hotel,Park hotel sacro cuore,46.2915096,11.4565928,"Park Hotel Sacro Cuore, 1, Via Val di Ronco, Cavalese, Comunità territoriale della Val di Fiemme, Provincia di Trento, Trentino-Alto Adige/Südtirol, 38033, Italia",region_21
acom_131,Hotel,Goccia d'oro,46.2887741,11.4516513,"Via Renaldo, Cavalese, Comunità territoriale della Val di Fiemme, Provincia di Trento, Trentino-Alto Adige/Südtirol, 38033, Italia",region_21
acom_132,Holiday_house,Delvai ernesto,46.2915,11.4368,"Via Fontanella, Villaggio Veronza, Carano, Ville di Fiemme, Comunità territoriale della Val di Fiemme, Provincia di Trento, Trentino-Alto Adige/Südtirol, 38099, Italia",region_164
acom_133,Hotel,Eurotel del cermis,46.2378104,11.4769019,"Strada Forestale Val Moena, Cavalese, Comunità territoriale della Val di Fiemme, Provincia di Trento, Trentino-Alto Adige/Südtirol, Italia",region_21
acom_134,Hotel,Rosengarten,46.2828403,11.4357896,"Via Campo Liberto, Castello di Fiemme, Castello-Molina di Fiemme, Comunità territoriale della Val di Fiemme, Provincia di Trento, Trentino-Alto Adige/Südtirol, 38099, Italia",region_15
acom_135,Holiday_house,Varesco  wilma,46.29095,11.43895,"SP126 della Taoletta - Via A. Giovanelli, Villaggio Veronza, Carano, Ville di Fiemme, Comunità territoriale della Val di Fiemme, Provincia di Trento, Trentino-Alto Adige/Südtirol, 38099, Italia",region_164
acom_136,Hotel,Berg hotel miramonti,46.3162,11.5031,"Hotel Villa di Bosco, 2, Strada Provinciale 215 di Pampeago, Stava, Tesero, Comunità territoriale della Val di Fiemme, Provincia di Trento, Trentino-Alto Adige/Südtirol, 38038, Italia",region_156
acom_137,Hotel,San valier,46.288467,11.462169,"Hotel San Valier, 7, Via Guglielmo Marconi, Cavalese, Comunità territoriale della Val di Fiemme, Provincia di Trento, Trentino-Alto Adige/Südtirol, 38033, Italia",region_21
acom_138,Holiday_house,Munda calogero,46.2920752,11.4319375,"Via Val di Fiemme, Villaggio Veronza, Carano, Ville di Fiemme, Comunità territoriale della Val di Fiemme, Provincia di Trento, Trentino-Alto Adige/Südtirol, 38099, Italia",region_164
acom_139,Hotel,Los andes,46.282358,11.4379361,"Hotel Los Andes, 5, Via Dolomiti, Castello di Fiemme, Castello-Molina di Fiemme, Comunità territoriale della Val di Fiemme, Provincia di Trento, Trentino-Alto Adige/Südtirol, 38030, Italia",region_15
acom_140,Hotel,Scoiattolo,46.3418295,11.5401582,"Strada Provinciale 215 di Pampeago, Tesero, Comunità territoriale della Val di Fiemme, Provincia di Trento, Trentino-Alto Adige/Südtirol, Italia",region_156
acom_141,Hotel,Al cervo,46.2892,11.5117,"Municipio di Tesero, Via Quattro Novembre, Tesero, Lago di Tesero, Tesero, Comunità territoriale della Val di Fiemme, Provincia di Trento, Trentino-Alto Adige/Südtirol, 38038, Italia",region_156
acom_142,Hotel,Vinella,46.31699915,11.59748554,"Via Giuseppe Mazzini, La Bìra, Al Fol, Predazzo, Comunità territoriale della Val di Fiemme, Provincia di Trento, Trentino-Alto Adige/Südtirol, 38037, Italia",region_55
acom_143,Hotel,Hotel shandrani (dip),46.32251196,11.5042305,"Strada Provinciale 215 di Pampeago, Stava, Tesero, Comunità territoriale della Val di Fiemme, Provincia di Trento, Trentino-Alto Adige/Südtirol, 38038, Italia",region_156
acom_144,Hotel,Ancora,46.31117453,11.60293579,"Via 9 Novembre, Pè de Pardàc, Coste, Predazzo, Comunità territoriale della Val di Fiemme, Provincia di Trento, Trentino-Alto Adige/Südtirol, 38037, Italia",region_55
acom_145,Hotel,Costabella,46.2960981,11.454679,"Via Costabella, Cavalese, Comunità territoriale della Val di Fiemme, Provincia di Trento, Trentino-Alto Adige/Südtirol, 38033, Italia",region_21
acom_146,Hotel,Hotel bellaria,46.3114,11.5993,"Istituto tecnico per il settore economico, 14, Corso Alcide Degasperi, Molìn, Coste, Predazzo, Comunità territoriale della Val di Fiemme, Provincia di Trento, Trentino-Alto Adige/Südtirol, 38037, Italia",region_55
acom_147,Hotel,Bella costa,46.2893391,11.4526972,"Via Trento, Cavalese, Comunità territoriale della Val di Fiemme, Provincia di Trento, Trentino-Alto Adige/Südtirol, 38033, Italia",region_21
acom_148,Hotel,Polo,46.2904,11.5676,"Galleria Valaverta, Zanolin, Ziano di Fiemme, Comunità territoriale della Val di Fiemme, Provincia di Trento, Trentino-Alto Adige/Südtirol, 38037, Italia",region_165
acom_149,Hotel,Montanara,46.2904,11.5676,"Galleria Valaverta, Zanolin, Ziano di Fiemme, Comunità territoriale della Val di Fiemme, Provincia di Trento, Trentino-Alto Adige/Südtirol, 38037, Italia",region_165
acom_150,Hotel,Hotel bellavista - hbv winebar,46.29190292,11.46165848,"La Salera, 3, Via Pizzegoda, Cavalese, Comunità territoriale della Val di Fiemme, Provincia di Trento, Trentino-Alto Adige/Südtirol, 38033, Italia",region_21
acom_151,Holiday_house,Tosato pamela,46.250305,11.343062,"Casatta, Valfloriana, Comunità territoriale della Val di Fiemme, Provincia di Trento, Trentino-Alto Adige/Südtirol, 38030, Italia",region_154
acom_152,Hotel,Hotel villa di bosco,46.31261221,11.50397301,"Strada Provinciale 215 di Pampeago, Stava, Tesero, Comunità territoriale della Val di Fiemme, Provincia di Trento, Trentino-Alto Adige/Südtirol, 38038, Italia",region_156
acom_153,Hotel,Hotel shandrani,46.32079297,11.5024066,"Hotel Shandranj, Strada Provinciale 215 di Pampeago, Stava, Tesero, Comunità territoriale della Val di Fiemme, Provincia di Trento, Trentino-Alto Adige/Südtirol, 38038, Italia",region_156
acom_154,Hotel,Hotel dolomiti,46.2588,11.3379,"Strada Statale 612 della Val di Cembra, Maso Lio, Capriana, Comunità territoriale della Val di Fiemme, Provincia di Trento, Trentino-Alto Adige/Südtirol, 38030, Italia",region_20
acom_155,Hotel,Albergo  al caminetto,46.1743,11.2235,"Fadana, Cembra, Cembra Lisignago, Comunità della Valle di Cembra, Provincia di Trento, Trentino-Alto Adige/Südtirol, 38034, Italia",region_100
acom_156,Hotel,Albergo europa,46.1716,11.2199,"Europa, Via San Carlo, Fadana, Cembra, Cembra Lisignago, Comunità della Valle di Cembra, Provincia di Trento, Trentino-Alto Adige/Südtirol, 38041, Italia",region_100
acom_157,Holiday_house,Nardon laura,46.1763,11.223,"Via Fabio Filzi, Fadana, Cembra, Cembra Lisignago, Comunità della Valle di Cembra, Provincia di Trento, Trentino-Alto Adige/Südtirol, 38047, Italia",region_100
acom_158,Hotel,Pozzole,46.3201867,11.499024,"SP215dir, Stava, Tesero, Comunità territoriale della Val di Fiemme, Provincia di Trento, Trentino-Alto Adige/Südtirol, 38038, Italia",region_156
acom_159,Hotel,Sporting club,46.28581,11.46419,"Passeggiata Santa Maria della Lasta, Cavazzal, Cavalese, Comunità territoriale della Val di Fiemme, Provincia di Trento, Trentino-Alto Adige/Südtirol, 38033, Italia",region_21
acom_160,Hotel,Touring,46.3102,11.6022,"Athenas, Via Trento, Pè de Pardàc, Coste, Predazzo, Comunità territoriale della Val di Fiemme, Provincia di Trento, Trentino-Alto Adige/Südtirol, 38037, Italia",region_55
acom_161,Hotel,Cimon dolomites hotel,46.304,11.601,"Via delle Fontanele, Coste, Predazzo, Comunità territoriale della Val di Fiemme, Provincia di Trento, Trentino-Alto Adige/Südtirol, 38037, Italia",region_55
acom_162,Hotel,Hotel nele,46.2904,11.5676,"Galleria Valaverta, Zanolin, Ziano di Fiemme, Comunità territoriale della Val di Fiemme, Provincia di Trento, Trentino-Alto Adige/Südtirol, 38037, Italia",region_165
acom_163,Hotel,Pineta,46.282485,11.436734,"6, Via Latemar, Castello di Fiemme, Castello-Molina di Fiemme, Comunità territoriale della Val di Fiemme, Provincia di Trento, Trentino-Alto Adige/Südtirol, 38030, Italia",region_15
acom_164,Hotel,Hotel lagorai resort & spa,46.2914,11.4716,"Via Val di Fontana, Cavazzal, Cavalese, Comunità territoriale della Val di Fiemme, Provincia di Trento, Trentino-Alto Adige/Südtirol, 38033, Italia",region_21
acom_165,Hotel,Genzianella,46.2869575,11.5649995,"Via Sentiero degli Alpini, Bosin, Ziano di Fiemme, Comunità territoriale della Val di Fiemme, Provincia di Trento, Trentino-Alto Adige/Südtirol, 38037, Italia",region_165
acom_166,Holiday_house,Residenza san rocco,46.175,11.2225,"Scuola dell'infanzia di Cembra, 1, Via Cesare Battisti, Fadana, Cembra, Cembra Lisignago, Comunità della Valle di Cembra, Provincia di Trento, Trentino-Alto Adige/Südtirol, 38034, Italia",region_100
acom_167,Holiday_house,Gottardi annino,46.1763,11.2225,"Via Fabio Filzi, Fadana, Cembra, Cembra Lisignago, Comunità della Valle di Cembra, Provincia di Trento, Trentino-Alto Adige/Südtirol, 38047, Italia",region_100
acom_168,Hotel,Dolomiti,46.2924,11.4619,"13, Via Montebello, Cavazzal, Cavalese, Comunità territoriale della Val di Fiemme, Provincia di Trento, Trentino-Alto Adige/Südtirol, 38033, Italia",region_21
acom_169,Hotel,Sport hotel pampeago,46.3418295,11.5401582,"Strada Provinciale 215 di Pampeago, Tesero, Comunità territoriale della Val di Fiemme, Provincia di Trento, Trentino-Alto Adige/Südtirol, Italia",region_156
acom_170,Hotel,Grünwald,46.2881,11.4602,"Hotel Relais Grünwald, 3, Via Bresadola, Cavalese, Comunità territoriale della Val di Fiemme, Provincia di Trento, Trentino-Alto Adige/Südtirol, 38033, Italia",region_21
acom_171,Hotel,Park hotel villa trunka lunka,46.2901777,11.4605315,"Via Campanari, Cavalese, Comunità territoriale della Val di Fiemme, Provincia di Trento, Trentino-Alto Adige/Südtirol, 38033, Italia",region_21
acom_172,Hotel,Hotel villa jolanda,46.2904,11.5676,"Galleria Valaverta, Zanolin, Ziano di Fiemme, Comunità territoriale della Val di Fiemme, Provincia di Trento, Trentino-Alto Adige/Südtirol, 38037, Italia",region_165
acom_173,Holiday_house,Nattivi luciano,46.1647,11.3069,"Via Giuseppe Verdi, Redi, Centrale, Bedollo, Comunità Alta Valsugana e Bersntol, Provincia di Trento, Trentino-Alto Adige/Südtirol, 38043, Italia",region_6
acom_174,Hotel,Albergo edy,46.3009,11.4486,"SP126 della Taoletta - Via Lunga, Daiano, Ville di Fiemme, Comunità territoriale della Val di Fiemme, Provincia di Trento, Trentino-Alto Adige/Südtirol, 38099, Italia",region_164
acom_175,Hotel,Maso ganzaie,46.3092,11.4356,"Via Prabocolo, Daiano, Ville di Fiemme, Comunità territoriale della Val di Fiemme, Provincia di Trento, Trentino-Alto Adige/Südtirol, 38099, Italia",region_164
acom_176,Holiday_house,Caviola diego,46.3025,11.4492,"Via Colonia, Daiano, Ville di Fiemme, Comunità territoriale della Val di Fiemme, Provincia di Trento, Trentino-Alto Adige/Südtirol, 38099, Italia",region_164
acom_177,Hotel,Hotel sat lagorai,46.14865853,11.51461601,"Strada forestale Campeleto, Telve, Comunità Valsugana e Tesino, Provincia di Trento, Trentino-Alto Adige/Südtirol, Italia",region_72
acom_178,Holiday_house,Defrancesco dolores,46.3023,11.4503,"Via Pasqualine, Daiano, Ville di Fiemme, Comunità territoriale della Val di Fiemme, Provincia di Trento, Trentino-Alto Adige/Südtirol, 38033, Italia",region_164
acom_179,Holiday_house,Turetta giuseppe,46.3015,11.4496,"Via Barel, Daiano, Ville di Fiemme, Comunità territoriale della Val di Fiemme, Provincia di Trento, Trentino-Alto Adige/Südtirol, 38099, Italia",region_164
acom_180,Holiday_house,Braito luciano,46.3009,11.4477,"Residence Miramonti, 15, Via Miramonti, Daiano, Ville di Fiemme, Comunità territoriale della Val di Fiemme, Provincia di Trento, Trentino-Alto Adige/Südtirol, 38099, Italia",region_164
acom_181,Holiday_house,Rigotti enzo,46.3011,11.4456,"Via Morandel, Daiano, Ville di Fiemme, Comunità territoriale della Val di Fiemme, Provincia di Trento, Trentino-Alto Adige/Südtirol, 38099, Italia",region_164
acom_182,Hotel,Villa waiz,46.05079285,11.40964508,"Gionzeri, Roncegno Terme, Comunità Valsugana e Tesino, Provincia di Trento, Trentino-Alto Adige/Südtirol, 38051, Italia",region_132
acom_183,Hotel,Paoli hotel - antica trattoria alla vedova,45.9894,11.2984,"Lochere, Caldonazzo, Comunità Alta Valsugana e Bersntol, Provincia di Trento, Trentino-Alto Adige/Südtirol, 38052, Italia",region_89
acom_184,Hotel,Hotel cristo d'oro,46.0799,11.5225,"39a, Via Nuova Inferiore, Maso Buffa, Castel Ivano, Comunità Valsugana e Tesino, Provincia di Trento, Trentino-Alto Adige/Südtirol, 38059, Italia",region_16
acom_185,Hotel,Compet,46.03945883,11.29986763,"Strada Provinciale 12 di Vignola e Panarotta, La Gadainera, Stal, Vignola, Vignola Falesina, Comunità Alta Valsugana e Bersntol, Provincia di Trento, Trentino-Alto Adige/Südtirol, 38056, Italia",region_161
acom_186,Hotel,Piroga,46.005,11.2472,"Via Penisola Verde, Calceranica al Lago, Comunità Alta Valsugana e Bersntol, Provincia di Trento, Trentino-Alto Adige/Südtirol, 38052, Italia",region_87
acom_187,Hotel,Villa rosa,46.05159701,11.40967727,"Villa Rosa, Via San Giuseppe, Masetti, Roncegno Terme, Comunità Valsugana e Tesino, Provincia di Trento, Trentino-Alto Adige/Südtirol, 38051, Italia",region_132
acom_188,Holiday_house,Spinel beniamino,46.3002,11.45,"Via San Tommaso, Daiano, Ville di Fiemme, Comunità territoriale della Val di Fiemme, Provincia di Trento, Trentino-Alto Adige/Südtirol, 38099, Italia",region_164
acom_189,Holiday_house,Ca' dei soni,46.1086,11.2402,"Grill, Faida, Baselga di Piné, Comunità Alta Valsugana e Bersntol, Provincia di Trento, Trentino-Alto Adige/Südtirol, 38042, Italia",region_5
acom_190,Holiday_house,Savoi maria grazia,46.1811,11.2363,"Scuola dell'infanzia di Faver, 17, Via Perlaia, Faver, Altavalle, Comunità della Valle di Cembra, Provincia di Trento, Trentino-Alto Adige/Südtirol, 38030, Italia",region_11
acom_191,Holiday_house,Paolazzi monica,46.1805,11.2336,"Via Campagna, Faver, Altavalle, Comunità della Valle di Cembra, Provincia di Trento, Trentino-Alto Adige/Südtirol, 38047, Italia",region_11
acom_192,Hotel,L'ost,46.222212,11.293956,"Via Fontana, Villa Alta, Grumes, Altavalle, Comunità della Valle di Cembra, Provincia di Trento, Trentino-Alto Adige/Südtirol, 38092, Italia",region_11
acom_193,Hotel,Conca d'oro (dip),46.01722339,11.6357553,"Albergo Ristorante Conca d'Oro, 1, Piazza Dante Alighieri, Grigno, Comunità Valsugana e Tesino, Provincia di Trento, Trentino-Alto Adige/Südtirol, 38055, Italia",region_36
acom_194,Hotel,La ruscoletta,46.11208431,11.4948535,"Strada Provinciale del Passo del Manghen, Volta del Corno, Telve, Comunità Valsugana e Tesino, Provincia di Trento, Trentino-Alto Adige/Südtirol, 38059, Italia",region_72
acom_195,Holiday_house,Condominio perla,46.230278,11.300556,"Via Al Pian, Grauno, Grumes, Altavalle, Comunità della Valle di Cembra, Provincia di Trento, Trentino-Alto Adige/Südtirol, 38092, Italia",region_11
acom_196,Hotel,Kapriol,46.07998846,11.63989663,"Castello Tesino, Comunità Valsugana e Tesino, Provincia di Trento, Trentino-Alto Adige/Südtirol, 38053, Italia",region_17
acom_197,Holiday_house,Simeoni luisa,46.221667,11.293611,"Via Oriola, Villa Alta, Grumes, Altavalle, Comunità della Valle di Cembra, Provincia di Trento, Trentino-Alto Adige/Südtirol, 38092, Italia",region_11
acom_198,Holiday_house,Condominio al sol,46.230833,11.300278,"Via Principale, Grauno, Grumes, Altavalle, Comunità della Valle di Cembra, Provincia di Trento, Trentino-Alto Adige/Südtirol, 38092, Italia",region_11
acom_199,Holiday_house,Tonezzer matteo,46.2305,11.2977,"Via Peroni, Grauno, Grumes, Altavalle, Comunità della Valle di Cembra, Provincia di Trento, Trentino-Alto Adige/Südtirol, 38092, Italia",region_11
acom_200,Hotel,Conca d'oro,46.01721594,11.6356802,"Albergo Ristorante Conca d'Oro, 1, Piazza Dante Alighieri, Grigno, Comunità Valsugana e Tesino, Provincia di Trento, Trentino-Alto Adige/Südtirol, 38055, Italia",region_36
acom_201,Hotel,Concordia,46.0327,11.2474,"Via Don Giovanni Angeli, Ischia, Pergine Valsugana, Comunità Alta Valsugana e Bersntol, Provincia di Trento, Trentino-Alto Adige/Südtirol, 38057, Italia",region_125
acom_202,Holiday_house,Chalet campolongo di oss remo e vannini amelia,46.0278,11.2472,"Via di Campolongo, Ischia, Pergine Valsugana, Comunità Alta Valsugana e Bersntol, Provincia di Trento, Trentino-Alto Adige/Südtirol, 38057, Italia",region_125
acom_203,Holiday_house,Chalet pineta di oss remo e vannini amelia,46.02581321,11.24862671,"Ischia, Pergine Valsugana, Comunità Alta Valsugana e Bersntol, Provincia di Trento, Trentino-Alto Adige/Südtirol, 38057, Italia",region_125
acom_204,Hotel,Pizzo degli uccelli,46.11886714,11.68850899,"Hotel Pizzo degli Uccelli, 1, Passo Brocon, Castello Tesino, Comunità Valsugana e Tesino, Provincia di Trento, Trentino-Alto Adige/Südtirol, 38053, Italia",region_17
acom_205,Hotel,Hotel margherita,46.02974635,11.25686646,"Hotel Margherita, 2, Via Pineta Alberè, Tenna, Comunità Alta Valsugana e Bersntol, Provincia di Trento, Trentino-Alto Adige/Südtirol, 38050, Italia",region_73
acom_206,Holiday_house,Banelli mario,46.03423784,11.24598742,"Via Valdesas, Ischia, Pergine Valsugana, Comunità Alta Valsugana e Bersntol, Provincia di Trento, Trentino-Alto Adige/Südtirol, 38057, Italia",region_125
acom_207,Hotel,Alpina,46.06446951,11.63227916,"Via Municipio Vecchio, Sottomolizza, Castello Tesino, Comunità Valsugana e Tesino, Provincia di Trento, Trentino-Alto Adige/Südtirol, 38053, Italia",region_17
acom_208,Hotel,Gilda,45.99539641,11.26665115,"21, Via Brenta, Caldonazzo, Comunità Alta Valsugana e Bersntol, Provincia di Trento, Trentino-Alto Adige/Südtirol, 38052, Italia",region_89
acom_209,Hotel,Albergo dolomiti,46.16029,11.235001,"Strada Provinciale 71 Fersina - Avisio, Sottolona, Lases, Lona-Lases, Comunità della Valle di Cembra, Provincia di Trento, Trentino-Alto Adige/Südtirol, 38040, Italia",region_118
acom_210,Hotel,Alla torre,45.99269072,11.25913024,"Albergo Pizzeria Ristorante ""alla Torre"", 37, Via della Villa, Caldonazzo, Comunità Alta Valsugana e Bersntol, Provincia di Trento, Trentino-Alto Adige/Südtirol, 38052, Italia",region_89
acom_211,Hotel,Piccolo principe ****,46.041486,11.004835,"SP 85 del Monte Bondone, Castel Madruzzo, Lasino, Madruzzo, Comunità della Valle dei Laghi, Provincia di Trento, Trentino-Alto Adige/Südtirol, 38076, Italia",region_113
acom_212,Hotel,Negritella,46.07733901,11.45640135,"Hotel Negritella, Frazione Campestrini, Campestrini, Torcegno, Comunità Valsugana e Tesino, Provincia di Trento, Trentino-Alto Adige/Südtirol, 38051, Italia",region_152
acom_213,Hotel,Albergo ristorante cire',46.0751,11.2107,"Via al Dos dela Roda, Roncogno, Madrano, Pergine Valsugana, Comunità Alta Valsugana e Bersntol, Provincia di Trento, Trentino-Alto Adige/Südtirol, 38057, Italia",region_125
acom_214,Hotel,Madrano,46.08573346,11.2153244,"Ristorante Argentino ¨Sapori di Patagonia¨, Piazza Giuseppe Prada, Madrano, Pergine Valsugana, Comunità Alta Valsugana e Bersntol, Provincia di Trento, Trentino-Alto Adige/Südtirol, 38057, Italia",region_125
acom_215,Hotel,Lido,46.00584522,11.26304626,"Via Lungo Lago, Caldonazzo, Comunità Alta Valsugana e Bersntol, Provincia di Trento, Trentino-Alto Adige/Südtirol, 38052, Italia",region_89
acom_216,Hotel,Palace hotel casa di salute raphael,46.04980996,11.40945196,"Casa Raphael Palace Hotel, Via Girolamo Waiz, Cadenzi, Roncegno Terme, Comunità Valsugana e Tesino, Provincia di Trento, Trentino-Alto Adige/Südtirol, 38051, Italia",region_132
acom_217,Hotel,Nikoli,46.07835118,11.20408058,"Strada Statale 47 della Valsugana, Madrano, Pergine Valsugana, Comunità Alta Valsugana e Bersntol, Provincia di Trento, Trentino-Alto Adige/Südtirol, 38057, Italia",region_125
acom_218,Hotel,Roncegno,46.0712,11.4718,"1, Vicolo San Giuseppe, Telve di Sopra, Comunità Valsugana e Tesino, Provincia di Trento, Trentino-Alto Adige/Südtirol, 38050, Italia",region_71
acom_219,Hotel,Park hotel villa angiolina,46.04552081,11.40938759,"Via prai larganza, Cadenzi, Marter, Roncegno Terme, Comunità Valsugana e Tesino, Provincia di Trento, Trentino-Alto Adige/Südtirol, Italia",region_132
acom_220,Hotel,Alla stazione,46.0328,11.3919,"16, Via Nazionale, Marter, Roncegno Terme, Comunità Valsugana e Tesino, Provincia di Trento, Trentino-Alto Adige/Südtirol, 38050, Italia",region_132
acom_221,Holiday_house,Orler franco,46.0372,11.3908,"10, Via della Sega, Bazzanella, Marter, Roncegno Terme, Comunità Valsugana e Tesino, Provincia di Trento, Trentino-Alto Adige/Südtirol, 38050, Italia",region_132
acom_222,Hotel,Albergo villa anita,46.1335,11.2487,"Via del Fosch, Gardizzola, Serraia, Miola, Baselga di Piné, Comunità Alta Valsugana e Bersntol, Provincia di Trento, Trentino-Alto Adige/Südtirol, 38042, Italia",region_5
acom_223,Hotel,Albergo cima d'asta,46.0689,11.6099,"Albergo Cima d'Asta, 2, Viale Brigata Abruzzi, Bosco Santa Maria, Pieve Tesino, Comunità Valsugana e Tesino, Provincia di Trento, Trentino-Alto Adige/Südtirol, 38050, Italia",region_53
acom_224,Hotel,La nuova conca d'oro,46.0166795,11.63429081,"83, Via Vittorio Emanuele, Grigno, Comunità Valsugana e Tesino, Provincia di Trento, Trentino-Alto Adige/Südtirol, 38055, Italia",region_36
acom_225,Hotel,Albergo ristorante la scardola,46.1293,11.2446,"Via di Gardiciola, Gardizzola, Gnaghi, Miola, Baselga di Piné, Comunità Alta Valsugana e Bersntol, Provincia di Trento, Trentino-Alto Adige/Südtirol, 38042, Italia",region_5
acom_226,Hotel,Albergo italia,46.1339,11.2485,"Via Cesare Battisti, Gardizzola, Serraia, Miola, Baselga di Piné, Comunità Alta Valsugana e Bersntol, Provincia di Trento, Trentino-Alto Adige/Südtirol, 38042, Italia",region_5
acom_227,Hotel,Villa ester,46.01518935,11.26463413,"28, Via Campolongo, Tenna, Comunità Alta Valsugana e Bersntol, Provincia di Trento, Trentino-Alto Adige/Südtirol, 38050, Italia",region_73
acom_228,Hotel,Carraro,46.0804201,11.55446827,"Lusumina, Bieno, Comunità Valsugana e Tesino, Provincia di Trento, Trentino-Alto Adige/Südtirol, 38050, Italia",region_7
acom_229,Hotel,Energy hotel,46.00443303,11.24310136,"Via della Scuola, Calceranica al Lago, Comunità Alta Valsugana e Bersntol, Provincia di Trento, Trentino-Alto Adige/Südtirol, 38052, Italia",region_87
acom_230,Hotel,Albergo serraia,46.1348,11.2491,"Pasticceria Serraia, Corso Roma, Laita, Serraia, Miola, Baselga di Piné, Comunità Alta Valsugana e Bersntol, Provincia di Trento, Trentino-Alto Adige/Südtirol, 38042, Italia",region_5
acom_231,Hotel,Olimpic hotel,46.125,11.2512,"Hotel Olimpic, Via del Cadrobol, Bugno, Palustela, Miola, Baselga di Piné, Comunità Alta Valsugana e Bersntol, Provincia di Trento, Trentino-Alto Adige/Südtirol, 38042, Italia",region_5
acom_232,Hotel,Garni' laura,46.1227,11.2597,"Via dei Prai, Bugno, Fovi, Miola, Baselga di Piné, Comunità Alta Valsugana e Bersntol, Provincia di Trento, Trentino-Alto Adige/Südtirol, 38042, Italia",region_5
acom_233,Hotel,Albergo lagorai,46.1272,11.2466,"Hotel Lagorai, Via di Gardiciola, Gardizzola, Gnaghi, Miola, Baselga di Piné, Comunità Alta Valsugana e Bersntol, Provincia di Trento, Trentino-Alto Adige/Südtirol, 38042, Italia",region_5
acom_234,Hotel,Hotel krone,46.1343,11.2486,"Hotel Krone, Via Cesare Battisti, Gardizzola, Serraia, Miola, Baselga di Piné, Comunità Alta Valsugana e Bersntol, Provincia di Trento, Trentino-Alto Adige/Südtirol, 38042, Italia",region_5
acom_235,Hotel,Garni' villa lory,46.123,11.2522,"Via del Cadrobol, Bugno, Palustela, Miola, Baselga di Piné, Comunità Alta Valsugana e Bersntol, Provincia di Trento, Trentino-Alto Adige/Südtirol, 38042, Italia",region_5
acom_236,Campsite,Camping cane' in fiore,46.12019,11.261748,"Camping Cane' in Fiore, 241/1, Via al Fioré, Bugno, Cané, Miola, Baselga di Piné, Comunità Alta Valsugana e Bersntol, Provincia di Trento, Trentino-Alto Adige/Südtirol, 38042, Italia",region_5
acom_237,Hotel,Micamada,46.00469014,11.24678135,"1, Via San Pietro, Calceranica al Lago, Comunità Alta Valsugana e Bersntol, Provincia di Trento, Trentino-Alto Adige/Südtirol, 38050, Italia",region_87
acom_238,Hotel,Semiramis,46.0525,11.4101,"Semiramis, Via Alberto Pola, Masetti, Roncegno Terme, Comunità Valsugana e Tesino, Provincia di Trento, Trentino-Alto Adige/Südtirol, 38051, Italia",region_132
acom_239,Holiday_house,Giovannini egidio,46.1305,11.2461,"Via dei Caduti, Gardizzola, Gnaghi, Miola, Baselga di Piné, Comunità Alta Valsugana e Bersntol, Provincia di Trento, Trentino-Alto Adige/Südtirol, 38042, Italia",region_5
acom_240,Holiday_house,Ioriatti norma,46.1341,11.2475,"Corso Roma, Gardizzola, Serraia, Miola, Baselga di Piné, Comunità Alta Valsugana e Bersntol, Provincia di Trento, Trentino-Alto Adige/Südtirol, 38042, Italia",region_5
acom_241,Holiday_house,Gatti carla,46.136944,11.248333,"Piazzetta conti di Schreck, Ricaldo, Miola, Baselga di Piné, Comunità Alta Valsugana e Bersntol, Provincia di Trento, Trentino-Alto Adige/Südtirol, 38042, Italia",region_5
acom_242,Hotel,Due spade,45.99161735,11.26164079,"Albergo due Spade, Via Monte Rive, Caldonazzo, Comunità Alta Valsugana e Bersntol, Provincia di Trento, Trentino-Alto Adige/Südtirol, 38052, Italia",region_89
acom_243,Holiday_house,Sighel noemi,46.1286,11.2505,"Via della Làita, Laita, Palustela, Miola, Baselga di Piné, Comunità Alta Valsugana e Bersntol, Provincia di Trento, Trentino-Alto Adige/Südtirol, 38042, Italia",region_5
acom_244,Holiday_house,Broseghini fabio,46.1308,11.2455,"Via Cesare Battisti, Gardizzola, Gnaghi, Miola, Baselga di Piné, Comunità Alta Valsugana e Bersntol, Provincia di Trento, Trentino-Alto Adige/Südtirol, 38042, Italia",region_5
acom_245,Hotel,Villa flora,46.05082635,11.40967727,"Biblioteca Comunale, 1, Piazza Achille De Giovanni, Gionzeri, Roncegno Terme, Comunità Valsugana e Tesino, Provincia di Trento, Trentino-Alto Adige/Südtirol, 38050, Italia",region_132
acom_246,Hotel,Vittoria,46.05,11.4159,"Via per Borgo, Maso Vazzena, Masetti, Roncegno Terme, Comunità Valsugana e Tesino, Provincia di Trento, Trentino-Alto Adige/Südtirol, 38051, Italia",region_132
acom_247,Hotel,Garni' bellavista,46.00423555,11.26055717,"Camping Mario Village, 4, Via Lungo Lago, Caldonazzo, Comunità Alta Valsugana e Bersntol, Provincia di Trento, Trentino-Alto Adige/Südtirol, 38052, Italia",region_89
acom_248,Holiday_house,Braghiroli tomasi alessandra,46.135,11.2491,"Pizzeria da Sergio, Viale della Serraia, Laita, Serraia, Miola, Baselga di Piné, Comunità Alta Valsugana e Bersntol, Provincia di Trento, Trentino-Alto Adige/Südtirol, 38042, Italia",region_5
acom_249,Holiday_house,Andreatta ester,46.1333992,11.2530465,"Via del Lido, Laita, Serraia, Miola, Baselga di Piné, Comunità Alta Valsugana e Bersntol, Provincia di Trento, Trentino-Alto Adige/Südtirol, 38042, Italia",region_5
acom_250,Hotel,Monte cimone,45.9958,11.2703,"Hotel Ristorante Monte Cimone, 19/21, Viale Trento, Caldonazzo, Comunità Alta Valsugana e Bersntol, Provincia di Trento, Trentino-Alto Adige/Südtirol, 38052, Italia",region_89
acom_251,Hotel,Bellavista,46.06615932,11.63434982,"Piazza Molizza, Sottomolizza, Castello Tesino, Comunità Valsugana e Tesino, Provincia di Trento, Trentino-Alto Adige/Südtirol, Italia",region_17
acom_252,Holiday_house,Sighel cristina,46.130278,11.245278,"Via del Mercato, Gardizzola, Gnaghi, Miola, Baselga di Piné, Comunità Alta Valsugana e Bersntol, Provincia di Trento, Trentino-Alto Adige/Südtirol, 38042, Italia",region_5
acom_253,Hotel,Passo brocon,46.119,11.6881,"Hotel Pizzo degli Uccelli, 1, Passo Brocon, Castello Tesino, Comunità Valsugana e Tesino, Provincia di Trento, Trentino-Alto Adige/Südtirol, 38053, Italia",region_17
acom_254,Holiday_house,Sighel sandro,46.1313,11.2463,"Via Cesare Battisti, Gardizzola, Gnaghi, Miola, Baselga di Piné, Comunità Alta Valsugana e Bersntol, Provincia di Trento, Trentino-Alto Adige/Südtirol, 38042, Italia",region_5
acom_255,Holiday_house,Anesi graziella,46.1353,11.248,"Via di Ricaldo, Laita, Serraia, Miola, Baselga di Piné, Comunità Alta Valsugana e Bersntol, Provincia di Trento, Trentino-Alto Adige/Südtirol, 38042, Italia",region_5
acom_256,Campsite,Lido lillà **,46.096732,11.056698,"4, Via al Lago di Terlago, Terlago, Vallelaghi, Provincia di Trento, Trentino-Alto Adige/Südtirol, 38096, Italia",region_159
acom_257,Campsite,Laghi di lamar **,46.110753,11.047959,"15, Via Selva Faeda, Vallene, Vallelaghi, Provincia di Trento, Trentino-Alto Adige/Südtirol, 38096, Italia",region_159
acom_258,Holiday_house,Sighel rosanna,46.124444,11.246667,"Pontara, Cadrobbi, Miola, Baselga di Piné, Comunità Alta Valsugana e Bersntol, Provincia di Trento, Trentino-Alto Adige/Südtirol, 38042, Italia",region_5
acom_259,Holiday_house,Casa dei chechi,46.1363,11.248,"Casa Ioriatti, Via Miralago, Ricaldo, Miola, Baselga di Piné, Comunità Alta Valsugana e Bersntol, Provincia di Trento, Trentino-Alto Adige/Südtirol, 38042, Italia",region_5
acom_260,Holiday_house,Fam. germano - schmohl,46.133,11.2477,"Via Cesare Battisti, Gardizzola, Serraia, Miola, Baselga di Piné, Comunità Alta Valsugana e Bersntol, Provincia di Trento, Trentino-Alto Adige/Südtirol, 38042, Italia",region_5
acom_261,Holiday_house,Tessadri giorgio,46.1263,11.2472,"Scuola elementare G.Verdi di Miola, 3, Via della Chiesa, Pontara, Cadrobbi, Miola, Baselga di Piné, Comunità Alta Valsugana e Bersntol, Provincia di Trento, Trentino-Alto Adige/Südtirol, 38042, Italia",region_5
acom_262,Holiday_house,Giovannini silvano,46.1327,11.2491,"Laita, Serraia, Miola, Baselga di Piné, Comunità Alta Valsugana e Bersntol, Provincia di Trento, Trentino-Alto Adige/Südtirol, 38042, Italia",region_5
acom_263,Holiday_house,Fontana andrea,46.125556,11.249722,"Via dello Stadio, Bugno, Palustela, Miola, Baselga di Piné, Comunità Alta Valsugana e Bersntol, Provincia di Trento, Trentino-Alto Adige/Südtirol, 38042, Italia",region_5
acom_264,Campsite,Camping riviera,46.00459326,11.25926971,"Viale Venezia, Calceranica al Lago, Comunità Alta Valsugana e Bersntol, Provincia di Trento, Trentino-Alto Adige/Südtirol, 38052, Italia",region_87
acom_265,Campsite,Camping lagorai,46.0904957,11.59864426,"Masi dei Mioli, Porchera, Pieve Tesino, Comunità Valsugana e Tesino, Provincia di Trento, Trentino-Alto Adige/Südtirol, 38053, Italia",region_53
acom_266,Campsite,Campeggio spiaggia,46.00486154,11.26021385,"Miralago, 3, Via Lungo Lago, Caldonazzo, Comunità Alta Valsugana e Bersntol, Provincia di Trento, Trentino-Alto Adige/Südtirol, 38052, Italia",region_89
acom_267,Holiday_house,Bortolotti ivo,46.1305042,11.2441154,"Carabinieri, Via Guglielmo Marconi, Gardizzola, Gnaghi, Miola, Baselga di Piné, Comunità Alta Valsugana e Bersntol, Provincia di Trento, Trentino-Alto Adige/Südtirol, 38042, Italia",region_5
acom_268,Campsite,Casteltesino camping,46.06764809,11.63370609,"Casteltesino Camping, Piazza Molizza, Sottomolizza, Castello Tesino, Comunità Valsugana e Tesino, Provincia di Trento, Trentino-Alto Adige/Südtirol, 38053, Italia",region_17
acom_269,Campsite,Penisola verde,46.00657552,11.24746799,"Penisola Verde, Viale Trento, Calceranica al Lago, Comunità Alta Valsugana e Bersntol, Provincia di Trento, Trentino-Alto Adige/Südtirol, 38052, Italia",region_87
acom_270,Campsite,Camping mario,46.005,11.2615,"Camping Mario Village, 4, Via Lungo Lago, Caldonazzo, Comunità Alta Valsugana e Bersntol, Provincia di Trento, Trentino-Alto Adige/Südtirol, 38052, Italia",region_89
acom_271,Campsite,Camping valmalene,46.11406272,11.61821365,"Camping Val Malene, Strada Val Malene - Brocon, Masi Carretta, Pieve Tesino, Comunità Valsugana e Tesino, Provincia di Trento, Trentino-Alto Adige/Südtirol, 38053, Italia",region_53
acom_272,Campsite,Camping punta lago,46.0024389,11.254469,"Via Lungo Lago, Calceranica al Lago, Comunità Alta Valsugana e Bersntol, Provincia di Trento, Trentino-Alto Adige/Südtirol, 38052, Italia",region_87
acom_273,Holiday_house,Ischia nadia,46.139444,11.251111,"Via degli Angeli custodi, Ricaldo, Miola, Baselga di Piné, Comunità Alta Valsugana e Bersntol, Provincia di Trento, Trentino-Alto Adige/Südtirol, 38042, Italia",region_5
acom_274,Campsite,Campeggio alice,46.0419537,11.6472888,"Strada Provinciale 246 di Celado, Sottomolizza, Castello Tesino, Comunità Valsugana e Tesino, Provincia di Trento, Trentino-Alto Adige/Südtirol, 38053, Italia",region_17
acom_275,Campsite,Camping belvedere,46.0034605,11.25669479,"Viale Venezia, Calceranica al Lago, Comunità Alta Valsugana e Bersntol, Provincia di Trento, Trentino-Alto Adige/Südtirol, 38052, Italia",region_87
acom_276,Campsite,Campeggio ai castagni,46.07303711,11.45586491,"Strada panoramica della Valsugana, Campestrini, Torcegno, Comunità Valsugana e Tesino, Provincia di Trento, Trentino-Alto Adige/Südtirol, 38051, Italia",region_152
acom_277,Campsite,Camping fleiola,46.00712697,11.24618053,"Fleiola, Viale Trento, Calceranica al Lago, Comunità Alta Valsugana e Bersntol, Provincia di Trento, Trentino-Alto Adige/Südtirol, 38052, Italia",region_87
acom_278,Campsite,Camping al pescatore,46.00237244,11.25504255,"Al Pescatore, 1, Via Andanta, Calceranica al Lago, Comunità Alta Valsugana e Bersntol, Provincia di Trento, Trentino-Alto Adige/Südtirol, 38050, Italia",region_87
acom_279,Hotel,Ancora,46.2728,11.4158,"9, Via Guglielmo Marconi, Predaia, Molina di Fiemme, Castello-Molina di Fiemme, Comunità territoriale della Val di Fiemme, Provincia di Trento, Trentino-Alto Adige/Südtirol, 38099, Italia",region_15
acom_280,Hotel,Italia,46.27249105,11.41681194,"Hotel Italia, Via Italia, Predaia, Molina di Fiemme, Castello-Molina di Fiemme, Comunità territoriale della Val di Fiemme, Provincia di Trento, Trentino-Alto Adige/Südtirol, 38099, Italia",region_15
acom_281,Hotel,Villa monica - dipendenza,46.2720429,11.4176535,"9, Via Giardini, Predaia, Molina di Fiemme, Castello-Molina di Fiemme, Comunità territoriale della Val di Fiemme, Provincia di Trento, Trentino-Alto Adige/Südtirol, 38030, Italia",region_15
acom_282,Holiday_house,March sara,46.2723959,11.420648,"Via Segherie, Predaia, Molina di Fiemme, Castello-Molina di Fiemme, Comunità territoriale della Val di Fiemme, Provincia di Trento, Trentino-Alto Adige/Südtirol, 38099, Italia",region_15
acom_283,Hotel,Albergo san giorgio,46.1005,11.235456,"Via dei Bernardi, Bernardi, Montagnaga, Baselga di Piné, Comunità Alta Valsugana e Bersntol, Provincia di Trento, Trentino-Alto Adige/Südtirol, 38042, Italia",region_5
acom_284,Hotel,Posta 1899 - ristorante ca' dei boci,46.09855,11.2357,"Romantik Hotel Posta 1899, Via Domenica Targa, Erspan, Montagnaga, Baselga di Piné, Comunità Alta Valsugana e Bersntol, Provincia di Trento, Trentino-Alto Adige/Südtirol, 38042, Italia",region_5
acom_285,Hotel,Hotel belvedere wellness & family,46.0959,11.2345,"Via Domenica Targa, Fregolotti, Montagnaga, Baselga di Piné, Comunità Alta Valsugana e Bersntol, Provincia di Trento, Trentino-Alto Adige/Südtirol, 38042, Italia",region_5
acom_286,Holiday_house,Franceschi nadia,46.096111,11.23472,"Via Domenica Targa, Fregolotti, Montagnaga, Baselga di Piné, Comunità Alta Valsugana e Bersntol, Provincia di Trento, Trentino-Alto Adige/Südtirol, 38042, Italia",region_5
acom_287,Holiday_house,Rensi claudio,46.095833,11.233056,"Via Domenica Targa, Fregolotti, Montagnaga, Baselga di Piné, Comunità Alta Valsugana e Bersntol, Provincia di Trento, Trentino-Alto Adige/Südtirol, 38042, Italia",region_5
acom_288,Holiday_house,Leonardelli giuseppe,46.1077,11.235,"Strada della Valsugana, Valt, Montagnaga, Baselga di Piné, Comunità Alta Valsugana e Bersntol, Provincia di Trento, Trentino-Alto Adige/Südtirol, 38042, Italia",region_5
acom_289,Hotel,Hotel tirol natural idyll,46.2173,11.3267,"Strada del Vernera, Piazzoli, Montesover, Sover, Comunità della Valle di Cembra, Provincia di Trento, Trentino-Alto Adige/Südtirol, 38048, Italia",region_145
acom_290,Holiday_house,Casa titti,46.0524,11.4578,"11, Via Mazzini, Onea, Olle, Borgo Valsugana, Comunità Valsugana e Tesino, Provincia di Trento, Trentino-Alto Adige/Südtirol, 38051, Italia",region_82
acom_291,Holiday_house,Stelderhof,46.1291,11.349,"Tural, Palai en Bersntol - Palù del Fersina, Palù del Fersina - Palai en Bersntol, Comunità Alta Valsugana e Bersntol, Provincia di Trento, Trentino-Alto Adige/Südtirol, Italia",region_124
acom_292,Holiday_house,Mas de l'ors,46.1291,11.349,"Tural, Palai en Bersntol - Palù del Fersina, Palù del Fersina - Palai en Bersntol, Comunità Alta Valsugana e Bersntol, Provincia di Trento, Trentino-Alto Adige/Südtirol, Italia",region_124
acom_293,Holiday_house,Residenza torre vanga,46.069024,11.11869,"17, Via della Prepositura, Bolghera, Piedicastello, Vela, Trento, Territorio Val d'Adige, Provincia di Trento, Trentino-Alto Adige/Südtirol, 38122, Italia",region_153
acom_294,Holiday_house,Residenza gocciadoro,46.054177,11.135225,"Via Gocciadoro, San Bartolomeo, Oltrefersina, Villazzano, Trento, Territorio Val d'Adige, Provincia di Trento, Trentino-Alto Adige/Südtirol, 38128, Italia",region_153
acom_295,Holiday_house,Residenza galileo,46.067904,11.125848,"Residenza Galileo, Via Galileo Galilei, Bolghera, Centro storico, Trento, Territorio Val d'Adige, Provincia di Trento, Trentino-Alto Adige/Südtirol, 38122, Italia",region_153
acom_296,Holiday_house,Collina appartamenti,46.043697,11.136582,"14, Via Emanuele Lanzerotti, Man Sant'Antonio, Oltrefersina, Villazzano, Trento, Territorio Val d'Adige, Provincia di Trento, Trentino-Alto Adige/Südtirol, 38123, Italia",region_153
acom_297,Holiday_house,Residenza portaquila,46.068332,11.127067,"Residence Port'Aquila, 12, Piazza Venezia, Corallo, Centro storico, Trento, Territorio Val d'Adige, Provincia di Trento, Trentino-Alto Adige/Südtirol, 38122, Italia",region_153
acom_298,Holiday_house,Residenza piedicastello,46.070648,11.111976,"40, Via Brescia, Piedicastello, Vela, Trento, Territorio Val d'Adige, Provincia di Trento, Trentino-Alto Adige/Südtirol, 38122, Italia",region_153
acom_299,Holiday_house,Residenza al parco,46.103108,11.110538,"Internorm, 34, Via Bolzano, Centochiavi, Canova, Gardolo, Trento, Territorio Val d'Adige, Provincia di Trento, Trentino-Alto Adige/Südtirol, 38121, Italia",region_153
acom_300,Holiday_house,Residenza antonella,46.122042,11.09206,"Via al Pónt dei Vòdi, Spini di Gardolo, Trento, Territorio Val d'Adige, Provincia di Trento, Trentino-Alto Adige/Südtirol, 38015, Italia",region_153
acom_301,Holiday_house,Karinhall,45.995601,11.126269,"Località I Grezzi, Grezzi, Mattarello, Trento, Territorio Val d'Adige, Provincia di Trento, Trentino-Alto Adige/Südtirol, 38123, Italia",region_153
acom_302,Holiday_house,America 2,46.071114,11.124084,"50, Via Torre Verde, Bolghera, Centro storico, Trento, Territorio Val d'Adige, Provincia di Trento, Trentino-Alto Adige/Südtirol, 38122, Italia",region_153
acom_303,Holiday_house,Borgo rossi via delle cave,46.066693,11.132449,"24, Via delle Cave, Corallo, Laste, Trento, Territorio Val d'Adige, Provincia di Trento, Trentino-Alto Adige/Südtirol, 38122, Italia",region_153
acom_304,Holiday_house,Alex,46.09804,11.112821,"Peterle, 101, Via 4 Novembre (1918), Centochiavi, Canova, Gardolo, Trento, Territorio Val d'Adige, Provincia di Trento, Trentino-Alto Adige/Südtirol, 38121, Italia",region_153
acom_305,Hotel,Belvedere,46.2854,11.5402,"via Nazionale, Panchià, Comunità territoriale della Val di Fiemme, Provincia di Trento, Trentino-Alto Adige/Südtirol, 38038, Italia",region_164
acom_306,Holiday_house,Borgo rossi via g. ossanna,46.062525,11.125071,"Commissariato del Governo, 11, Corso III Novembre, Bolghera, San Giuseppe, Trento, Territorio Val d'Adige, Provincia di Trento, Trentino-Alto Adige/Südtirol, 38122, Italia",region_153
acom_307,Holiday_house,Borgo rossi via suffragio,46.070585,11.124683,"Via del Suffragio, Bolghera, Centro storico, Trento, Territorio Val d'Adige, Provincia di Trento, Trentino-Alto Adige/Südtirol, 38122, Italia",region_153
acom_308,Hotel,Park hotel regina delle dolomiti,46.2818,11.5444,"Strada Provinciale 232 di Fiemme, Panchià, Comunità territoriale della Val di Fiemme, Provincia di Trento, Trentino-Alto Adige/Südtirol, 38038, Italia",region_164
acom_309,Hotel,Garni' fonte dei veli,46.2866,11.5384,"Via Giantrettel, Panchià, Comunità territoriale della Val di Fiemme, Provincia di Trento, Trentino-Alto Adige/Südtirol, 38038, Italia",region_164
acom_310,Hotel,Belvedere (dip),46.2818,11.5444,"Strada Provinciale 232 di Fiemme, Panchià, Comunità territoriale della Val di Fiemme, Provincia di Trento, Trentino-Alto Adige/Südtirol, 38038, Italia",region_164
acom_311,Hotel,Castelir suite hotel garni',46.2852,11.5388,"SS48, Panchià, Comunità territoriale della Val di Fiemme, Provincia di Trento, Trentino-Alto Adige/Südtirol, 38038, Italia",region_164
acom_312,Hotel,Panorama,46.2818,11.5444,"Strada Provinciale 232 di Fiemme, Panchià, Comunità territoriale della Val di Fiemme, Provincia di Trento, Trentino-Alto Adige/Südtirol, 38038, Italia",region_164
acom_313,Hotel,Rio bianco,46.2818,11.5444,"Strada Provinciale 232 di Fiemme, Panchià, Comunità territoriale della Val di Fiemme, Provincia di Trento, Trentino-Alto Adige/Südtirol, 38038, Italia",region_164
acom_314,Holiday_house,Isabella fipinger,46.2877662,11.5392303,"Casa Fipinger, 30, Via Costa, Panchià, Comunità territoriale della Val di Fiemme, Provincia di Trento, Trentino-Alto Adige/Südtirol, 38030, Italia",region_164
acom_315,Holiday_house,Defrancesco bruno,46.2862,11.5456,"Via Templari, Panchià, Comunità territoriale della Val di Fiemme, Provincia di Trento, Trentino-Alto Adige/Südtirol, 38038, Italia",region_164
acom_316,Holiday_house,Corradini carla,46.2839,11.5436,"Via Cavelonte, Panchià, Comunità territoriale della Val di Fiemme, Provincia di Trento, Trentino-Alto Adige/Südtirol, 38038, Italia",region_164
acom_317,Holiday_house,Zorzi carlo,46.2877,11.5391,"Casa Fipinger, 30, Via Costa, Panchià, Comunità territoriale della Val di Fiemme, Provincia di Trento, Trentino-Alto Adige/Südtirol, 38030, Italia",region_164
acom_318,Holiday_house,Defrancesco dolores,46.2839,11.5434,"Via Cavelonte, Panchià, Comunità territoriale della Val di Fiemme, Provincia di Trento, Trentino-Alto Adige/Südtirol, 38038, Italia",region_164
acom_319,Hotel,Hotel la bicocca,46.30638691,11.73374176,"Strada Statale 50 del Grappa e del Passo Rolle, Paneveggio, Predazzo, Comunità territoriale della Val di Fiemme, Provincia di Trento, Trentino-Alto Adige/Südtirol, Italia",region_55
acom_320,Hotel,Hotel pineta,46.1549,11.286,"Pineta, Via Cavour, Fabbrica, Piazze, Bedollo, Comunità Alta Valsugana e Bersntol, Provincia di Trento, Trentino-Alto Adige/Südtirol, 38043, Italia",region_6
acom_321,Hotel,Albergo miramonti ,46.1558,11.2879,"Miramonti, Via Cavour, Fabbrica, Piazze, Bedollo, Comunità Alta Valsugana e Bersntol, Provincia di Trento, Trentino-Alto Adige/Südtirol, 38043, Italia",region_6
acom_322,Campsite,Camping pineta,46.1536,11.2867,"Camping Verde blu, 38, Srada delle Soide, Fabbrica, Piazze, Bedollo, Comunità Alta Valsugana e Bersntol, Provincia di Trento, Trentino-Alto Adige/Südtirol, 38043, Italia",region_6
acom_323,Campsite,Camping verde blu,46.1529,11.2871,"Camping Verde blu, 38, Srada delle Soide, Fabbrica, Piazze, Bedollo, Comunità Alta Valsugana e Bersntol, Provincia di Trento, Trentino-Alto Adige/Südtirol, 38043, Italia",region_6
acom_324,Holiday_house,Andreatta romano,46.157032,11.281,"Via Guglielmo Marconi, Mantovani, Piazze, Bedollo, Comunità Alta Valsugana e Bersntol, Provincia di Trento, Trentino-Alto Adige/Südtirol, 38043, Italia",region_6
acom_325,Holiday_house,Mattivi fernando,46.160278,11.294722,"Via Santissima Trinità, Casei, Piazze, Bedollo, Comunità Alta Valsugana e Bersntol, Provincia di Trento, Trentino-Alto Adige/Südtirol, 38043, Italia",region_6
acom_326,Holiday_house,Andreatta claudia,46.1583,11.283,"Cialini, Piazze, Bedollo, Comunità Alta Valsugana e Bersntol, Provincia di Trento, Trentino-Alto Adige/Südtirol, 38043, Italia",region_6
acom_327,Hotel,Pensione maria turismo rurale,46.23814,11.325241,"Montealto, Piscine, Sover, Comunità della Valle di Cembra, Provincia di Trento, Trentino-Alto Adige/Südtirol, 38048, Italia",region_145
acom_328,Hotel,Sartoris ****,46.142265,11.103669,"Via Nazionale, Felti, Pressano, Lavis, Comunità Rotaliana-Königsberg, Provincia di Trento, Trentino-Alto Adige/Südtirol, 38015, Italia",region_33
acom_329,Holiday_house,Marzadri maria,46.1436,11.2608,"Via A. Rosmini, Al Sant, Cagnotti, Rizzolaga, Baselga di Piné, Comunità Alta Valsugana e Bersntol, Provincia di Trento, Trentino-Alto Adige/Südtirol, 38042, Italia",region_5
acom_330,Holiday_house,Pedri armando,46.1875,11.257222,"11, Frazione Saletto, Saletto, Segonzano, Comunità della Valle di Cembra, Provincia di Trento, Trentino-Alto Adige/Südtirol, 38047, Italia",region_144
acom_331,Holiday_house,Giovannini walter,46.1485925,11.2607198,"Al Sant, Mura di sopra, Rizzolaga, Baselga di Piné, Comunità Alta Valsugana e Bersntol, Provincia di Trento, Trentino-Alto Adige/Südtirol, 38042, Italia",region_5
acom_332,Holiday_house,Bortolotti lorenzo,46.1441,11.2608,"Via A. Rosmini, Al Sant, Cagnotti, Rizzolaga, Baselga di Piné, Comunità Alta Valsugana e Bersntol, Provincia di Trento, Trentino-Alto Adige/Südtirol, 38042, Italia",region_5
acom_333,Holiday_house,Residenza dossalt,46.1408,11.2541,"Via Don G. Tarter, Sternigo, Rizzolaga, Baselga di Piné, Comunità Alta Valsugana e Bersntol, Provincia di Trento, Trentino-Alto Adige/Südtirol, 38042, Italia",region_5
acom_334,Holiday_house,Dallafior luciano,46.1408471,11.2568737,"Via di Sternigo al Lago, Sternigo al Lago, Rizzolaga, Baselga di Piné, Comunità Alta Valsugana e Bersntol, Provincia di Trento, Trentino-Alto Adige/Südtirol, 38042, Italia",region_5
acom_335,Holiday_house,Ioriatti sergio,46.140278,11.256667,"Agrigelateria La Cà sul Lago, 5, Via dei Cagnòti, Cagnotti, Rizzolaga, Baselga di Piné, Comunità Alta Valsugana e Bersntol, Provincia di Trento, Trentino-Alto Adige/Südtirol, 38042, Italia",region_5
acom_336,Hotel,Meridiana,46.03980141,11.24206066,"Meridiana, Via Miralago, Pozza, San Cristoforo al Lago, Pergine Valsugana, Comunità Alta Valsugana e Bersntol, Provincia di Trento, Trentino-Alto Adige/Südtirol, 38057, Italia",region_125
acom_337,Hotel,Miramonti,46.05015248,11.25244617,"Via alle Canzane, Masetti, San Cristoforo al Lago, Pergine Valsugana, Comunità Alta Valsugana e Bersntol, Provincia di Trento, Trentino-Alto Adige/Südtirol, 38057, Italia",region_125
acom_338,Hotel,Sedran,46.03969715,11.23470068,"64, Viale Europa, Maso Puller, San Cristoforo al Lago, Pergine Valsugana, Comunità Alta Valsugana e Bersntol, Provincia di Trento, Trentino-Alto Adige/Südtirol, 38057, Italia",region_125
acom_339,Campsite,Campeggio san cristoforo,46.03716493,11.23639584,"San Cristoforo, Via dei pescatori, Maso Puller, San Cristoforo al Lago, Pergine Valsugana, Comunità Alta Valsugana e Bersntol, Provincia di Trento, Trentino-Alto Adige/Südtirol, 38057, Italia",region_125
acom_340,Holiday_house,Villa sophie,46.03901197,11.23416424,"Viale Europa, Maso Puller, San Cristoforo al Lago, Pergine Valsugana, Comunità Alta Valsugana e Bersntol, Provincia di Trento, Trentino-Alto Adige/Südtirol, 38057, Italia",region_125
acom_341,Holiday_house,Rosati maria grazia,46.03883695,11.23487234,"21, Viale Europa, Maso Puller, San Cristoforo al Lago, Pergine Valsugana, Comunità Alta Valsugana e Bersntol, Provincia di Trento, Trentino-Alto Adige/Südtirol, 38057, Italia",region_125
acom_342,Holiday_house,Residenza sofia,46.160278,11.173333,"Ceola, Giovo, Comunità della Valle di Cembra, Provincia di Trento, Trentino-Alto Adige/Südtirol, 38041, Italia",region_111
acom_343,Holiday_house,Casa gialla,45.99502373,11.31334305,"Via al Dazio, Ranch al Pizzo di Vettorazzi Francesco, Santa Giuliana, Levico Terme, Comunità Alta Valsugana e Bersntol, Provincia di Trento, Trentino-Alto Adige/Südtirol, 38056, Italia",region_34
acom_344,Hotel,Albergo lago santa colomba,46.12445,11.1798,"Albergo Lago Santa Colomba, Strada per Santa Colomba, Sant'Agnese, Civezzano, Comunità Alta Valsugana e Bersntol, Provincia di Trento, Trentino-Alto Adige/Südtirol, 38045, Italia",region_99
acom_345,Hotel,Alpino,46.1085,11.3023,"APT Valle dei Mocheni, 75/a, Località Pintarei, Pintarei, Fondi, Sant'Orsola Terme, Comunità Alta Valsugana e Bersntol, Provincia di Trento, Trentino-Alto Adige/Südtirol, 38050, Italia",region_60
acom_346,Hotel,Centrale,46.10835787,11.30262494,"Albergo Centrale, SP8, Pintarei, Doss Martin, Sant'Orsola Terme, Comunità Alta Valsugana e Bersntol, Provincia di Trento, Trentino-Alto Adige/Südtirol, Italia",region_60
acom_347,Hotel,Corona,46.1085,11.3023,"APT Valle dei Mocheni, 75/a, Località Pintarei, Pintarei, Fondi, Sant'Orsola Terme, Comunità Alta Valsugana e Bersntol, Provincia di Trento, Trentino-Alto Adige/Südtirol, 38050, Italia",region_60
acom_348,Holiday_house,Casa delle rose,46.11388422,11.30746365,"SP8, Pintarei, Doss Martin, Sant'Orsola Terme, Comunità Alta Valsugana e Bersntol, Provincia di Trento, Trentino-Alto Adige/Südtirol, Italia",region_60
acom_349,Holiday_house,Mas dei osti,46.1118,11.2998,"Tadesia, Castello, Sant'Orsola Terme, Comunità Alta Valsugana e Bersntol, Provincia di Trento, Trentino-Alto Adige/Südtirol, Italia",region_60
acom_350,Holiday_house,Eni ana,46.28911539,11.57067418,"via Nazionale, Roda, Ziano di Fiemme, Comunità territoriale della Val di Fiemme, Provincia di Trento, Trentino-Alto Adige/Südtirol, 38037, Italia",region_165
acom_351,Holiday_house,Casa martinelli,46.2946,11.4604,"Via Colle degli Alpini, Cavalese, Comunità territoriale della Val di Fiemme, Provincia di Trento, Trentino-Alto Adige/Südtirol, 38033, Italia",region_21
acom_352,Holiday_house,Conci davide,46.282865,11.436743,"Via Latemar, Castello di Fiemme, Castello-Molina di Fiemme, Comunità territoriale della Val di Fiemme, Provincia di Trento, Trentino-Alto Adige/Südtirol, 38099, Italia",region_15
acom_353,Holiday_house,Bortolotti mauro,46.290402,11.511575,"19, Via Cavada, Tesero, Comunità territoriale della Val di Fiemme, Provincia di Trento, Trentino-Alto Adige/Südtirol, 38038, Italia",region_156
acom_354,Holiday_house,Chalet cermis,46.24960022,11.50517464,"2, Alpe Cermis, Cavalese, Comunità territoriale della Val di Fiemme, Provincia di Trento, Trentino-Alto Adige/Südtirol, 38038, Italia",region_21
acom_355,Holiday_house,Vocaturo ernesto,46.2912024,11.4605662,"2, Via Fratelli Bronzetti, Cavalese, Comunità territoriale della Val di Fiemme, Provincia di Trento, Trentino-Alto Adige/Südtirol, 38033, Italia",region_21
acom_356,Holiday_house,Rungaldier mario,46.28591252,11.4389348,"Nones Sport, 66, Via Roma, Castello di Fiemme, Castello-Molina di Fiemme, Comunità territoriale della Val di Fiemme, Provincia di Trento, Trentino-Alto Adige/Südtirol, 38030, Italia",region_15
acom_357,Holiday_house,Boninsegna chiara/casa nicoleta,46.3109889,11.6027703,"Via 9 Novembre, Pè de Pardàc, Coste, Predazzo, Comunità territoriale della Val di Fiemme, Provincia di Trento, Trentino-Alto Adige/Südtirol, 38037, Italia",region_55
acom_358,Holiday_house,Barbolini rosa lina,46.2865,11.4554,"Casa Yara, 8, Via Brunetta, Cavalese, Comunità territoriale della Val di Fiemme, Provincia di Trento, Trentino-Alto Adige/Südtirol, 38033, Italia",region_21
acom_359,Holiday_house,Guadagnini loretta,46.30314,11.60151,"Predazzo, Comunità territoriale della Val di Fiemme, Provincia di Trento, Trentino-Alto Adige/Südtirol, 38037, Italia",region_55
acom_360,Holiday_house,Brigadoi giorgio,46.311044,11.603092,"Via 9 Novembre, Pè de Pardàc, Coste, Predazzo, Comunità territoriale della Val di Fiemme, Provincia di Trento, Trentino-Alto Adige/Südtirol, 38037, Italia",region_55
acom_361,Holiday_house,Morandini pietro,46.2974,11.5975,"Predazzo, Comunità territoriale della Val di Fiemme, Provincia di Trento, Trentino-Alto Adige/Südtirol, 38037, Italia",region_55
acom_362,Holiday_house,Delvai rizzoli olga,46.288,11.467,"Via Marco, Cavazzal, Cavalese, Comunità territoriale della Val di Fiemme, Provincia di Trento, Trentino-Alto Adige/Südtirol, 38033, Italia",region_21
acom_363,Holiday_house,Zorzi gianfranco,46.28699129,11.56521857,"Via Sentiero degli Alpini, Bosin, Ziano di Fiemme, Comunità territoriale della Val di Fiemme, Provincia di Trento, Trentino-Alto Adige/Südtirol, 38037, Italia",region_165
acom_364,Holiday_house,Modena fiorenzo,46.31117,11.60255,"Via Roma, Pè de Pardàc, Coste, Predazzo, Comunità territoriale della Val di Fiemme, Provincia di Trento, Trentino-Alto Adige/Südtirol, 38037, Italia",region_55
acom_365,Holiday_house,Festa stefano,46.3078,11.6011,"Via Fiamme Gialle, Pè de Pardàc, Coste, Predazzo, Comunità territoriale della Val di Fiemme, Provincia di Trento, Trentino-Alto Adige/Südtirol, 38037, Italia",region_55
acom_366,Hotel,Ideal ***,46.046988,10.952119,"Via Caffaro, Sarche, Madruzzo, Comunità della Valle dei Laghi, Provincia di Trento, Trentino-Alto Adige/Südtirol, 30876, Italia",region_113
acom_367,Holiday_house,Morandini giuseppe,46.3164,11.5989,"Poldo Pub, Via Giuseppe Mazzini, La Bìra, Al Fol, Predazzo, Comunità territoriale della Val di Fiemme, Provincia di Trento, Trentino-Alto Adige/Südtirol, 38037, Italia",region_55
acom_368,Holiday_house,Dellagiacoma vanzo patrizia,46.28750656,11.56314254,"via Nazionale, Roda, Ziano di Fiemme, Comunità territoriale della Val di Fiemme, Provincia di Trento, Trentino-Alto Adige/Südtirol, 38037, Italia",region_165
acom_369,Hotel,Terminus,46.01605364,11.29961014,"24, Via Salina, Selva di Levico, Levico Terme, Comunità Alta Valsugana e Bersntol, Provincia di Trento, Trentino-Alto Adige/Südtirol, 38056, Italia",region_34
acom_370,Hotel,Scarano',46.01611325,11.31542444,"Ristorante Scaranò, Strada Provinciale per Vetriolo, Selva di Levico, Levico Terme, Comunità Alta Valsugana e Bersntol, Provincia di Trento, Trentino-Alto Adige/Südtirol, 38056, Italia",region_34
acom_371,Hotel,Ideal,46.00904953,11.31248474,"15b, Via Domenico Giannettini, Selva di Levico, Levico Terme, Comunità Alta Valsugana e Bersntol, Provincia di Trento, Trentino-Alto Adige/Südtirol, 38056, Italia",region_34
acom_372,Holiday_house,Vanzetta renzo,46.28850745,11.56512737,"Via Zanon, Bosin, Ziano di Fiemme, Comunità territoriale della Val di Fiemme, Provincia di Trento, Trentino-Alto Adige/Südtirol, 38037, Italia",region_165
acom_373,Holiday_house,Magni famiglia,46.2871,11.4638,"Via Marco, Cavazzal, Cavalese, Comunità territoriale della Val di Fiemme, Provincia di Trento, Trentino-Alto Adige/Südtirol, 38033, Italia",region_21
acom_374,Holiday_house,Costa margherita,46.3071,11.5975,"Via Colonnello Barbieri, Pè de Pardàc, Coste, Predazzo, Comunità territoriale della Val di Fiemme, Provincia di Trento, Trentino-Alto Adige/Südtirol, 38037, Italia",region_55
acom_375,Holiday_house,Boninsegna chiara / casa nicoleta,46.31201936,11.60416961,"Via Simone Dellagiacoma, Somaìla, Predazzo, Comunità territoriale della Val di Fiemme, Provincia di Trento, Trentino-Alto Adige/Südtirol, 38037, Italia",region_55
acom_376,Holiday_house,Giacomuzzi giancarlo,46.28545654,11.56301379,"Via Professor Vanzetta, Zanolin, Ziano di Fiemme, Comunità territoriale della Val di Fiemme, Provincia di Trento, Trentino-Alto Adige/Südtirol, 38037, Italia",region_165
acom_377,Holiday_house,Michielini agostino,46.305,11.6019,"Via Lagorai, Pè de Pardàc, Coste, Predazzo, Comunità territoriale della Val di Fiemme, Provincia di Trento, Trentino-Alto Adige/Südtirol, 38037, Italia",region_55
acom_378,Holiday_house,Giacomuzzi carla,46.2903,11.4591,"Via Longarù, Cavalese, Comunità territoriale della Val di Fiemme, Provincia di Trento, Trentino-Alto Adige/Südtirol, 38033, Italia",region_21
acom_379,Holiday_house,Balugani lorena,46.3037347,11.6008107,"Via Lagorai, Pè de Pardàc, Coste, Predazzo, Comunità territoriale della Val di Fiemme, Provincia di Trento, Trentino-Alto Adige/Südtirol, 38037, Italia",region_55
acom_380,Holiday_house,Careni marisa,46.28070745,11.55952692,"Via Cavelonte, Zanolin, Ziano di Fiemme, Comunità territoriale della Val di Fiemme, Provincia di Trento, Trentino-Alto Adige/Südtirol, 38038, Italia",region_165
acom_381,Holiday_house,Nones nicoletta,46.281758,11.435393,"scuola primaria Castello di Fiemme, 40, Via Roma, Castello di Fiemme, Castello-Molina di Fiemme, Comunità territoriale della Val di Fiemme, Provincia di Trento, Trentino-Alto Adige/Südtirol, 38030, Italia",region_15
acom_382,Holiday_house,Cemin renato,46.3126,11.603,"Bar Caffè Croce, 5, Via Simone Dellagiacoma, Is-cia, Coste, Predazzo, Comunità territoriale della Val di Fiemme, Provincia di Trento, Trentino-Alto Adige/Südtirol, 38037, Italia",region_55
acom_383,Holiday_house,Gabrielli tullio,46.3167,11.5999,"Via Indipendenza, Poz, Al Fol, Predazzo, Comunità territoriale della Val di Fiemme, Provincia di Trento, Trentino-Alto Adige/Südtirol, 38037, Italia",region_55
acom_384,Hotel,Miravalle,46.00843849,11.3144803,"Albergo Miravalle, 76, Viale Venezia, Masi Rossi, Selva di Levico, Levico Terme, Comunità Alta Valsugana e Bersntol, Provincia di Trento, Trentino-Alto Adige/Südtirol, 38056, Italia",region_34
acom_385,Holiday_house,Boninsegna livio,46.3087,11.6038,"Via Guglielmo Marconi, Pè de Pardàc, Coste, Predazzo, Comunità territoriale della Val di Fiemme, Provincia di Trento, Trentino-Alto Adige/Südtirol, 38037, Italia",region_55
acom_386,Holiday_house,Finato dino,46.2923,11.4633,"Via Montebello, Cavazzal, Cavalese, Comunità territoriale della Val di Fiemme, Provincia di Trento, Trentino-Alto Adige/Südtirol, 38033, Italia",region_21
acom_387,Holiday_house,Cottone ivano,46.3184,11.5993,"Via Bedovina, Poz, Al Fol, Predazzo, Comunità territoriale della Val di Fiemme, Provincia di Trento, Trentino-Alto Adige/Südtirol, 38037, Italia",region_55
acom_388,Holiday_house,Cottone mirko,46.3184,11.5993,"Via Bedovina, Poz, Al Fol, Predazzo, Comunità territoriale della Val di Fiemme, Provincia di Trento, Trentino-Alto Adige/Südtirol, 38037, Italia",region_55
acom_389,Holiday_house,Carioli enrico,46.2882,11.4631,"Gananet, 5, Via Guglielmo Marconi, Cavalese, Comunità territoriale della Val di Fiemme, Provincia di Trento, Trentino-Alto Adige/Südtirol, 38033, Italia",region_21
acom_390,Hotel,Claudia,46.0143772,11.30161643,"Albergo Claudia, Via Gedeone de Vettorazzi, Selva di Levico, Levico Terme, Comunità Alta Valsugana e Bersntol, Provincia di Trento, Trentino-Alto Adige/Südtirol, 38056, Italia",region_34
acom_391,Holiday_house,Stoffie valentina,46.3074,11.602,"Via Rododendri, Pè de Pardàc, Coste, Predazzo, Comunità territoriale della Val di Fiemme, Provincia di Trento, Trentino-Alto Adige/Südtirol, 38037, Italia",region_55
acom_392,Hotel,Cristallo,46.01455975,11.3018471,"1, Via Gedeone de Vettorazzi, Selva di Levico, Levico Terme, Comunità Alta Valsugana e Bersntol, Provincia di Trento, Trentino-Alto Adige/Südtirol, 38056, Italia",region_34
acom_393,Holiday_house,Morandini bruna,46.3274,11.5907,"Strada forestale Val de Rif (RF), Poz, Al Fol, Predazzo, Comunità territoriale della Val di Fiemme, Provincia di Trento, Trentino-Alto Adige/Südtirol, 38037, Italia",region_55
acom_394,Holiday_house,Dellagiacoma dellasega pia,46.3119,11.5996,"Via Silvio Vardabasso, Pè de Pardàc, Coste, Predazzo, Comunità territoriale della Val di Fiemme, Provincia di Trento, Trentino-Alto Adige/Südtirol, 38037, Italia",region_55
acom_395,Holiday_house,Le plejadi appartamenti,46.2888972,11.4685805,"Via Marco, Cavazzal, Cavalese, Comunità territoriale della Val di Fiemme, Provincia di Trento, Trentino-Alto Adige/Südtirol, 38033, Italia",region_21
acom_396,Hotel,Vittoria,46.01296896,11.29839242,"98, Via Dante Alighieri, Selva di Levico, Levico Terme, Comunità Alta Valsugana e Bersntol, Provincia di Trento, Trentino-Alto Adige/Südtirol, 38056, Italia",region_34
acom_397,Holiday_house,Fulvi claudio,46.289892,11.470073,"Via Marco, Cavazzal, Cavalese, Comunità territoriale della Val di Fiemme, Provincia di Trento, Trentino-Alto Adige/Südtirol, 38033, Italia",region_21
acom_398,Holiday_house,Villa mirabell,46.2912,11.4841,"Cavazzal, Cavalese, Comunità territoriale della Val di Fiemme, Provincia di Trento, Trentino-Alto Adige/Südtirol, 38033, Italia",region_21
acom_399,Hotel,Sandro (dip),46.01392269,11.30205631,"Albergo Sandro, Via Monsignor Domenico Caproni, Selva di Levico, Levico Terme, Comunità Alta Valsugana e Bersntol, Provincia di Trento, Trentino-Alto Adige/Südtirol, 38056, Italia",region_34
acom_400,Holiday_house,Gamboni sorci angela,46.28598666,11.56324983,"Via Professor Vanzetta, Zanolin, Ziano di Fiemme, Comunità territoriale della Val di Fiemme, Provincia di Trento, Trentino-Alto Adige/Südtirol, 38037, Italia",region_165
acom_401,Hotel,Imperial grand hotel terme,46.01237287,11.30598307,"Imperial Grand Hotel Terme, Via Silva Domini, Selva di Levico, Levico Terme, Comunità Alta Valsugana e Bersntol, Provincia di Trento, Trentino-Alto Adige/Südtirol, 38056, Italia",region_34
acom_402,Holiday_house,Iellici mario,46.2897,11.5139,"18a, Via Fia, Tesero, Comunità territoriale della Val di Fiemme, Provincia di Trento, Trentino-Alto Adige/Südtirol, 38038, Italia",region_156
acom_403,Hotel,Lucia,46.0132521,11.29952431,"Hotel Vittoria, 54, Via Dante Alighieri, Selva di Levico, Levico Terme, Comunità Alta Valsugana e Bersntol, Provincia di Trento, Trentino-Alto Adige/Südtirol, 38056, Italia",region_34
acom_404,Holiday_house,Biancoli gandolfi,46.3062,11.601,"Pè de Pardàc, Coste, Predazzo, Comunità territoriale della Val di Fiemme, Provincia di Trento, Trentino-Alto Adige/Südtirol, 38037, Italia",region_55
acom_405,Holiday_house,Zorzi sandra,46.2875,11.5675,"Hotel Montanara, via Nazionale, Roda, Ziano di Fiemme, Comunità territoriale della Val di Fiemme, Provincia di Trento, Trentino-Alto Adige/Südtirol, 38037, Italia",region_165
acom_406,Hotel,Sandro,46.01387799,11.30218506,"Albergo Sandro, Via Monsignor Domenico Caproni, Selva di Levico, Levico Terme, Comunità Alta Valsugana e Bersntol, Provincia di Trento, Trentino-Alto Adige/Südtirol, 38056, Italia",region_34
acom_407,Hotel,Cacciatore,46.02250558,11.3115406,"Strada dei Baiti, Selva di Levico, Levico Terme, Comunità Alta Valsugana e Bersntol, Provincia di Trento, Trentino-Alto Adige/Südtirol, 38056, Italia",region_34
acom_408,Holiday_house,Baldi gabriella,46.3031,11.6005,"Via Lagorai, Pè de Pardàc, Coste, Predazzo, Comunità territoriale della Val di Fiemme, Provincia di Trento, Trentino-Alto Adige/Südtirol, 38037, Italia",region_55
acom_409,Holiday_house,Larger paola,46.2893,11.4721,"Via Cavazzal, Cavazzal, Cavalese, Comunità territoriale della Val di Fiemme, Provincia di Trento, Trentino-Alto Adige/Südtirol, 38033, Italia",region_21
acom_410,Holiday_house,Vaia paola,46.2811325,11.4825604,"Via Gianarde, Masi di Cavalese, Cavalese, Comunità territoriale della Val di Fiemme, Provincia di Trento, Trentino-Alto Adige/Südtirol, 38033, Italia",region_21
acom_411,Hotel,Acler,46.0138,11.3024,"24, Via Monsignor Domenico Caproni, Selva di Levico, Levico Terme, Comunità Alta Valsugana e Bersntol, Provincia di Trento, Trentino-Alto Adige/Südtirol, 38056, Italia",region_34
acom_412,Holiday_house,Dezulian rita,46.31524,11.59775,"Corso Dolomiti, La Bìra, Al Fol, Predazzo, Comunità territoriale della Val di Fiemme, Provincia di Trento, Trentino-Alto Adige/Südtirol, 38037, Italia",region_55
acom_413,Holiday_house,Dellantonio clara,46.3121,11.5982,"Via Gino Minghetti, Molìn, Coste, Predazzo, Comunità territoriale della Val di Fiemme, Provincia di Trento, Trentino-Alto Adige/Südtirol, 38037, Italia",region_55
acom_414,Hotel,Hotel daniela,46.00855026,11.30616546,"3, Viale Venezia, Selva di Levico, Levico Terme, Comunità Alta Valsugana e Bersntol, Provincia di Trento, Trentino-Alto Adige/Südtirol, 38056, Italia",region_34
acom_415,Holiday_house,Craffonara italo,46.3108,11.6033,"Via 9 Novembre, Pè de Pardàc, Coste, Predazzo, Comunità territoriale della Val di Fiemme, Provincia di Trento, Trentino-Alto Adige/Südtirol, 38037, Italia",region_55
acom_416,Holiday_house,Mannucci adolfo,46.289892,11.470073,"Via Marco, Cavazzal, Cavalese, Comunità territoriale della Val di Fiemme, Provincia di Trento, Trentino-Alto Adige/Südtirol, 38033, Italia",region_21
acom_417,Hotel,Bellaria,46.0121,11.3161,"20a, Via per Selva, Selva di Levico, Levico Terme, Comunità Alta Valsugana e Bersntol, Provincia di Trento, Trentino-Alto Adige/Südtirol, 38056, Italia",region_34
acom_418,Holiday_house,Alberti luisa,46.2815,11.4858,"Via Pizzoni, Masi di Cavalese, Cavalese, Comunità territoriale della Val di Fiemme, Provincia di Trento, Trentino-Alto Adige/Südtirol, 38038, Italia",region_21
acom_419,Holiday_house,Lochmann vincenzo,46.3057,11.6008,"Via Giuseppe Morandini, Pè de Pardàc, Coste, Predazzo, Comunità territoriale della Val di Fiemme, Provincia di Trento, Trentino-Alto Adige/Südtirol, 38037, Italia",region_55
acom_420,Holiday_house,Vanzetta raffaela,46.28709879,11.56023502,"Via Coronella, Zanolin, Ziano di Fiemme, Comunità territoriale della Val di Fiemme, Provincia di Trento, Trentino-Alto Adige/Südtirol, 38038, Italia",region_165
acom_421,Holiday_house,Croce luigia,46.3113,11.608,"Via Venezia, Molìn, Baldìss, Predazzo, Comunità territoriale della Val di Fiemme, Provincia di Trento, Trentino-Alto Adige/Südtirol, 38037, Italia",region_55
acom_422,Holiday_house,Zorzi giuliano,46.28663911,11.56585693,"Via Caduti, Bosin, Ziano di Fiemme, Comunità territoriale della Val di Fiemme, Provincia di Trento, Trentino-Alto Adige/Südtirol, 38037, Italia",region_165
acom_423,Holiday_house,Falliva roberto,46.281883,11.435125,"Via Latemar, Castello di Fiemme, Castello-Molina di Fiemme, Comunità territoriale della Val di Fiemme, Provincia di Trento, Trentino-Alto Adige/Südtirol, 38099, Italia",region_15
acom_424,Holiday_house,Cristellon jellici rosa,46.28604598,11.57245517,"Via Roda, Frazione Roda, Roda, Ziano di Fiemme, Comunità territoriale della Val di Fiemme, Provincia di Trento, Trentino-Alto Adige/Südtirol, 38037, Italia",region_165
acom_425,Holiday_house,Antoniazzi donatella,46.2886,11.4575,"Park Hotel Azalea, 1, Via delle Cesure, Cavalese, Comunità territoriale della Val di Fiemme, Provincia di Trento, Trentino-Alto Adige/Südtirol, 38033, Italia",region_21
acom_426,Holiday_house,Casagrande alberto,46.3037,11.6021,"Via Sandro Pertini, Pè de Pardàc, Coste, Predazzo, Comunità territoriale della Val di Fiemme, Provincia di Trento, Trentino-Alto Adige/Südtirol, 38037, Italia",region_55
acom_427,Holiday_house,Del pero luigi,46.2898049,11.4609894,"Viale Mendini, Cavalese, Comunità territoriale della Val di Fiemme, Provincia di Trento, Trentino-Alto Adige/Südtirol, 38033, Italia",region_21
acom_428,Holiday_house,Guadagnini ernestina,46.3166,11.5999,"Via Indipendenza, Poz, Al Fol, Predazzo, Comunità territoriale della Val di Fiemme, Provincia di Trento, Trentino-Alto Adige/Südtirol, 38037, Italia",region_55
acom_429,Holiday_house,Rastelli augusta,46.2912024,11.4605662,"2, Via Fratelli Bronzetti, Cavalese, Comunità territoriale della Val di Fiemme, Provincia di Trento, Trentino-Alto Adige/Südtirol, 38033, Italia",region_21
acom_430,Holiday_house,Palla rosalba,46.313,11.6023,"Via Dante Alighieri, Is-cia, Coste, Predazzo, Comunità territoriale della Val di Fiemme, Provincia di Trento, Trentino-Alto Adige/Südtirol, 38037, Italia",region_55
acom_431,Holiday_house,Deflorian giovanni,46.3085,11.5053,"Strada Provinciale 215 di Pampeago, Stava, Tesero, Comunità territoriale della Val di Fiemme, Provincia di Trento, Trentino-Alto Adige/Südtirol, 38038, Italia",region_156
acom_432,Hotel,Villa flora,46.00736543,11.30628347,"31, Via Tonelli, Selva di Levico, Levico Terme, Comunità Alta Valsugana e Bersntol, Provincia di Trento, Trentino-Alto Adige/Südtirol, 38056, Italia",region_34
acom_433,Holiday_house,Giacomelli silvano,46.30927,11.60275,"Via Guglielmo Marconi, Pè de Pardàc, Coste, Predazzo, Comunità territoriale della Val di Fiemme, Provincia di Trento, Trentino-Alto Adige/Südtirol, 38037, Italia",region_55
acom_434,Holiday_house,Polo vanzetta silvia,46.286,11.5668,"Via Verdi, Bosin, Ziano di Fiemme, Comunità territoriale della Val di Fiemme, Provincia di Trento, Trentino-Alto Adige/Südtirol, 38037, Italia",region_165
acom_435,Holiday_house,Vaia riccardo,46.285913,11.479908,"Località Milon, Masi di Cavalese, Cavalese, Comunità territoriale della Val di Fiemme, Provincia di Trento, Trentino-Alto Adige/Südtirol, 38033, Italia",region_21
acom_436,Holiday_house,Casa eli di ferrari claudia,46.01666459,11.30310774,"Strada Provinciale per Vetriolo, Selva di Levico, Levico Terme, Comunità Alta Valsugana e Bersntol, Provincia di Trento, Trentino-Alto Adige/Südtirol, 38056, Italia",region_34
acom_437,Holiday_house,Mas del tas appartamenti,46.3128,11.6056,"Salita al Brigadoi, Somaìla, Predazzo, Comunità territoriale della Val di Fiemme, Provincia di Trento, Trentino-Alto Adige/Südtirol, 38037, Italia",region_55
acom_438,Holiday_house,Boninsegna chiara / casa volpin,46.3122,11.6041,"Via Simone Dellagiacoma, Somaìla, Predazzo, Comunità territoriale della Val di Fiemme, Provincia di Trento, Trentino-Alto Adige/Südtirol, 38037, Italia",region_55
acom_439,Holiday_house,Lorenzini sergio,46.01217913,11.30327404,"19, Via Giovanni Prati, Selva di Levico, Levico Terme, Comunità Alta Valsugana e Bersntol, Provincia di Trento, Trentino-Alto Adige/Südtirol, 38056, Italia",region_34
acom_440,Holiday_house,Boninsegna michelangelo,46.3138592,11.6009585,"Via Verdi, Is-cia, Coste, Predazzo, Comunità territoriale della Val di Fiemme, Provincia di Trento, Trentino-Alto Adige/Südtirol, 38037, Italia",region_55
acom_441,Holiday_house,Fochi maura,46.2894,11.47,"Via Marco, Cavazzal, Cavalese, Comunità territoriale della Val di Fiemme, Provincia di Trento, Trentino-Alto Adige/Südtirol, 38033, Italia",region_21
acom_442,Holiday_house,Casa dei ciliegi - libardi antonio,46.00939975,11.3126564,"15, Via Naroré, Selva di Levico, Levico Terme, Comunità Alta Valsugana e Bersntol, Provincia di Trento, Trentino-Alto Adige/Südtirol, 38056, Italia",region_34
acom_443,Holiday_house,Osler giacomo,46.00828945,11.30085468,"30, Via a Pra', Selva di Levico, Levico Terme, Comunità Alta Valsugana e Bersntol, Provincia di Trento, Trentino-Alto Adige/Südtirol, 38056, Italia",region_34
acom_444,Holiday_house,Spazzali giancarla,46.29007,11.4578399,"5, Via Pasquai, Cavalese, Comunità territoriale della Val di Fiemme, Provincia di Trento, Trentino-Alto Adige/Südtirol, 38033, Italia",region_21
acom_445,Holiday_house,Rizzoli giuseppina,46.2891063,11.454834,"21, Via dei Dossi, Cavalese, Comunità territoriale della Val di Fiemme, Provincia di Trento, Trentino-Alto Adige/Südtirol, 38033, Italia",region_21
acom_446,Holiday_house,Nadalini giuliano,46.0101,11.3024,"34, Via Cavour, Selva di Levico, Levico Terme, Comunità Alta Valsugana e Bersntol, Provincia di Trento, Trentino-Alto Adige/Südtirol, 38056, Italia",region_34
acom_447,Holiday_house,Appartamenti negritella di degiampietro mario,46.28931,11.45417,"Ospedale di Fiemme, 21, Via dei Dossi, Cavalese, Comunità territoriale della Val di Fiemme, Provincia di Trento, Trentino-Alto Adige/Südtirol, 38033, Italia",region_21
acom_448,Holiday_house,Sangiorgi catia,46.292512,11.460786,"Via Montebello, Cavazzal, Cavalese, Comunità territoriale della Val di Fiemme, Provincia di Trento, Trentino-Alto Adige/Südtirol, 38033, Italia",region_21
acom_449,Holiday_house,Dellasega antonio,46.3078,11.6011,"Via Fiamme Gialle, Pè de Pardàc, Coste, Predazzo, Comunità territoriale della Val di Fiemme, Provincia di Trento, Trentino-Alto Adige/Südtirol, 38037, Italia",region_55
acom_450,Holiday_house,Bertolini alessandra,46.0097,11.3118,"85, Via Giovanni Battista de Gaspari, Selva di Levico, Levico Terme, Comunità Alta Valsugana e Bersntol, Provincia di Trento, Trentino-Alto Adige/Südtirol, 38056, Italia",region_34
acom_451,Holiday_house,Fontanari angela,46.2868,11.5671,"Via Verdi, Bosin, Ziano di Fiemme, Comunità territoriale della Val di Fiemme, Provincia di Trento, Trentino-Alto Adige/Südtirol, 38037, Italia",region_165
acom_452,Holiday_house,Betta natalina,46.2919,11.4644,"Passeggiata Deleonardi, Cavazzal, Cavalese, Comunità territoriale della Val di Fiemme, Provincia di Trento, Trentino-Alto Adige/Südtirol, 38033, Italia",region_21
acom_453,Holiday_house,Zancanella raffaele,46.2871499,11.44816,"Via dei Gigli, Zona Artigianale, Cavalese, Comunità territoriale della Val di Fiemme, Provincia di Trento, Trentino-Alto Adige/Südtirol, 38033, Italia",region_21
acom_454,Holiday_house,Mentani luca,46.2832789,11.5685974,"Via Bosin, Bosin, Ziano di Fiemme, Comunità territoriale della Val di Fiemme, Provincia di Trento, Trentino-Alto Adige/Südtirol, 38037, Italia",region_165
acom_455,Holiday_house,Chelodi betta ester,46.2896,11.4637,"Scuola primaria Cavalese, 2, Via Sorelle Sighel, Cavazzal, Cavalese, Comunità territoriale della Val di Fiemme, Provincia di Trento, Trentino-Alto Adige/Südtirol, 38033, Italia",region_21
acom_456,Holiday_house,Martini annalisa,46.2863,11.5575,"Strada per Panchià, Zanolin, Ziano di Fiemme, Comunità territoriale della Val di Fiemme, Provincia di Trento, Trentino-Alto Adige/Südtirol, 38038, Italia",region_165
acom_457,Holiday_house,Delladio fabiana e saveria,46.2895,11.5091,"1, Via Benesin, Tesero, Comunità territoriale della Val di Fiemme, Provincia di Trento, Trentino-Alto Adige/Südtirol, 38038, Italia",region_156
acom_458,Holiday_house,Dellasega roberta,46.3158,11.5989,"Via Giuseppe Mazzini, La Bìra, Al Fol, Predazzo, Comunità territoriale della Val di Fiemme, Provincia di Trento, Trentino-Alto Adige/Südtirol, 38037, Italia",region_55
acom_459,Holiday_house,Vinante alessandro,46.283513,11.524658,"Via Tresselume, Roncosogno, Tesero, Comunità territoriale della Val di Fiemme, Provincia di Trento, Trentino-Alto Adige/Südtirol, 38038, Italia",region_156
acom_460,Holiday_house,Modena fiorenzo,46.3079,11.5995,"11, Via Colonnello Barbieri, Pè de Pardàc, Coste, Predazzo, Comunità territoriale della Val di Fiemme, Provincia di Trento, Trentino-Alto Adige/Südtirol, 38037, Italia",region_55
acom_461,Holiday_house,Longo maria agnese,46.3181,11.5009,"Stava, Tesero, Comunità territoriale della Val di Fiemme, Provincia di Trento, Trentino-Alto Adige/Südtirol, 38038, Italia",region_156
acom_462,Holiday_house,Corradini loretta,46.2904,11.4665,"Via Zandonai, Cavazzal, Cavalese, Comunità territoriale della Val di Fiemme, Provincia di Trento, Trentino-Alto Adige/Südtirol, 38033, Italia",region_21
acom_463,Holiday_house,Casa silvano welponer,46.29175,11.4606999,"Vicolo Ottilia Zeni, Cavalese, Comunità territoriale della Val di Fiemme, Provincia di Trento, Trentino-Alto Adige/Südtirol, 38033, Italia",region_21
acom_464,Holiday_house,Vanzetta lorenzo,46.28643152,11.55916214,"Jolanda, via Nazionale, Roda, Ziano di Fiemme, Comunità territoriale della Val di Fiemme, Provincia di Trento, Trentino-Alto Adige/Südtirol, 38037, Italia",region_165
acom_465,Holiday_house,Del din marco,46.2875,11.4537,"Via Gian Battista Delugan, Cavalese, Comunità territoriale della Val di Fiemme, Provincia di Trento, Trentino-Alto Adige/Südtirol, 38033, Italia",region_21
acom_466,Holiday_house,Manfredi lia,46.0107,11.3034,"29, Via Guglielmo Marconi, Selva di Levico, Levico Terme, Comunità Alta Valsugana e Bersntol, Provincia di Trento, Trentino-Alto Adige/Südtirol, 38056, Italia",region_34
acom_467,Holiday_house,Gabrielli giuseppina,46.3032,11.6006,"Via Lagorai, Pè de Pardàc, Coste, Predazzo, Comunità territoriale della Val di Fiemme, Provincia di Trento, Trentino-Alto Adige/Südtirol, 38037, Italia",region_55
acom_468,Holiday_house,Fiorini zelinda perbellini renzo,46.3107,11.6044,"Via Bedovei, Somaìla, Predazzo, Comunità territoriale della Val di Fiemme, Provincia di Trento, Trentino-Alto Adige/Südtirol, 38037, Italia",region_55
acom_469,Holiday_house,Cetto mario,46.0088,11.3123,"4, Via Domenico Giannettini, Selva di Levico, Levico Terme, Comunità Alta Valsugana e Bersntol, Provincia di Trento, Trentino-Alto Adige/Südtirol, 38056, Italia",region_34
acom_470,Holiday_house,Volpetti francesca,46.3076,11.6006,"Via Fiamme Gialle, Pè de Pardàc, Coste, Predazzo, Comunità territoriale della Val di Fiemme, Provincia di Trento, Trentino-Alto Adige/Südtirol, 38037, Italia",region_55
acom_471,Holiday_house,Montagna giusy,46.2871,11.4562,"Via Avisio, Cavalese, Comunità territoriale della Val di Fiemme, Provincia di Trento, Trentino-Alto Adige/Südtirol, 38033, Italia",region_21
acom_472,Holiday_house,Gnudi gianfranca,46.317852,11.598482,"Via di Poz, Poz, Al Fol, Predazzo, Comunità territoriale della Val di Fiemme, Provincia di Trento, Trentino-Alto Adige/Südtirol, 38037, Italia",region_55
acom_473,Holiday_house,Braito elvira,46.2836,11.4374,"Via Latemar, Castello di Fiemme, Castello-Molina di Fiemme, Comunità territoriale della Val di Fiemme, Provincia di Trento, Trentino-Alto Adige/Südtirol, 38099, Italia",region_15
acom_474,Holiday_house,Cetto giancarlo,46.0121,11.3161,"20a, Via per Selva, Selva di Levico, Levico Terme, Comunità Alta Valsugana e Bersntol, Provincia di Trento, Trentino-Alto Adige/Südtirol, 38056, Italia",region_34
acom_475,Holiday_house,Dellagiacoma giuseppina,46.3122426,11.6037886,"Via Simone Dellagiacoma, Somaìla, Predazzo, Comunità territoriale della Val di Fiemme, Provincia di Trento, Trentino-Alto Adige/Südtirol, 38037, Italia",region_55
acom_476,Holiday_house,Bressani gianluigi,46.285773,11.575428,"Frazione Roda, Roda, Ziano di Fiemme, Comunità territoriale della Val di Fiemme, Provincia di Trento, Trentino-Alto Adige/Südtirol, 38037, Italia",region_165
acom_477,Holiday_house,Demattio maria erna,46.2935,11.4582,"Via Rocca, Cavalese, Comunità territoriale della Val di Fiemme, Provincia di Trento, Trentino-Alto Adige/Südtirol, 38033, Italia",region_21
acom_478,Holiday_house,Tomasi nadia,46.01225365,11.30289316,"6, Piazza San Rocco, Selva di Levico, Levico Terme, Comunità Alta Valsugana e Bersntol, Provincia di Trento, Trentino-Alto Adige/Südtirol, 38056, Italia",region_34
acom_479,Holiday_house,Betta natalina,46.2911,11.4618,"Dolomiten, Via Fratelli Bronzetti, Cavazzal, Cavalese, Comunità territoriale della Val di Fiemme, Provincia di Trento, Trentino-Alto Adige/Südtirol, 38033, Italia",region_21
acom_480,Holiday_house,Leso eriberto,46.3167,11.5999,"Via Indipendenza, Poz, Al Fol, Predazzo, Comunità territoriale della Val di Fiemme, Provincia di Trento, Trentino-Alto Adige/Südtirol, 38037, Italia",region_55
acom_481,Holiday_house,Galvan renzo,46.28545283,11.47706509,"Via Milon, Cavazzal, Cavalese, Comunità territoriale della Val di Fiemme, Provincia di Trento, Trentino-Alto Adige/Südtirol, 38033, Italia",region_21
acom_482,Holiday_house,Lorenzini aurelia,46.01040199,11.30031824,"18, Via Avancinio Avancini, Selva di Levico, Levico Terme, Comunità Alta Valsugana e Bersntol, Provincia di Trento, Trentino-Alto Adige/Südtirol, 38056, Italia",region_34
acom_483,Holiday_house,Anna andreatta,46.0143,11.3038,"62, Via Montel, Selva di Levico, Levico Terme, Comunità Alta Valsugana e Bersntol, Provincia di Trento, Trentino-Alto Adige/Südtirol, 38056, Italia",region_34
acom_484,Holiday_house,La duca eloisa,46.28229424,11.43629551,"6, Via Latemar, Castello di Fiemme, Castello-Molina di Fiemme, Comunità territoriale della Val di Fiemme, Provincia di Trento, Trentino-Alto Adige/Südtirol, 38030, Italia",region_15
acom_485,Holiday_house,Deflorian gerardo,46.3113,11.6039,"Via Bedovei, Somaìla, Predazzo, Comunità territoriale della Val di Fiemme, Provincia di Trento, Trentino-Alto Adige/Südtirol, 38037, Italia",region_55
acom_486,Holiday_house,Lorenzini monica,46.0108,11.3006,"26, Via 11 Febbraio, Selva di Levico, Levico Terme, Comunità Alta Valsugana e Bersntol, Provincia di Trento, Trentino-Alto Adige/Südtirol, 38056, Italia",region_34
acom_487,Holiday_house,Trettel paolo,46.2885,11.5059,"15, Via Socce, Tesero, Comunità territoriale della Val di Fiemme, Provincia di Trento, Trentino-Alto Adige/Südtirol, 38038, Italia",region_156
acom_488,Holiday_house,Zanol tullio,46.28660946,11.57442927,"Via Cascatelle, Frazione Roda, Roda, Ziano di Fiemme, Comunità territoriale della Val di Fiemme, Provincia di Trento, Trentino-Alto Adige/Südtirol, 38037, Italia",region_165
acom_489,Holiday_house,Cavada annalisa,46.293112,11.460171,"Via Vanzo, Cavalese, Comunità territoriale della Val di Fiemme, Provincia di Trento, Trentino-Alto Adige/Südtirol, 38033, Italia",region_21
acom_490,Holiday_house,Defrancesco giovanni,46.2906,11.459,"2, Piazza Ress, Cavalese, Comunità territoriale della Val di Fiemme, Provincia di Trento, Trentino-Alto Adige/Südtirol, 38033, Italia",region_21
acom_491,Holiday_house,Bonora rina,46.3274,11.5907,"Strada forestale Val de Rif (RF), Poz, Al Fol, Predazzo, Comunità territoriale della Val di Fiemme, Provincia di Trento, Trentino-Alto Adige/Südtirol, 38037, Italia",region_55
acom_492,Holiday_house,Morandini giuseppe,46.31311,11.60245,"Via Dante Alighieri, Is-cia, Coste, Predazzo, Comunità territoriale della Val di Fiemme, Provincia di Trento, Trentino-Alto Adige/Südtirol, 38037, Italia",region_55
acom_493,Holiday_house,Zorzi giorgio,46.28947125,11.57069564,"Via Casa Bianca, Roda, Ziano di Fiemme, Comunità territoriale della Val di Fiemme, Provincia di Trento, Trentino-Alto Adige/Südtirol, 38030, Italia",region_165
acom_494,Holiday_house,Pezzo fausto,46.3078,11.6011,"Via Fiamme Gialle, Pè de Pardàc, Coste, Predazzo, Comunità territoriale della Val di Fiemme, Provincia di Trento, Trentino-Alto Adige/Südtirol, 38037, Italia",region_55
acom_495,Holiday_house,Guadagnini loretta via garibaldi,46.31089,11.60134,"Via Garibaldi, Pè de Pardàc, Coste, Predazzo, Comunità territoriale della Val di Fiemme, Provincia di Trento, Trentino-Alto Adige/Südtirol, 38037, Italia",region_55
acom_496,Holiday_house,Antoniazzi patrizia,46.288,11.4611,"Hotel Relais Grünwald, 3, Via Bresadola, Cavalese, Comunità territoriale della Val di Fiemme, Provincia di Trento, Trentino-Alto Adige/Südtirol, 38033, Italia",region_21
acom_497,Holiday_house,Zorzi paolo,46.2865,11.5597,"Jolanda, via Nazionale, Roda, Ziano di Fiemme, Comunità territoriale della Val di Fiemme, Provincia di Trento, Trentino-Alto Adige/Südtirol, 38037, Italia",region_165
acom_498,Holiday_house,Nadalini giuliano,46.01010765,11.30242109,"34, Via Cavour, Selva di Levico, Levico Terme, Comunità Alta Valsugana e Bersntol, Provincia di Trento, Trentino-Alto Adige/Südtirol, 38056, Italia",region_34
acom_499,Holiday_house,Brigadoi valentino,46.312,11.5981,"Via Gino Minghetti, Molìn, Coste, Predazzo, Comunità territoriale della Val di Fiemme, Provincia di Trento, Trentino-Alto Adige/Südtirol, 38037, Italia",region_55
acom_500,Holiday_house,Bertasi rita,46.3181269,11.50167,"Strada Provinciale 215 di Pampeago, Stava, Tesero, Comunità territoriale della Val di Fiemme, Provincia di Trento, Trentino-Alto Adige/Südtirol, 38038, Italia",region_156
acom_501,Holiday_house,Guadagnini giacomo,46.3023,11.6023,"Residence Kristall, 5, Strada Prai de Löse, Predazzo, Comunità territoriale della Val di Fiemme, Provincia di Trento, Trentino-Alto Adige/Südtirol, 38037, Italia",region_55
acom_502,Holiday_house,Amadio averardo,46.283,11.4349,"Via Campo Liberto, Castello di Fiemme, Castello-Molina di Fiemme, Comunità territoriale della Val di Fiemme, Provincia di Trento, Trentino-Alto Adige/Südtirol, 38099, Italia",region_15
acom_503,Holiday_house,Casal carlo,46.2643119,11.337547,"Via Anterivo, Maso Lio, Capriana, Comunità territoriale della Val di Fiemme, Provincia di Trento, Trentino-Alto Adige/Südtirol, 38030, Italia",region_20
acom_504,Holiday_house,De villa ferruccio,46.312,11.5981,"Via Gino Minghetti, Molìn, Coste, Predazzo, Comunità territoriale della Val di Fiemme, Provincia di Trento, Trentino-Alto Adige/Südtirol, 38037, Italia",region_55
acom_505,Holiday_house,Fantó antonella,46.2750678,11.4651669,"Cavalese, Comunità territoriale della Val di Fiemme, Provincia di Trento, Trentino-Alto Adige/Südtirol, 38033, Italia",region_21
acom_506,Holiday_house,Caviola ida,46.2902,11.4568,"Via Avisio, Cavalese, Comunità territoriale della Val di Fiemme, Provincia di Trento, Trentino-Alto Adige/Südtirol, 38033, Italia",region_21
acom_507,Holiday_house,Boninsegna giovanni,46.3113,11.6001,"Via di Pra Maor, Pè de Pardàc, Coste, Predazzo, Comunità territoriale della Val di Fiemme, Provincia di Trento, Trentino-Alto Adige/Südtirol, 38037, Italia",region_55
acom_508,Holiday_house,Eccher renzo,46.2824,11.4381,"Via Lagorai, Castello di Fiemme, Castello-Molina di Fiemme, Comunità territoriale della Val di Fiemme, Provincia di Trento, Trentino-Alto Adige/Südtirol, 38099, Italia",region_15
acom_509,Holiday_house,Benuzzi giulio,46.3105,11.6012,"Via Marzari Pencati, Pè de Pardàc, Coste, Predazzo, Comunità territoriale della Val di Fiemme, Provincia di Trento, Trentino-Alto Adige/Südtirol, 38037, Italia",region_55
acom_510,Holiday_house,Vanzetta francesca,46.2873657,11.56137228,"Via Coronella, Zanolin, Ziano di Fiemme, Comunità territoriale della Val di Fiemme, Provincia di Trento, Trentino-Alto Adige/Südtirol, 38037, Italia",region_165
acom_511,Holiday_house,Piazzi gabriele,46.3162,11.5031,"Hotel Villa di Bosco, 2, Strada Provinciale 215 di Pampeago, Stava, Tesero, Comunità territoriale della Val di Fiemme, Provincia di Trento, Trentino-Alto Adige/Südtirol, 38038, Italia",region_156
acom_512,Holiday_house,Nadalini giuliano,46.01016726,11.30235672,"34, Via Cavour, Selva di Levico, Levico Terme, Comunità Alta Valsugana e Bersntol, Provincia di Trento, Trentino-Alto Adige/Südtirol, 38056, Italia",region_34
acom_513,Holiday_house,Cavada olga,46.28562336,11.56588912,"Via Verdi, Bosin, Ziano di Fiemme, Comunità territoriale della Val di Fiemme, Provincia di Trento, Trentino-Alto Adige/Südtirol, 38037, Italia",region_165
acom_514,Holiday_house,Dalpalu' giovanna,46.2802,11.4334,"Via Milano, Castello di Fiemme, Castello-Molina di Fiemme, Comunità territoriale della Val di Fiemme, Provincia di Trento, Trentino-Alto Adige/Südtirol, 38099, Italia",region_15
acom_515,Holiday_house,Kinoweb appartamenti,46.2900935,11.4566416,"Via Pasquai, Cavalese, Comunità territoriale della Val di Fiemme, Provincia di Trento, Trentino-Alto Adige/Südtirol, 38033, Italia",region_21
acom_516,Holiday_house,Ochner marilina,46.0143,11.3142,"14, Località Violante salvadoneghe, Selva di Levico, Levico Terme, Comunità Alta Valsugana e Bersntol, Provincia di Trento, Trentino-Alto Adige/Südtirol, 38056, Italia",region_34
acom_517,Holiday_house,Marino renata,46.3048,11.6013,"Via Lagorai, Pè de Pardàc, Coste, Predazzo, Comunità territoriale della Val di Fiemme, Provincia di Trento, Trentino-Alto Adige/Südtirol, 38037, Italia",region_55
acom_518,Holiday_house,Osler giacomo,46.0078796,11.30088687,"31, Via a Pra', Selva di Levico, Levico Terme, Comunità Alta Valsugana e Bersntol, Provincia di Trento, Trentino-Alto Adige/Südtirol, 38056, Italia",region_34
acom_519,Holiday_house,Laforgia antonio,46.3098,11.6019,"Via Garibaldi, Pè de Pardàc, Coste, Predazzo, Comunità territoriale della Val di Fiemme, Provincia di Trento, Trentino-Alto Adige/Südtirol, 38037, Italia",region_55
acom_520,Holiday_house,Gianmoena mariaelena,46.2958021,11.4603494,"Via Valle, Cavalese, Comunità territoriale della Val di Fiemme, Provincia di Trento, Trentino-Alto Adige/Südtirol, 38033, Italia",region_21
acom_521,Holiday_house,Di girolamo barbara,46.31683,11.60082,"Via Bedovina, Poz, Al Fol, Predazzo, Comunità territoriale della Val di Fiemme, Provincia di Trento, Trentino-Alto Adige/Südtirol, 38037, Italia",region_55
acom_522,Holiday_house,Corso franco,46.2901777,11.4605315,"Via Campanari, Cavalese, Comunità territoriale della Val di Fiemme, Provincia di Trento, Trentino-Alto Adige/Südtirol, 38033, Italia",region_21
acom_523,Holiday_house,Bernardi remo,46.2913,11.4639,"Hotel Bellavista, 5, Via Pizzegoda, Cavazzal, Cavalese, Comunità territoriale della Val di Fiemme, Provincia di Trento, Trentino-Alto Adige/Südtirol, 38033, Italia",region_21
acom_524,Hotel,Belvedere,46.07281382,11.24480724,"Centrale, Serso, Pergine Valsugana, Comunità Alta Valsugana e Bersntol, Provincia di Trento, Trentino-Alto Adige/Südtirol, 38057, Italia",region_125
acom_525,Holiday_house,Rungaldier mario,46.28587545,11.43887043,"Nones Sport, 66, Via Roma, Castello di Fiemme, Castello-Molina di Fiemme, Comunità territoriale della Val di Fiemme, Provincia di Trento, Trentino-Alto Adige/Südtirol, 38030, Italia",region_15
acom_526,Holiday_house,Mich dario,46.28110786,11.55951619,"Via Cavelonte, Zanolin, Ziano di Fiemme, Comunità territoriale della Val di Fiemme, Provincia di Trento, Trentino-Alto Adige/Südtirol, Italia",region_165
acom_527,Holiday_house,Venturini adriano,46.28724,11.4504,"Via Marmolaia, Cavalese, Comunità territoriale della Val di Fiemme, Provincia di Trento, Trentino-Alto Adige/Südtirol, 38033, Italia",region_21
acom_528,Holiday_house,Maso chelo',46.2860284,11.4811959,"Strada Provinciale 232 di Fiemme, Masi di Cavalese, Cavalese, Comunità territoriale della Val di Fiemme, Provincia di Trento, Trentino-Alto Adige/Südtirol, 38033, Italia",region_21
acom_529,Hotel,Hotel spera,46.0715,11.506,"7, Via Carzano, Fontanelle, Torgheli, Spera, Castel Ivano, Comunità Valsugana e Tesino, Provincia di Trento, Trentino-Alto Adige/Südtirol, 38059, Italia",region_16
acom_530,Holiday_house,Ventura romano,46.2818,11.431,"Via Borno, Castello di Fiemme, Castello-Molina di Fiemme, Comunità territoriale della Val di Fiemme, Provincia di Trento, Trentino-Alto Adige/Südtirol, 38099, Italia",region_15
acom_531,Hotel,Nazionale,46.0669186,11.52358532,"Bar Nazionale, 2, Via Ventiquattro Maggio, Sièga, L'oro, Strigno, Castel Ivano, Comunità Valsugana e Tesino, Provincia di Trento, Trentino-Alto Adige/Südtirol, 38059, Italia",region_16
acom_532,Holiday_house,Zorzi giampaolo,46.28692085,11.56464994,"Hotel Genzianella, Via Sentiero degli Alpini, Bosin, Ziano di Fiemme, Comunità territoriale della Val di Fiemme, Provincia di Trento, Trentino-Alto Adige/Südtirol, 38037, Italia",region_165
acom_533,Hotel,La rotonda,46.0596,11.2372,"19, Viale Venezia, Susà, Pergine Valsugana, Comunità Alta Valsugana e Bersntol, Provincia di Trento, Trentino-Alto Adige/Südtirol, 38057, Italia",region_125
acom_534,Holiday_house,Hendel lorenzo,46.2912024,11.4605662,"2, Via Fratelli Bronzetti, Cavalese, Comunità territoriale della Val di Fiemme, Provincia di Trento, Trentino-Alto Adige/Südtirol, 38033, Italia",region_21
acom_535,Hotel,Turismo,46.0596,11.2372,"19, Viale Venezia, Susà, Pergine Valsugana, Comunità Alta Valsugana e Bersntol, Provincia di Trento, Trentino-Alto Adige/Südtirol, 38057, Italia",region_125
acom_536,Hotel,La rotonda (dip),46.0596,11.2372,"19, Viale Venezia, Susà, Pergine Valsugana, Comunità Alta Valsugana e Bersntol, Provincia di Trento, Trentino-Alto Adige/Südtirol, 38057, Italia",region_125
acom_537,Holiday_house,Piazzi clemente,46.287,11.51,"Tesero, Comunità territoriale della Val di Fiemme, Provincia di Trento, Trentino-Alto Adige/Südtirol, 38038, Italia",region_156
acom_538,Holiday_house,Demarchi lorenzo,46.2906,11.4548,"Fratelli Bellante, Via Trento, Cavalese, Comunità territoriale della Val di Fiemme, Provincia di Trento, Trentino-Alto Adige/Südtirol, 38033, Italia",region_21
acom_539,Holiday_house,Piazzi anna maria,46.2929,11.4601,"Via Vanzo, Cavalese, Comunità territoriale della Val di Fiemme, Provincia di Trento, Trentino-Alto Adige/Südtirol, 38033, Italia",region_21
acom_540,Holiday_house,Marastoni lauro,46.2908,11.4677,"Strada Statale delle Dolomiti, Cavazzal, Cavalese, Comunità territoriale della Val di Fiemme, Provincia di Trento, Trentino-Alto Adige/Südtirol, 38033, Italia",region_21
acom_541,Holiday_house,Gabrielli evaristo,46.3109889,11.6027703,"Via 9 Novembre, Pè de Pardàc, Coste, Predazzo, Comunità territoriale della Val di Fiemme, Provincia di Trento, Trentino-Alto Adige/Südtirol, 38037, Italia",region_55
acom_542,Holiday_house,Simeoni rita,46.3158,11.5989,"Via Giuseppe Mazzini, La Bìra, Al Fol, Predazzo, Comunità territoriale della Val di Fiemme, Provincia di Trento, Trentino-Alto Adige/Südtirol, 38037, Italia",region_55
acom_543,Holiday_house,Immobiliare san vito,46.3175887,11.6000307,"Via Bedovina, Poz, Al Fol, Predazzo, Comunità territoriale della Val di Fiemme, Provincia di Trento, Trentino-Alto Adige/Südtirol, 38037, Italia",region_55
acom_544,Holiday_house,Longo paola,46.300706,11.5058623,"Strada Provinciale 215 di Pampeago, Stava, Tesero, Comunità territoriale della Val di Fiemme, Provincia di Trento, Trentino-Alto Adige/Südtirol, 38038, Italia",region_156
acom_545,Holiday_house,Vinante daria,46.2906,11.4599,"Via Ress, Cavalese, Comunità territoriale della Val di Fiemme, Provincia di Trento, Trentino-Alto Adige/Südtirol, 38033, Italia",region_21
acom_546,Holiday_house,Monsorno maria,46.2958021,11.4603494,"Via Valle, Cavalese, Comunità territoriale della Val di Fiemme, Provincia di Trento, Trentino-Alto Adige/Südtirol, 38033, Italia",region_21
acom_547,Holiday_house,Guadagnini angela,46.3166,11.5971,"Corso Dolomiti, La Bìra, Al Fol, Predazzo, Comunità territoriale della Val di Fiemme, Provincia di Trento, Trentino-Alto Adige/Südtirol, 38037, Italia",region_55
acom_548,Holiday_house,Deflorian giovanna,46.0546,11.2358,"Via al Lago, Maso Valderban, Susà, Pergine Valsugana, Comunità Alta Valsugana e Bersntol, Provincia di Trento, Trentino-Alto Adige/Südtirol, 38057, Italia",region_125
acom_549,Hotel,Da remo,45.99757278,11.66632175,"59, Via Masetto Vecchio, Belvederi di Tezze, Masi Orne, Tezze Valsugana, Grigno, Comunità Valsugana e Tesino, Provincia di Trento, Trentino-Alto Adige/Südtirol, 38055, Italia",region_36
acom_550,Holiday_house,Bonelli paolo,46.2924,11.4582,"Piazza Dante, Via Baldieroni, Cavalese, Comunità territoriale della Val di Fiemme, Provincia di Trento, Trentino-Alto Adige/Südtirol, 38033, Italia",region_21
acom_551,Holiday_house,Fontanari luigi,46.28699499,11.56710148,"Via Caduti, Bosin, Ziano di Fiemme, Comunità territoriale della Val di Fiemme, Provincia di Trento, Trentino-Alto Adige/Südtirol, 38037, Italia",region_165
acom_552,Holiday_house,Gabrielli dunia,46.3106,11.6014,"Via Garibaldi, Pè de Pardàc, Coste, Predazzo, Comunità territoriale della Val di Fiemme, Provincia di Trento, Trentino-Alto Adige/Südtirol, 38037, Italia",region_55
acom_553,Holiday_house,Buttarelli attilio,46.2884499,11.4492982,"Via degli Artigiani, Cavalese, Comunità territoriale della Val di Fiemme, Provincia di Trento, Trentino-Alto Adige/Südtirol, 38033, Italia",region_21
acom_554,Holiday_house,Casa silvano welponer,46.2946018,11.4556249,"Via Giacomo Matteotti - Strada Statale 620 del Passo di Lavazè, Cavalese, Comunità territoriale della Val di Fiemme, Provincia di Trento, Trentino-Alto Adige/Südtirol, 38033, Italia",region_21
acom_555,Holiday_house,Zanon enos,46.3048,11.6013,"Via Lagorai, Pè de Pardàc, Coste, Predazzo, Comunità territoriale della Val di Fiemme, Provincia di Trento, Trentino-Alto Adige/Südtirol, 38037, Italia",region_55
acom_556,Holiday_house,Baita figliezzi,46.07084881,11.62374973,"Molini, Castello Tesino, Comunità Valsugana e Tesino, Provincia di Trento, Trentino-Alto Adige/Südtirol, 38053, Italia",region_17
acom_557,Holiday_house,Moser maria riccarda - casa liba,46.00282704,11.24643803,"Villaggio Verde, Calceranica al Lago, Comunità Alta Valsugana e Bersntol, Provincia di Trento, Trentino-Alto Adige/Südtirol, 38052, Italia",region_87
acom_558,Holiday_house,Martinelli anna maria,46.0042,11.2458,"17, Via al Lago, Calceranica al Lago, Comunità Alta Valsugana e Bersntol, Provincia di Trento, Trentino-Alto Adige/Südtirol, 38050, Italia",region_87
acom_559,Hotel,Albergo villa betty,46.126167,11.2353998,"Via ai Dossedèi, Poggio dei Pini, Ferrari, Tressilla, Baselga di Piné, Comunità Alta Valsugana e Bersntol, Provincia di Trento, Trentino-Alto Adige/Südtirol, 38042, Italia",region_5
acom_560,Holiday_house,Chalet musiera,46.10281608,11.48946762,"Volta del Corno, Telve, Comunità Valsugana e Tesino, Provincia di Trento, Trentino-Alto Adige/Südtirol, Italia",region_72
acom_561,Holiday_house,Baita lissa di ballerin emilio,46.07236723,11.62904978,"Molini, Castello Tesino, Comunità Valsugana e Tesino, Provincia di Trento, Trentino-Alto Adige/Südtirol, 38053, Italia",region_17
acom_562,Holiday_house,Noemi bruna brentari,46.06883163,11.60810709,"Bosco Santa Maria, Pieve Tesino, Comunità Valsugana e Tesino, Provincia di Trento, Trentino-Alto Adige/Südtirol, 38053, Italia",region_53
acom_563,Holiday_house,Casa paradiso,46.06668039,11.62617445,"SP78, Molini, Castello Tesino, Comunità Valsugana e Tesino, Provincia di Trento, Trentino-Alto Adige/Südtirol, 38053, Italia",region_17
acom_564,Hotel,Hotel edera,46.1285,11.2374,"Edera, Via per Trento, Gardizzola, Gnaghi, Tressilla, Baselga di Piné, Comunità Alta Valsugana e Bersntol, Provincia di Trento, Trentino-Alto Adige/Südtirol, 38042, Italia",region_5
acom_565,Holiday_house,Bortolotti armando,46.1325,11.2377,"Via del Municipio Vecchio, Gardizzola, Gnaghi, Tressilla, Baselga di Piné, Comunità Alta Valsugana e Bersntol, Provincia di Trento, Trentino-Alto Adige/Südtirol, 38042, Italia",region_5
acom_566,Holiday_house,Anesi tullio,46.12991,11.2332869,"Via del Belvedere, Dos, Tressilla, Baselga di Piné, Comunità Alta Valsugana e Bersntol, Provincia di Trento, Trentino-Alto Adige/Südtirol, 38042, Italia",region_5
acom_567,Holiday_house,Anesi maria,46.1275,11.235,"Via per Trento, Gardizzola, Gnaghi, Tressilla, Baselga di Piné, Comunità Alta Valsugana e Bersntol, Provincia di Trento, Trentino-Alto Adige/Südtirol, 38042, Italia",region_5
acom_568,Holiday_house,Grisenti roberto,46.0418575,11.3067494,"Strada dei Siori, La Volpis, Stal, Vignola, Levico Terme, Comunità Alta Valsugana e Bersntol, Provincia di Trento, Trentino-Alto Adige/Südtirol, 38056, Italia",region_161
acom_569,Holiday_house,Avi lucia,46.13,11.2344,"Via della Villa, Dos, Tressilla, Baselga di Piné, Comunità Alta Valsugana e Bersntol, Provincia di Trento, Trentino-Alto Adige/Südtirol, 38042, Italia",region_5
acom_570,Holiday_house,Avi claudio,46.1294,11.2333,"Via del Belvedere, Dos, Tressilla, Baselga di Piné, Comunità Alta Valsugana e Bersntol, Provincia di Trento, Trentino-Alto Adige/Südtirol, 38042, Italia",region_5
acom_571,Holiday_house,Avi mario,46.1283,11.2366,"Via della Palustèla, Poggio dei Pini, Ferrari, Tressilla, Baselga di Piné, Comunità Alta Valsugana e Bersntol, Provincia di Trento, Trentino-Alto Adige/Südtirol, 38042, Italia",region_5
acom_572,Holiday_house,Brida alberto,45.99844108,11.2643069,"15, Via del Broleto, Caldonazzo, Comunità Alta Valsugana e Bersntol, Provincia di Trento, Trentino-Alto Adige/Südtirol, 38052, Italia",region_89
acom_573,Holiday_house,Appartamento ai tisi  di cirulli egle,46.081314,11.5212475,"12a,12b, Via Nuova Inferiore, Maso Buffa, Castel Ivano, Comunità Valsugana e Tesino, Provincia di Trento, Trentino-Alto Adige/Südtirol, 38059, Italia",region_16
acom_574,Hotel,Da ciolda,46.03236829,11.23034477,"Via Alla Spiageta, Maso Pianezza, Valcanover, Pergine Valsugana, Comunità Alta Valsugana e Bersntol, Provincia di Trento, Trentino-Alto Adige/Südtirol, 38057, Italia",region_125
acom_575,Hotel,Gulliver,46.0281,11.2294,"Coop, 11, Strada per Calceranica, Maso Osler, Valcanover, Pergine Valsugana, Comunità Alta Valsugana e Bersntol, Provincia di Trento, Trentino-Alto Adige/Südtirol, 38057, Italia",region_125
acom_576,Holiday_house,Baita miralefre,46.08126849,11.5370822,"Via Lunazza, Castel Ivano, Comunità Valsugana e Tesino, Provincia di Trento, Trentino-Alto Adige/Südtirol, 38059, Italia",region_16
acom_577,Holiday_house,Baita cornalè,46.06947922,11.63396358,"Sottomolizza, Castello Tesino, Comunità Valsugana e Tesino, Provincia di Trento, Trentino-Alto Adige/Südtirol, 38053, Italia",region_17
acom_578,Holiday_house,Baita degli angeli di walter viero,46.11810857,11.6546917,"Strada Val Malene - Brocon, Masi Carretta, Castello Tesino, Comunità Valsugana e Tesino, Provincia di Trento, Trentino-Alto Adige/Südtirol, 38053, Italia",region_17
acom_579,Hotel,Mezzolago,46.02530665,11.22859597,"2, Via al Canevét, Maso Casot, Valcanover, Pergine Valsugana, Comunità Alta Valsugana e Bersntol, Provincia di Trento, Trentino-Alto Adige/Südtirol, 38057, Italia",region_125
acom_580,Holiday_house,Casa cadenzi di postai riccardo,46.0518,11.4013,"Località Scalvin, Scalvin, Roncegno Terme, Comunità Valsugana e Tesino, Provincia di Trento, Trentino-Alto Adige/Südtirol, Italia",region_132
acom_581,Holiday_house,Appartamento al lago,46.00395236,11.25864744,"Camping Belvedere, Viale Venezia, Calceranica al Lago, Comunità Alta Valsugana e Bersntol, Provincia di Trento, Trentino-Alto Adige/Südtirol, 38052, Italia",region_87
acom_582,Hotel,Valcanover,46.02758614,11.22965813,"Via di Mezzo Lago, Maso Osler, Valcanover, Pergine Valsugana, Comunità Alta Valsugana e Bersntol, Provincia di Trento, Trentino-Alto Adige/Südtirol, 38057, Italia",region_125
acom_583,Hotel,San cristoforo,46.0281,11.2294,"Coop, 11, Strada per Calceranica, Maso Osler, Valcanover, Pergine Valsugana, Comunità Alta Valsugana e Bersntol, Provincia di Trento, Trentino-Alto Adige/Südtirol, 38057, Italia",region_125
acom_584,Holiday_house,Braus siro,46.0621,11.6343,"31, Via Dante, Sottomolizza, Castello Tesino, Comunità Valsugana e Tesino, Provincia di Trento, Trentino-Alto Adige/Südtirol, 38053, Italia",region_17
acom_585,Holiday_house,Moranduzzo piersisto,46.0603,11.6349,"21, Via Venezia, Castello Tesino, Comunità Valsugana e Tesino, Provincia di Trento, Trentino-Alto Adige/Südtirol, 38053, Italia",region_17
acom_586,Holiday_house,Appartamento al lago,46.00282704,11.24149203,"13, Via della Miniera, Calceranica al Lago, Comunità Alta Valsugana e Bersntol, Provincia di Trento, Trentino-Alto Adige/Südtirol, 38049, Italia",region_87
acom_587,Campsite,Camping punta indiani,46.02825656,11.23283386,"Punta Indiani, 2, Via di Mezzo Lago, Maso Osler, Valcanover, Pergine Valsugana, Comunità Alta Valsugana e Bersntol, Provincia di Trento, Trentino-Alto Adige/Südtirol, 38057, Italia",region_125
acom_588,Holiday_house,Zampiero giuseppina,46.06580201,11.62692547,"SP78, Molini, Castello Tesino, Comunità Valsugana e Tesino, Provincia di Trento, Trentino-Alto Adige/Südtirol, 38053, Italia",region_17
acom_589,Holiday_house,Pasqualin ida,46.06574245,11.62866354,"Molini, Castello Tesino, Comunità Valsugana e Tesino, Provincia di Trento, Trentino-Alto Adige/Südtirol, 38053, Italia",region_17
acom_590,Holiday_house,Avanzo maria,46.06919637,11.60781741,"Museo Casa Degasperi, 1, Via Alcide De Gasperi, Bosco Santa Maria, Pieve Tesino, Comunità Valsugana e Tesino, Provincia di Trento, Trentino-Alto Adige/Südtirol, 38050, Italia",region_53
acom_591,Holiday_house,Bergamo marta,46.02497,11.22842,"8, Via per Santa Caterina, Maso Osler, Valcanover, Pergine Valsugana, Comunità Alta Valsugana e Bersntol, Provincia di Trento, Trentino-Alto Adige/Südtirol, 38057, Italia",region_125
acom_592,Holiday_house,Fassan ermanno,46.2086,11.2691,"Strada Statale 612 della Val di Cembra, Greggion, Valda, Altavalle, Comunità della Valle di Cembra, Provincia di Trento, Trentino-Alto Adige/Südtirol, 38092, Italia",region_11
acom_593,Hotel,Alpino,46.30374835,11.45603657,"Hotel Ristorante Alpino, Via Mercato - Strada Statale 620 del Passo di Lavazè, Varena, Ville di Fiemme, Comunità territoriale della Val di Fiemme, Provincia di Trento, Trentino-Alto Adige/Südtirol, 38033, Italia",region_164
acom_594,Holiday_house,Chalet musiera,46.10135802,11.48684978,"Musiera di Sotto, Telve, Comunità Valsugana e Tesino, Provincia di Trento, Trentino-Alto Adige/Südtirol, 38051, Italia",region_72
acom_595,Holiday_house,Ferrari michela,46.0041,11.2444,"Via Asilo, Calceranica al Lago, Comunità Alta Valsugana e Bersntol, Provincia di Trento, Trentino-Alto Adige/Südtirol, 38052, Italia",region_87
acom_596,Hotel,Alla rocca,46.30469706,11.45693779,"Hotel alla Rocca, Via Borgonuovo, Varena, Ville di Fiemme, Comunità territoriale della Val di Fiemme, Provincia di Trento, Trentino-Alto Adige/Südtirol, 38033, Italia",region_164
acom_597,Hotel,Serenetta,46.30306646,11.45547867,"Via Mercato - Strada Statale 620 del Passo di Lavazè, Varena, Ville di Fiemme, Comunità territoriale della Val di Fiemme, Provincia di Trento, Trentino-Alto Adige/Südtirol, 38033, Italia",region_164
acom_598,Holiday_house,Salvaterra fernanda,46.3026,11.4563,"Via Luigi Delvai, Varena, Ville di Fiemme, Comunità territoriale della Val di Fiemme, Provincia di Trento, Trentino-Alto Adige/Südtirol, 38033, Italia",region_164
acom_599,Holiday_house,Sangiorgi catia,46.2926,11.4645,"Via Montebello, Varena, Cavalese, Comunità territoriale della Val di Fiemme, Provincia di Trento, Trentino-Alto Adige/Südtirol, 38033, Italia",region_21
acom_600,Holiday_house,Zanettin gustavo,46.06428341,11.63234353,"Via M. Braus, Sottomolizza, Castello Tesino, Comunità Valsugana e Tesino, Provincia di Trento, Trentino-Alto Adige/Südtirol, 38053, Italia",region_17
acom_601,Holiday_house,Utili fulvio,46.3055,11.463,"Via a Cantelger, Varena, Ville di Fiemme, Comunità territoriale della Val di Fiemme, Provincia di Trento, Trentino-Alto Adige/Südtirol, 38033, Italia",region_164
acom_602,Holiday_house,Sordo franco,46.06048673,11.63460732,"36, Via Venezia, Castello Tesino, Comunità Valsugana e Tesino, Provincia di Trento, Trentino-Alto Adige/Südtirol, 38053, Italia",region_17
acom_603,Holiday_house,Monsorno  nadia,46.3013677,11.4530137,"Via Lunga, Varena, Ville di Fiemme, Comunità territoriale della Val di Fiemme, Provincia di Trento, Trentino-Alto Adige/Südtirol, 38033, Italia",region_164
acom_604,Hotel,Albergo 2 camini,46.1258,11.2441,"Locanda 2 Camini, Via del 26 maggio, Pontara, Cadrobbi, Vigo, Baselga di Piné, Comunità Alta Valsugana e Bersntol, Provincia di Trento, Trentino-Alto Adige/Südtirol, 38042, Italia",region_5
acom_605,Holiday_house,Sordo franco,46.06429457,11.63134575,"Casa della Wilma, 9, Via Baili, Sottomolizza, Castello Tesino, Comunità Valsugana e Tesino, Provincia di Trento, Trentino-Alto Adige/Südtirol, 38053, Italia",region_17
acom_606,Hotel,Albergo villa pine',46.131704,11.2425965,"Via delle Scuole, Gardizzola, Gnaghi, Vigo, Baselga di Piné, Comunità Alta Valsugana e Bersntol, Provincia di Trento, Trentino-Alto Adige/Südtirol, 38042, Italia",region_5
acom_607,Holiday_house,Di bello giovanni,46.0021,11.2647,"Via Andanta, Brenta, Caldonazzo, Comunità Alta Valsugana e Bersntol, Provincia di Trento, Trentino-Alto Adige/Südtirol, 38052, Italia",region_89
acom_608,Hotel,Hotel scoiattolo,46.1125,11.234166,"Scoiattolo, Via del Bedolé, Poggio dei Pini, Ferrari, Vigo, Baselga di Piné, Comunità Alta Valsugana e Bersntol, Provincia di Trento, Trentino-Alto Adige/Südtirol, 38042, Italia",region_5
acom_609,Holiday_house,Menguzzato sabrina - casa veglia,46.06406752,11.6334486,"24, Via Lugo, Sottomolizza, Castello Tesino, Comunità Valsugana e Tesino, Provincia di Trento, Trentino-Alto Adige/Südtirol, 38053, Italia",region_17
acom_610,Holiday_house,Villa abetina,46.0415441,11.30810738,"Strada dei Siori, La Volpis, Stal, Vignola, Levico Terme, Comunità Alta Valsugana e Bersntol, Provincia di Trento, Trentino-Alto Adige/Südtirol, 38056, Italia",region_161
acom_611,Hotel,Hotel 2 pini,46.123916,11.241694,"Hotel 2 Pini, Via del 26 Maggio, Poggio dei Pini, Cadrobbi, Vigo, Baselga di Piné, Comunità Alta Valsugana e Bersntol, Provincia di Trento, Trentino-Alto Adige/Südtirol, 38042, Italia",region_5
acom_612,Holiday_house,Villa costalta,46.1341,11.2438,"Via Collina, Gardizzola, Gnaghi, Vigo, Baselga di Piné, Comunità Alta Valsugana e Bersntol, Provincia di Trento, Trentino-Alto Adige/Südtirol, 38042, Italia",region_5
acom_613,Holiday_house,Sighel gilio,46.1313,11.243,"Piazza di Santa Maria Assunta, Gardizzola, Gnaghi, Vigo, Baselga di Piné, Comunità Alta Valsugana e Bersntol, Provincia di Trento, Trentino-Alto Adige/Südtirol, 38042, Italia",region_5
acom_614,Holiday_house,Follador francesco,46.1252,11.243,"Via dei Cadròbi, Pontara, Cadrobbi, Vigo, Baselga di Piné, Comunità Alta Valsugana e Bersntol, Provincia di Trento, Trentino-Alto Adige/Südtirol, 38042, Italia",region_5
acom_615,Holiday_house,Casagranda mauro,46.1247,11.2413,"46, Via dei Cadròbi, Poggio dei Pini, Cadrobbi, Vigo, Baselga di Piné, Comunità Alta Valsugana e Bersntol, Provincia di Trento, Trentino-Alto Adige/Südtirol, 38042, Italia",region_5
acom_616,Holiday_house,Baita cornale,46.06964298,11.6341567,"Sottomolizza, Castello Tesino, Comunità Valsugana e Tesino, Provincia di Trento, Trentino-Alto Adige/Südtirol, 38053, Italia",region_17
acom_617,Holiday_house,Pizzini angela,46.0581699,11.52232,"27, Via Professor Ezio Franceschini, Sièga, Villa, Castel Ivano, Comunità Valsugana e Tesino, Provincia di Trento, Trentino-Alto Adige/Südtirol, 38059, Italia",region_16
acom_618,Holiday_house,Tedon,46.14844298,11.52294159,"Scurelle, Comunità Valsugana e Tesino, Provincia di Trento, Trentino-Alto Adige/Südtirol, Italia",region_62
acom_619,Holiday_house,Boso roberto,46.06437274,11.62877083,"Via Baili, Sottomolizza, Castello Tesino, Comunità Valsugana e Tesino, Provincia di Trento, Trentino-Alto Adige/Südtirol, 38053, Italia",region_17
acom_620,Holiday_house,Baita sperandio - casa per ferie,46.11397347,11.64499283,"Strada Val Malene - Brocon, Masi Carretta, Pieve Tesino, Comunità Valsugana e Tesino, Provincia di Trento, Trentino-Alto Adige/Südtirol, 38053, Italia",region_53
acom_621,Holiday_house,Castagnoli mario,46.00185076,11.26364708,"Via Andanta, Brenta, Caldonazzo, Comunità Alta Valsugana e Bersntol, Provincia di Trento, Trentino-Alto Adige/Südtirol, 38052, Italia",region_89
acom_622,Holiday_house,Nicetto franca,46.06532559,11.63242936,"Famiglia Cooperativa, 13a, Via Donato Pelloso, Sottomolizza, Castello Tesino, Comunità Valsugana e Tesino, Provincia di Trento, Trentino-Alto Adige/Südtirol, 38053, Italia",region_17
acom_623,Holiday_house,Bort aldo,45.99495665,11.26645803,"16b, Via Brenta, Caldonazzo, Comunità Alta Valsugana e Bersntol, Provincia di Trento, Trentino-Alto Adige/Südtirol, 38052, Italia",region_89
acom_624,Holiday_house,Menato giulio,46.06494594,11.63330913,"Piazza San Giorgio, Sottomolizza, Castello Tesino, Comunità Valsugana e Tesino, Provincia di Trento, Trentino-Alto Adige/Südtirol, Italia",region_17
acom_625,Holiday_house,Ferrari giulia,45.9993,11.2535,"Via Andanta, Calceranica al Lago, Comunità Alta Valsugana e Bersntol, Provincia di Trento, Trentino-Alto Adige/Südtirol, 38052, Italia",region_87
acom_626,Holiday_house,Boso roberto,46.06485661,11.63262248,"Via Municipio Vecchio, Sottomolizza, Castello Tesino, Comunità Valsugana e Tesino, Provincia di Trento, Trentino-Alto Adige/Südtirol, 38053, Italia",region_17
acom_627,Holiday_house,Soggiorno carraro,46.05727051,11.52124643,"7, Via Don Giuseppe Grazioli, Sièga, Villa, Castel Ivano, Comunità Valsugana e Tesino, Provincia di Trento, Trentino-Alto Adige/Südtirol, 38059, Italia",region_16
acom_628,Holiday_house,Moser maria riccarda - casa liba,46.00284195,11.24655604,"Villaggio Verde, Calceranica al Lago, Comunità Alta Valsugana e Bersntol, Provincia di Trento, Trentino-Alto Adige/Südtirol, 38052, Italia",region_87
acom_629,Holiday_house,Azzolini pierpaolo,46.04824625,11.40653372,"15, Via Lungoargine Prela, Cadenzi, Roncegno Terme, Comunità Valsugana e Tesino, Provincia di Trento, Trentino-Alto Adige/Südtirol, 38050, Italia",region_132
acom_630,Hotel,Al castello,46.05919133,11.24982834,"Castel Pergine, 10, Via al Castello, Fontanabotte, Zivignago, Pergine Valsugana, Comunità Alta Valsugana e Bersntol, Provincia di Trento, Trentino-Alto Adige/Südtirol, 38057, Italia",region_125
acom_631,Holiday_house,Rosanelli mario,46.012,11.2669,"13, Via Roma, Tenna, Comunità Alta Valsugana e Bersntol, Provincia di Trento, Trentino-Alto Adige/Südtirol, 38050, Italia",region_73
