id,address,name,latitude,longitude,city
gas_1,"Agip Eni, Strada Statale 47 della Valsugana, Larganza, Marter, Roncegno Terme, Comunità Valsugana e Tesino, Provincia di Trento, Trentino-Alto Adige/Südtirol, 38051, Italia",Eni Station,46.0448287,11.4228045,region_132
gas_2,"Loro, SS47, Perozzi, Spagolle, Castelnuovo, Comunità Valsugana e Tesino, Provincia di Trento, Trentino-Alto Adige/Südtirol, 38051, Italia",Loro,46.0487614,11.4757382,region_18
gas_3,"Agip, 62, Corso Vicenza, Borgo Valsugana, Comunità Valsugana e Tesino, Provincia di Trento, Trentino-Alto Adige/Südtirol, 38051, Italia",Agip,46.0552954,11.4699664,region_82
gas_4,"Esso, Statale Valsugana, Fornaci, Susà, Pergine Valsugana, Comunità Alta Valsugana e Bersntol, Provincia di Trento, Trentino-Alto Adige/Südtirol, 38057, Italia",Esso,46.0581489,11.2311168,region_125
gas_5,"Stazione di servizio GNP - Calceranica, 44, Corso degli Alpini, Calceranica al Lago, Comunità Alta Valsugana e Bersntol, Provincia di Trento, Trentino-Alto Adige/Südtirol, 38050, Italia",Stazione di servizio GNP - Calceranica,46.0010443,11.2459132,region_87
gas_6,"Delta Energy, Corso degli Alpini, Calceranica al Lago, Comunità Alta Valsugana e Bersntol, Provincia di Trento, Trentino-Alto Adige/Südtirol, 38052, Italia",Delta Energy,46.0037325,11.2439009,region_87
gas_7,"Esso, Via Bertoldi, Villaggio Móar, Azzolini, Gionghi, Lavarone, Magnifica Comunità degli Altipiani Cimbri, Provincia di Trento, Trentino-Alto Adige/Südtirol, 38046, Italia",Esso,45.9409686,11.2677353,region_38
gas_8,"Tamoil, Strada Provinciale 79 del Brocon, Revedea, Canal San Bovo, Comunità di Primiero, Provincia di Trento, Trentino-Alto Adige/Südtirol, Italia",Tamoil,46.1498412,11.7351753,region_88
gas_9,"Agip, Via per Trento, Madrano, Pergine Valsugana, Comunità Alta Valsugana e Bersntol, Provincia di Trento, Trentino-Alto Adige/Südtirol, 38034, Italia",Agip,46.0759963,11.2071347,region_125
gas_10,"IP, Strada Statale 47 della Valsugana, Maso Valderban, San Cristoforo al Lago, Pergine Valsugana, Comunità Alta Valsugana e Bersntol, Provincia di Trento, Trentino-Alto Adige/Südtirol, 38057, Italia",IP,46.0450899,11.2350485,region_125
gas_11,"GNP, 27, Via al Lago, Canale, Pergine Valsugana, Comunità Alta Valsugana e Bersntol, Provincia di Trento, Trentino-Alto Adige/Südtirol, 38057, Italia",GNP,46.0488907,11.2353864,region_125
gas_12,"Esso, SS47, Larganza, Marter, Roncegno Terme, Comunità Valsugana e Tesino, Provincia di Trento, Trentino-Alto Adige/Südtirol, 38051, Italia",Esso,46.0444502,11.4232665,region_132
gas_13,"Agip, Viale Dante, Fornaci, Pergine Valsugana, Comunità Alta Valsugana e Bersntol, Provincia di Trento, Trentino-Alto Adige/Südtirol, 38057, Italia",Agip,46.068552,11.2251508,region_125
gas_14,"Esso, Strada Statale 47 della Valsugana, Belvederi di Tezze, Masi Orne, Tezze Valsugana, Grigno, Comunità Valsugana e Tesino, Provincia di Trento, Trentino-Alto Adige/Südtirol, 38055, Italia",Esso,45.996838,11.666166,region_36
gas_15,"IP, SS47, Ceggio, Prai da Brenta, Castelnuovo, Comunità Valsugana e Tesino, Provincia di Trento, Trentino-Alto Adige/Südtirol, 38051, Italia",IP,46.0508176,11.485182,region_18
gas_16,"Esso, 2, Località Prai da Brenta, Castelnuovo, Comunità Valsugana e Tesino, Provincia di Trento, Trentino-Alto Adige/Südtirol, 38050, Italia",Esso,46.0513415,11.4844751,region_18
gas_17,"Stazione di servizio GNP - Marter, Strada Statale 47 della Valsugana, Marter, Roncegno Terme, Comunità Valsugana e Tesino, Provincia di Trento, Trentino-Alto Adige/Südtirol, 38050, Italia",Stazione di servizio GNP - Marter,46.0342872,11.3951273,region_132
gas_18,"Eni, Strada Statale 47 della Valsugana, Santa Giuliana, Levico Terme, Comunità Alta Valsugana e Bersntol, Provincia di Trento, Trentino-Alto Adige/Südtirol, 38056, Italia",Eni,46.0028164,11.2955451,region_34
gas_19,"Q8, Statale Valsugana, Fornaci, Susà, Pergine Valsugana, Comunità Alta Valsugana e Bersntol, Provincia di Trento, Trentino-Alto Adige/Südtirol, 38057, Italia",Q8,46.058533,11.23017,region_125
gas_20,"Carburanti Dolomiti, Via Roma, Sorive, Mezzano, Comunità di Primiero, Provincia di Trento, Trentino-Alto Adige/Südtirol, 38054, Italia",Carburanti Dolomiti,46.156708,11.815474,region_116
gas_21,"Tamoil, Strada Statale delle Dolomiti, Castello di Fiemme, Castello-Molina di Fiemme, Comunità territoriale della Val di Fiemme, Provincia di Trento, Trentino-Alto Adige/Südtirol, 38099, Italia",Tamoil,46.285038,11.436596,region_15
gas_22,"IP, Via Segherie, Predaia, Molina di Fiemme, Castello-Molina di Fiemme, Comunità territoriale della Val di Fiemme, Provincia di Trento, Trentino-Alto Adige/Südtirol, 38099, Italia",IP,46.2725849,11.4194858,region_15
gas_23,"Esso, Via Nazionale, Lases, Lona-Lases, Comunità della Valle di Cembra, Provincia di Trento, Trentino-Alto Adige/Südtirol, 38040, Italia",Esso,46.150321,11.2224209,region_118
gas_24,"IP, Strada Provinciale 71 Fersina - Avisio, Scancio, Segonzano, Comunità della Valle di Cembra, Provincia di Trento, Trentino-Alto Adige/Südtirol, 38047, Italia",IP,46.1879342,11.2590113,region_144
gas_25,"Agip Eni, Corso Dolomiti, La Bìra, Al Fol, Predazzo, Comunità territoriale della Val di Fiemme, Provincia di Trento, Trentino-Alto Adige/Südtirol, 38037, Italia",Eni,46.3171607,11.597161,region_55
gas_26,"Q8, SS48, Vigo di Fassa - Vich, Sèn Jan, San Giovanni di Fassa - Sèn Jan, Comun General de Fascia, Provincia di Trento, Trentino-Alto Adige/Südtirol, 38036, Italia",Q8,46.4197614,11.6806829,region_64
gas_27,"Esso, Strada de la Comunità de Fiem, Sorte, Moena, Comun General de Fascia, Provincia di Trento, Trentino-Alto Adige/Südtirol, 38035, Italia",Esso,46.3686743,11.6517974,region_47
gas_28,"Q8, SS50, Masi di Imer, Imer, Comunità di Primiero, Provincia di Trento, Trentino-Alto Adige/Südtirol, Italia",Q8,46.14532,11.7856361,region_35
gas_29,"Esso, Viale Piave, Pieve, Transacqua, Primiero San Martino di Castrozza, Comunità di Primiero, Provincia di Trento, Trentino-Alto Adige/Südtirol, 38054, Italia",Esso,46.1725942,11.8262312,region_52
gas_30,"Costantin, Via Spolverine, Zivignago, Pergine Valsugana, Comunità Alta Valsugana e Bersntol, Provincia di Trento, Trentino-Alto Adige/Südtirol, 38057, Italia",Costantin,46.0649368,11.2465507,region_125
gas_31,"IP, Via Guido Donegani - Strada Provinciale del Lago di Caldonazzo, Calceranica al Lago, Comunità Alta Valsugana e Bersntol, Provincia di Trento, Trentino-Alto Adige/Südtirol, 38052, Italia",IP,46.0057698,11.2413397,region_87
gas_32,"Viale 4 Novembre, Fadana, Cembra, Cembra Lisignago, Comunità della Valle di Cembra, Provincia di Trento, Trentino-Alto Adige/Südtirol, 38041, Italia",Stazione di servizio petrol villa,46.1766307,11.2236794,region_100
gas_33,"Total, Viale Trento, Caldonazzo, Comunità Alta Valsugana e Bersntol, Provincia di Trento, Trentino-Alto Adige/Südtirol, 38052, Italia",Total,45.9965856,11.2591767,region_89
gas_34,"Agip Eni, Via Roma, Tressane, Tonadico, Primiero San Martino di Castrozza, Comunità di Primiero, Provincia di Trento, Trentino-Alto Adige/Südtirol, 38054, Italia",Eni Station,46.1819951,11.8315714,region_52
gas_35,"Tamoil, Stradon de Fascia, Soraga, Soraga di Fassa, Comun General de Fascia, Provincia di Trento, Trentino-Alto Adige/Südtirol, 38030, Italia",Tamoil Carburante,46.3985829,11.6691938,region_146
gas_36,"Loro, Via Claudia Augusta, Levico Terme, Comunità Alta Valsugana e Bersntol, Provincia di Trento, Trentino-Alto Adige/Südtirol, 38056, Italia",Loro,46.0041565,11.2895201,region_34
gas_37,"Agip Eni, Via Trento, Cavalese, Comunità territoriale della Val di Fiemme, Provincia di Trento, Trentino-Alto Adige/Südtirol, 38033, Italia",Camello Service di dellasega riccardo,46.2907639,11.4545815,region_21
gas_38,"Eni, Via Fiamme Gialle, Pè de Pardàc, Coste, Predazzo, Comunità territoriale della Val di Fiemme, Provincia di Trento, Trentino-Alto Adige/Südtirol, 38037, Italia",Eni,46.304635,11.5951134,region_55
gas_39,"Agip, Strada de la Comunità de Fiem, Sorte, Moena, Comun General de Fascia, Provincia di Trento, Trentino-Alto Adige/Südtirol, 38035, Italia",Agip,46.3666461,11.6495876,region_47
gas_40,"Stazione di servizio GNP - Daiano, 61, Via San Tommaso, Daiano, Ville di Fiemme, Comunità territoriale della Val di Fiemme, Provincia di Trento, Trentino-Alto Adige/Südtirol, 38030, Italia",Stazione di servizio GNP - Daiano,46.2999783,11.4516847,region_164
gas_41,"Repsol, Via della Palanca, Castellare, Pagela, Scurelle, Comunità Valsugana e Tesino, Provincia di Trento, Trentino-Alto Adige/Südtirol, 38059, Italia",Tamoil,46.0623539,11.5009876,region_62
gas_42,"Località Nale, Nale, Longhini, Telve, Comunità Valsugana e Tesino, Provincia di Trento, Trentino-Alto Adige/Südtirol, 38051, Italia",San Marco Petroli,46.0692949,11.482645,region_72
gas_43,"SP78, Molini, Castello Tesino, Comunità Valsugana e Tesino, Provincia di Trento, Trentino-Alto Adige/Südtirol, 38053, Italia",Distributore carburanti Pasqualin,46.0686516,11.6255111,region_17
gas_44,"Stazione di servizio GNP - Castel Ivano, 10, Strada del Tesino, Sièga, Villa, Castel Ivano, Comunità Valsugana e Tesino, Provincia di Trento, Trentino-Alto Adige/Südtirol, 38059, Italia",Stazione di servizio GNP - Castel Ivano,46.0594408,11.5217891,region_16
gas_45,"Esso, Via Roma, Maso Rigo, Olle, Borgo Valsugana, Comunità Valsugana e Tesino, Provincia di Trento, Trentino-Alto Adige/Südtirol, 38051, Italia",Esso,46.0512163,11.4453172,region_82
gas_46,"IP, Strada Rezia, Vigo di Fassa - Vich, Costa, San Giovanni di Fassa - Sèn Jan, Comun General de Fascia, Provincia di Trento, Trentino-Alto Adige/Südtirol, 38036, Italia",IP,46.4199221,11.6715412,region_64
gas_47,"Cristoforetti, SS48, La Bìra, Mezzavalle, Predazzo, Comunità territoriale della Val di Fiemme, Provincia di Trento, Trentino-Alto Adige/Südtirol, 38037, Italia",Distributore carburanti con GPL,46.338358,11.6103631,region_55
gas_48,"Tamoil, Viale Brigata Abruzzi, Bosco Santa Maria, Pieve Tesino, Comunità Valsugana e Tesino, Provincia di Trento, Trentino-Alto Adige/Südtirol, 38053, Italia",Tamoil,46.0678896,11.6124172,region_53
gas_49,"Esso, Via Trieste, Chiesa, Gionghi, Lavarone, Magnifica Comunità degli Altipiani Cimbri, Provincia di Trento, Trentino-Alto Adige/Südtirol, 38046, Italia",Esso Lavarone Chiesa,45.9393606,11.2542889,region_38
gas_50,"Via Fiamme Gialle, Pè de Pardàc, Coste, Predazzo, Comunità territoriale della Val di Fiemme, Provincia di Trento, Trentino-Alto Adige/Südtirol, 38037, Italia",\N,46.3057264,11.5971248,region_55
gas_51,"Stazione di servizio GNP - Castelnuovo, Strada Statale 47 della Valsugana, Perozzi, Spagolle, Castelnuovo, Comunità Valsugana e Tesino, Provincia di Trento, Trentino-Alto Adige/Südtirol, 38050, Italia",Stazione di servizio GNP - Castelnuovo,46.0490555,11.4752656,region_18
