id,address,Name,Latitude,Longitude,landform_type,city
landf_1,"Piazzetta Bernardo Clesio, Pez, Maiano, Cles, Comunità della Val di Non, Provincia di Trento, Trentino-Alto Adige/Südtirol, 38023, Italia",Lago di Santa Giustina,46.36216108,11.05342464,lake,region_30
landf_2,"Strada Statale 47 della Valsugana, Tenna, Comunità Alta Valsugana e Bersntol, Provincia di Trento, Trentino-Alto Adige/Südtirol, 38052, Italia",Lago di Caldonazzo,46.01519782,11.24999006,lake,region_73
landf_3,"Lago di Levico, Località al Lago, Levico Terme, Comunità Alta Valsugana e Bersntol, Provincia di Trento, Trentino-Alto Adige/Südtirol, 38056, Italia",Lago di Levico,46.01627742,11.27495386,lake,region_34
landf_4,"Sentiero giro del lago, Molveno, Comunità della Paganella, Provincia di Trento, Trentino-Alto Adige/Südtirol, 38018, Italia",Lado di Molveno,46.12064118,10.95812426,lake,region_42
landf_5,"Castel Toblino, SS45bis, Sarche, Madruzzo, Comunità della Valle dei Laghi, Provincia di Trento, Trentino-Alto Adige/Südtirol, 30876, Italia",Lago di Toblino,46.05194775,10.9652773,lake,region_113
landf_6,"Via Lungo Lago, Trebi, Cavedine, Comunità della Valle dei Laghi, Provincia di Trento, Trentino-Alto Adige/Südtirol, 38073, Italia",Lago di Cavedine,45.99610564,10.94581687,lake,region_95
landf_7,"Via Lungolago, Mezzolago, Ledro, Comunità Alto Garda e Ledro, Provincia di Trento, Trentino-Alto Adige/Südtirol, 38067, Italia",Lago di Ledro ,45.87753713,10.75145444,lake,region_31
landf_8,"Punta Calcarole, Nago-Torbole, Comunità Alto Garda e Ledro, Provincia di Trento, Trentino-Alto Adige/Südtirol, 38069, Italia",Lago di Garda,45.84114685,10.84769665,lake,region_40
landf_9,"Sentiero Belvedere (chiuso), Ville d'Anaunia, Comunità della Val di Non, Provincia di Trento, Trentino-Alto Adige/Südtirol, Italia",Lago di Tovel,46.2604,10.9489,lake,region_163
landf_10,"Via Lungolago, Pissol, Canzolino, Pergine Valsugana, Comunità Alta Valsugana e Bersntol, Provincia di Trento, Trentino-Alto Adige/Südtirol, 38057, Italia",Lago di Canzolino,46.083,11.226,lake,region_125
landf_11,"Via al Lago di Terlago, Terlago, Vallelaghi, Comunità della Valle dei Laghi, Provincia di Trento, Trentino-Alto Adige/Südtirol, 38096, Italia",Lago de Terlago,46.0989,11.0555,lake,region_159
landf_12,"Vicolo del Palazzo, Santa Massenza, Padergnone, Vallelaghi, Comunità della Valle dei Laghi, Provincia di Trento, Trentino-Alto Adige/Südtirol, 38096, Italia",Lago di Santa Massenza,46.0655,10.9833,lake,region_159
landf_13,"15, Lago di Céi, Villa Lagarina, Comunità della Vallagarina, Provincia di Trento, Trentino-Alto Adige/Südtirol, 38060, Italia",Lago di Cei,45.9509,11.0202,lake,region_162
landf_14,"Albergo Lago Santa Colomba, Strada per Santa Colomba, Sant'Agnese, Civezzano, Comunità Alta Valsugana e Bersntol, Provincia di Trento, Trentino-Alto Adige/Südtirol, 38045, Italia",Lago Santa Colomba,46.1244,11.1807,lake,region_99
landf_15,"Via Coste de Lagol, Lagolo, Madruzzo, Comunità della Valle dei Laghi, Provincia di Trento, Trentino-Alto Adige/Südtirol, 38076, Italia",Lago di Lagolo,46.0401,11.006,lake,region_113
landf_16,"Sentiero Lago Lases, Lases, Lona-Lases, Comunità della Valle di Cembra, Provincia di Trento, Trentino-Alto Adige/Südtirol, 38040, Italia",Lago di Lases,46.1391,11.2213,lake,region_118
landf_17,"Località Némbia, San Lorenzo Dorsino, Comunità delle Giudicarie, Provincia di Trento, Trentino-Alto Adige/Südtirol, 38070, Italia",Lago di Nembia,46.0972,10.9331,lake,region_59
landf_18,"Abisso di Lamar, Strada dei Laghi di Lamar, Vallelaghi, Comunità della Valle dei Laghi, Provincia di Trento, Trentino-Alto Adige/Südtirol, 38015, Italia",Lago di Lamar,46.1304,11.0636,lake,region_159
landf_19,"Antro a SSE di Sant' Antonio, Strada forestale Driosilana, Pieve Tesino, ComunitÃ  Valsugana e Tesino, Provincia di Trento, Trentino-Alto Adige/SÃ¼dtirol, 38050, Italia",Antro a SSE di Sant Antonio,46.0934588,11.6150319,cave,region_53
landf_20,"Buco del Fango, Strada forestale Luisierne, Masi dei Mioli, Maso dei Taviani, Pieve Tesino, ComunitÃ  Valsugana e Tesino, Provincia di Trento, Trentino-Alto Adige/SÃ¼dtirol, 38050, Italia",Buco del Fango,46.0801229,11.5926849,cave,region_53
landf_21,"Buco del Pal, Strada forestale Giogomalo, Grigno, ComunitÃ  Valsugana e Tesino, Provincia di Trento, Trentino-Alto Adige/SÃ¼dtirol, Italia",Buco del Pal,45.9873309,11.5909969,cave,region_36
landf_22,"Bus de l' Acqua, Strada forestale PrapezzÃ¨, Castello Tesino, ComunitÃ  Valsugana e Tesino, Provincia di Trento, Trentino-Alto Adige/SÃ¼dtirol, Italia",Bus de l Acqua,46.087753,11.6811786,cave,region_17
landf_23,"Caverna 2 di Malga Valfontane, Strada forestale Val Fontane, Castello Tesino, ComunitÃ  Valsugana e Tesino, Provincia di Trento, Trentino-Alto Adige/SÃ¼dtirol, 38053, Italia",Caverna 2 di Malga Valfontane,46.1048373,11.6684993,cave,region_17
landf_24,"Caverna dei ciclopi, Strada forestale Val Caora Bassa, Cinte Tesino, ComunitÃ  Valsugana e Tesino, Provincia di Trento, Trentino-Alto Adige/SÃ¼dtirol, Italia",Caverna dei ciclopi,46.1199366,11.722501,cave,region_98
landf_25,"Caverna dei Pastori, Traccia Sentiero Cima Agaro - Magri, Castello Tesino, ComunitÃ  Valsugana e Tesino, Provincia di Trento, Trentino-Alto Adige/SÃ¼dtirol, 38053, Italia",Caverna dei Pastori,46.0903937,11.6568324,cave,region_17
landf_26,"Caverna del fiume scomparso, Strada forestale Val Caora Bassa, Cinte Tesino, ComunitÃ  Valsugana e Tesino, Provincia di Trento, Trentino-Alto Adige/SÃ¼dtirol, Italia",Caverna del fiume scomparso,46.1204231,11.7209719,cave,region_98
landf_27,"Caverna sentinella 1, Strada forestale Val Caora Bassa, Cinte Tesino, ComunitÃ  Valsugana e Tesino, Provincia di Trento, Trentino-Alto Adige/SÃ¼dtirol, Italia",Caverna sentinella 1,46.1204265,11.7227193,cave,region_98
landf_28,"Caverna sentinella 2ï¿½, Strada forestale Val Caora Bassa, Cinte Tesino, ComunitÃ  Valsugana e Tesino, Provincia di Trento, Trentino-Alto Adige/SÃ¼dtirol, Italia",Caverna sentinella 2 ,46.1204175,11.7227189,cave,region_98
landf_29,"Caverna sentinella 3, Strada forestale Val Caora Bassa, Cinte Tesino, ComunitÃ  Valsugana e Tesino, Provincia di Trento, Trentino-Alto Adige/SÃ¼dtirol, Italia",Caverna sentinella 3,46.1202932,11.722648,cave,region_98
landf_30,"Cavernetta sotto Pozzo Lares, Strada forestale Val Fontane, Castello Tesino, ComunitÃ  Valsugana e Tesino, Provincia di Trento, Trentino-Alto Adige/SÃ¼dtirol, 38053, Italia",Cavernetta sotto Pozzo Lares,46.0999517,11.6622601,cave,region_17
landf_31,"Coalo de la Taiarona, Via per Petretto, Ospedaletto, ComunitÃ  Valsugana e Tesino, Provincia di Trento, Trentino-Alto Adige/SÃ¼dtirol, Italia",Coalo de la Taiarona,46.0154788,11.5618708,cave,region_126
landf_32,"Coalo del BracalgiÃ²n, Via per Petretto, Ospedaletto, ComunitÃ  Valsugana e Tesino, Provincia di Trento, Trentino-Alto Adige/SÃ¼dtirol, Italia",Coalo del Bracalgion,46.01512,11.5618155,cave,region_126
landf_33,"Coalo della polveriera, LocalitÃ  Selva, Ospedaletto, ComunitÃ  Valsugana e Tesino, Provincia di Trento, Trentino-Alto Adige/SÃ¼dtirol, Italia",Coalo della polveriera,46.0201094,11.5784912,cave,region_126
landf_34,"Coalo sotto il Pozzo della Singala, Strada forestale Giogomalo, Grigno, ComunitÃ  Valsugana e Tesino, Provincia di Trento, Trentino-Alto Adige/SÃ¼dtirol, Italia",Coalo sotto il Pozzo della Singala,46.0048385,11.588089,cave,region_36
landf_35,"Cogolo dei Agnei, Via per Petretto, Roncade, Ospedaletto, ComunitÃ  Valsugana e Tesino, Provincia di Trento, Trentino-Alto Adige/SÃ¼dtirol, 38059, Italia",Cogolo dei Agnei,46.0240068,11.5576525,cave,region_126
landf_36,"Covolo del Vento, Strada della Marcesina - Die Barricata StraÃŸe, Grigno, ComunitÃ  Valsugana e Tesino, Provincia di Trento, Trentino-Alto Adige/SÃ¼dtirol, 38055, Italia",Covolo del Vento,46.0041255,11.6084148,cave,region_36
landf_37,"Covolo della Tomba, Strada della Marcesina, Grigno, ComunitÃ  Valsugana e Tesino, Provincia di Trento, Trentino-Alto Adige/SÃ¼dtirol, 38055, Italia",Covolo della Tomba,46.004,11.6059965,cave,region_36
landf_38,"Covolo delle Balze, Strada forestale Giogomalo, Grigno, ComunitÃ  Valsugana e Tesino, Provincia di Trento, Trentino-Alto Adige/SÃ¼dtirol, Italia",Covolo delle Balze,46.0053936,11.5850409,cave,region_36
landf_39,"Crepa del Colon, Via per Petretto, Ospedaletto, ComunitÃ  Valsugana e Tesino, Provincia di Trento, Trentino-Alto Adige/SÃ¼dtirol, Italia",Crepa del Colon,46.0201159,11.560987,cave,region_126
landf_40,"el Coglolo dei Ortesini/di Kuvl vÃ³n LÃ©hr-HÃ³vl, Tetsch - Via Tezze, Tetsch - Tezze, LusÃ©rn - Luserna, Magnifica ComunitÃ  degli Altipiani Cimbri, Provincia di Trento, Trentino-Alto Adige/SÃ¼dtirol, Italia",el Coglolo dei Ortesini di Kuvl ,45.9174675,11.3170425,cave,region_117
landf_41,"Grotta 1 dei Briganti, Strada forestale Giogomalo, Grigno, ComunitÃ  Valsugana e Tesino, Provincia di Trento, Trentino-Alto Adige/SÃ¼dtirol, Italia",Grotta 1 dei Briganti,45.9923717,11.6015017,cave,region_36
landf_42,"Grotta 1 delle Beccarie, Strada della Marcesina - Die Barricata StraÃŸe, Grigno, ComunitÃ  Valsugana e Tesino, Provincia di Trento, Trentino-Alto Adige/SÃ¼dtirol, 38055, Italia",Grotta 1 delle Beccarie,46.0047244,11.6077734,cave,region_36
landf_43,"Grotta 1 delle Pale Rosse, Strada forestale Tonarezza di Sotto, Cinte Tesino, ComunitÃ  Valsugana e Tesino, Provincia di Trento, Trentino-Alto Adige/SÃ¼dtirol, Italia",Grotta 1 delle Pale Rosse,46.118584,11.7263818,cave,region_98
landf_44,"Grotta 1 delle sabbie, Strada forestale Albarea bassa, Lissa, Pieve Tesino, ComunitÃ  Valsugana e Tesino, Provincia di Trento, Trentino-Alto Adige/SÃ¼dtirol, 38053, Italia",Grotta 1 delle sabbie,46.0792814,11.6212729,cave,region_53
landf_45,"Grotta 2 dei Briganti, Strada forestale Giogomalo, Grigno, ComunitÃ  Valsugana e Tesino, Provincia di Trento, Trentino-Alto Adige/SÃ¼dtirol, Italia",Grotta 2 dei Briganti,45.9923382,11.60155,cave,region_36
landf_46,"Grotta 2 delle Beccarie, Strada della Marcesina - Die Barricata StraÃŸe, Grigno, ComunitÃ  Valsugana e Tesino, Provincia di Trento, Trentino-Alto Adige/SÃ¼dtirol, 38055, Italia",Grotta 2 delle Beccarie,46.0047243,11.6077737,cave,region_36
landf_47,"Grotta 2 delle sabbie, Strada forestale Albarea bassa, Lissa, Pieve Tesino, ComunitÃ  Valsugana e Tesino, Provincia di Trento, Trentino-Alto Adige/SÃ¼dtirol, 38053, Italia",Grotta 2 delle sabbie,46.0792562,11.6211941,cave,region_53
landf_48,"Grotta a Est di Malga Valfontane, Strada forestale Val Fontane, Castello Tesino, ComunitÃ  Valsugana e Tesino, Provincia di Trento, Trentino-Alto Adige/SÃ¼dtirol, 38053, Italia",Grotta a Est di Malga Valfontane,46.1048374,11.6684958,cave,region_17
landf_49,"Grotta a Sud di Malga Zanca, Strada forestale Tonarezza di Sopra, Cinte Tesino, ComunitÃ  Valsugana e Tesino, Provincia di Trento, Trentino-Alto Adige/SÃ¼dtirol, Italia",Grotta a Sud di Malga Zanca,46.1117755,11.6915587,cave,region_98
landf_50,"Grotta dei Camosci, Strada della Marcesina - Die Barricata StraÃŸe, Selva di Grigno, Grigno, ComunitÃ  Valsugana e Tesino, Provincia di Trento, Trentino-Alto Adige/SÃ¼dtirol, 38055, Italia",Grotta dei Camosci,46.0095685,11.5896134,cave,region_36
landf_51,"Grotta dei Due Ingressi, Strada forestale Giogomalo, Grigno, ComunitÃ  Valsugana e Tesino, Provincia di Trento, Trentino-Alto Adige/SÃ¼dtirol, Italia",Grotta dei Due Ingressi,46.0056723,11.5854543,cave,region_36
landf_52,"Grotta dei Soeri, Strada della Marcesina - Die Barricata StraÃŸe, Grigno, ComunitÃ  Valsugana e Tesino, Provincia di Trento, Trentino-Alto Adige/SÃ¼dtirol, 38055, Italia",Grotta dei Soeri,46.0073382,11.6115525,cave,region_36
landf_53,"Grotta del Calgeron, Sentiero grotte Calgeron, Grigno, ComunitÃ  Valsugana e Tesino, Provincia di Trento, Trentino-Alto Adige/SÃ¼dtirol, 38055, Italia",Grotta del Calgeron,46.0074146,11.6192771,cave,region_36
landf_54,"Grotta del Colo, sentiero per Grotta del Colo, Pieve Tesino, ComunitÃ  Valsugana e Tesino, Provincia di Trento, Trentino-Alto Adige/SÃ¼dtirol, 38053, Italia",Grotta del Colo,46.0893491,11.6150992,cave,region_53
landf_55,"Grotta del Corvo, Via Pertega, Grigno, ComunitÃ  Valsugana e Tesino, Provincia di Trento, Trentino-Alto Adige/SÃ¼dtirol, 38055, Italia",Grotta del Corvo,46.0088652,11.6171894,cave,region_36
landf_56,"Grotta del Muschio, Strada forestale Giogomalo, Grigno, ComunitÃ  Valsugana e Tesino, Provincia di Trento, Trentino-Alto Adige/SÃ¼dtirol, Italia",Grotta del Muschio,46.0053932,11.5854542,cave,region_36
landf_57,"Grotta del Salto, Via Pertega, Grigno, ComunitÃ  Valsugana e Tesino, Provincia di Trento, Trentino-Alto Adige/SÃ¼dtirol, 38055, Italia",Grotta del Salto,46.0086712,11.6178003,cave,region_36
landf_58,"Grotta del Soffio, Strada della Marcesina - Die Barricata StraÃŸe, Selva di Grigno, Grigno, ComunitÃ  Valsugana e Tesino, Provincia di Trento, Trentino-Alto Adige/SÃ¼dtirol, 38055, Italia",Grotta del Soffio,46.0063165,11.5944989,cave,region_36
landf_59,"Grotta dell' Asenaro, Strada forestale Albarea bassa, Lissa, Pieve Tesino, ComunitÃ  Valsugana e Tesino, Provincia di Trento, Trentino-Alto Adige/SÃ¼dtirol, 38053, Italia",Grotta dell Asenaro,46.0776146,11.6209918,cave,region_53
landf_60,"Grotta dell' Orso, Strada forestale Giogomalo, Grigno, ComunitÃ  Valsugana e Tesino, Provincia di Trento, Trentino-Alto Adige/SÃ¼dtirol, Italia",Grotta dell Orso,46.0063111,11.5862591,cave,region_36
landf_61,"Grotta della Bigonda, Strada della Marcesina - Die Barricata StraÃŸe, Ospedaletto, ComunitÃ  Valsugana e Tesino, Provincia di Trento, Trentino-Alto Adige/SÃ¼dtirol, Italia",Grotta della Bigonda,46.0181626,11.5809973,cave,region_126
landf_62,"Grotta della Fosca, Strada forestale Vallunga, Cinte Tesino, ComunitÃ  Valsugana e Tesino, Provincia di Trento, Trentino-Alto Adige/SÃ¼dtirol, Italia",Grotta della Fosca,46.1340042,11.726276,cave,region_98
landf_63,"Grotta della Porta, Strada forestale Giogomalo, Grigno, ComunitÃ  Valsugana e Tesino, Provincia di Trento, Trentino-Alto Adige/SÃ¼dtirol, Italia",Grotta della Porta,46.0042871,11.5901815,cave,region_36
landf_64,"Grotta della Volpe, Strada forestale Vallunga, Cinte Tesino, ComunitÃ  Valsugana e Tesino, Provincia di Trento, Trentino-Alto Adige/SÃ¼dtirol, Italia",Grotta della Volpe,46.1339999,11.7268325,cave,region_98
landf_65,"Grotta delle Taie, Strada della Bigonda, Ospedaletto, ComunitÃ  Valsugana e Tesino, Provincia di Trento, Trentino-Alto Adige/SÃ¼dtirol, Italia",Grotta delle Taie,46.0160877,11.5668209,cave,region_126
landf_66,"Grotta dello Sbircio, Strada forestale Giogomalo, Grigno, ComunitÃ  Valsugana e Tesino, Provincia di Trento, Trentino-Alto Adige/SÃ¼dtirol, Italia",Grotta dello Sbircio,46.0053976,11.5868494,cave,region_36
landf_67,"Grotta di Castel Tesino, Strada forestale PrapezzÃ¨, Castello Tesino, ComunitÃ  Valsugana e Tesino, Provincia di Trento, Trentino-Alto Adige/SÃ¼dtirol, Italia",Grotta di Castel Tesino,46.0885855,11.6814614,cave,region_17
landf_68,"Grotta di Ernesto, Strada forestale Val d'Antenne, Case Celeste, Tezze Valsugana, Grigno, ComunitÃ  Valsugana e Tesino, Provincia di Trento, Trentino-Alto Adige/SÃ¼dtirol, 38055, Italia",Grotta di Ernesto,45.9781115,11.6563377,cave,region_36
landf_69,"Grotta di Gange, sentiero per Grotta del Colo, Pieve Tesino, ComunitÃ  Valsugana e Tesino, Provincia di Trento, Trentino-Alto Adige/SÃ¼dtirol, 38053, Italia",Grotta di Gange,46.088176,11.6136137,cave,region_53
landf_70,"Grotta di Lissa, Sentiero di Passugola, Lissa, Castello Tesino, ComunitÃ  Valsugana e Tesino, Provincia di Trento, Trentino-Alto Adige/SÃ¼dtirol, 38053, Italia",Grotta di Lissa,46.0752538,11.6298901,cave,region_17
landf_71,"Grotticella alla Casera Spessa, SP79, Castello Tesino, ComunitÃ  Valsugana e Tesino, Provincia di Trento, Trentino-Alto Adige/SÃ¼dtirol, Italia",Grotticella alla Casera Spessa,46.1290196,11.6935898,cave,region_17
landf_72,"Miniera dell'Aubis, Hosler, MitterpÃ¨rg - San Felice, Fierozzo - Vlarotz, ComunitÃ  Alta Valsugana e Bersntol, Provincia di Trento, Trentino-Alto Adige/SÃ¼dtirol, Italia",Miniera dellAubis,46.1119712,11.3132041,cave,region_108
landf_73,"Postazione Austriaca 1915/1918, Mulattiera militare, FiorÃ©, Baselga di PinÃ©, ComunitÃ  Alta Valsugana e Bersntol, Provincia di Trento, Trentino-Alto Adige/SÃ¼dtirol, 38042, Italia",Postazione Austriaca 1915 1918,46.1162799,11.2767013,cave,region_5
landf_74,"Pozzo Alessandro, Strada forestale Giogomalo, Grigno, ComunitÃ  Valsugana e Tesino, Provincia di Trento, Trentino-Alto Adige/SÃ¼dtirol, Italia",Pozzo Alessandro,45.9874651,11.5997844,cave,region_36
landf_75,"Pozzo dei Caprioli, Strada forestale Costalta Valvacchetta, Grigno, ComunitÃ  Valsugana e Tesino, Provincia di Trento, Trentino-Alto Adige/SÃ¼dtirol, 38055, Italia",Pozzo dei Caprioli,45.9995587,11.6097407,cave,region_36
landf_76,"Pozzo dei Cinque, Strada forestale Giogomalo, Grigno, ComunitÃ  Valsugana e Tesino, Provincia di Trento, Trentino-Alto Adige/SÃ¼dtirol, Italia",Pozzo dei Cinque,45.9906656,11.586827,cave,region_36
landf_77,"Pozzo del dragone, Strada forestale Val Fontane, Castello Tesino, ComunitÃ  Valsugana e Tesino, Provincia di Trento, Trentino-Alto Adige/SÃ¼dtirol, 38053, Italia",Pozzo del dragone,46.099319,11.6654641,cave,region_17
landf_78,"Pozzo della Saetta, Strada forestale Giogomalo, Grigno, ComunitÃ  Valsugana e Tesino, Provincia di Trento, Trentino-Alto Adige/SÃ¼dtirol, Italia",Pozzo della Saetta,46.0063131,11.582591,cave,region_36
landf_79,"Pozzo della Scura, Strada forestale Laghetti, Grigno, ComunitÃ  Valsugana e Tesino, Provincia di Trento, Trentino-Alto Adige/SÃ¼dtirol, Italia",Pozzo della Scura,45.9817768,11.5918221,cave,region_36
landf_80,"Pozzo della Singala, Strada forestale Giogomalo, Grigno, ComunitÃ  Valsugana e Tesino, Provincia di Trento, Trentino-Alto Adige/SÃ¼dtirol, Italia",Pozzo della Singala,46.004733,11.5879808,cave,region_36
landf_81,"Pozzo dello sciamano, Strada forestale Costalta Valvacchetta, Grigno, ComunitÃ  Valsugana e Tesino, Provincia di Trento, Trentino-Alto Adige/SÃ¼dtirol, 38055, Italia",Pozzo dello sciamano,45.9981143,11.6055919,cave,region_36
landf_82,"Pozzo Dogomale, Strada forestale Giogomalo, Grigno, ComunitÃ  Valsugana e Tesino, Provincia di Trento, Trentino-Alto Adige/SÃ¼dtirol, Italia",Pozzo Dogomale,46.0008889,11.5940213,cave,region_36
landf_83,"Pozzo Lares, Strada forestale Val Fontane, Castello Tesino, ComunitÃ  Valsugana e Tesino, Provincia di Trento, Trentino-Alto Adige/SÃ¼dtirol, 38053, Italia",Pozzo Lares,46.1000236,11.6622636,cave,region_17
landf_84,"Pozzo Nicola, Strada forestale Giogomalo, Grigno, ComunitÃ  Valsugana e Tesino, Provincia di Trento, Trentino-Alto Adige/SÃ¼dtirol, Italia",Pozzo Nicola,46.0056058,11.579946,cave,region_36
landf_85,"Riparo Dalmeri, Strada forestale Giogomalo, Grigno, ComunitÃ  Valsugana e Tesino, Provincia di Trento, Trentino-Alto Adige/SÃ¼dtirol, 38055, Italia",Riparo Dalmeri,45.9951297,11.6016642,cave,region_36
landf_86,"Risorgiva di Val Noana, Val Caora, Imer, ComunitÃ  di Primiero, Provincia di Trento, Trentino-Alto Adige/SÃ¼dtirol, Italia",Risorgiva di Val Noana,46.1306614,11.8131647,cave,region_35
landf_87,"Sorgente di Malga Arpaco, Strada forestale Tonarezza di Sopra, Cinte Tesino, ComunitÃ  Valsugana e Tesino, Provincia di Trento, Trentino-Alto Adige/SÃ¼dtirol, Italia",Sorgente di Malga Arpaco,46.1116924,11.6988921,cave,region_98
landf_88,"Sorgente Ferrugginosa, Strada Forestale ""Costalta"", Fovo alto, Rizzolaga, Baselga di PinÃ©, ComunitÃ  Alta Valsugana e Bersntol, Provincia di Trento, Trentino-Alto Adige/SÃ¼dtirol, 38042, Italia",Sorgente Ferrugginosa,46.1300562,11.2764748,cave,region_5
landf_89,"Stoli, Via Di Sopra, Mezzano, ComunitÃ  di Primiero, Provincia di Trento, Trentino-Alto Adige/SÃ¼dtirol, 38054, Italia",Stoli,46.1557093,11.8038808,cave,region_116
landf_90,"Stoli, Via Di Sopra, Mezzano, ComunitÃ  di Primiero, Provincia di Trento, Trentino-Alto Adige/SÃ¼dtirol, 38054, Italia",Stoli,46.1558973,11.8045149,cave,region_116
landf_91,"Tana trifoglio, Strada forestale Val Caora Bassa, Cinte Tesino, ComunitÃ  Valsugana e Tesino, Provincia di Trento, Trentino-Alto Adige/SÃ¼dtirol, Italia",Tana trifoglio,46.1198483,11.722432,cave,region_98
landf_92,"Uvada, Strada forestale Gorgantile, Castello Tesino, ComunitÃ  Valsugana e Tesino, Provincia di Trento, Trentino-Alto Adige/SÃ¼dtirol, 38053, Italia",Uvada,46.1065615,11.6613364,cave,region_17
landf_93,"traccia per Passo diavoli, Castello Tesino, Comunità Valsugana e Tesino, Provincia di Trento, Trentino-Alto Adige/Südtirol, Italia",Cima d'Asta,46.1766183,11.6052937,mountain,region_17
landf_94,"Forte Leone, Via Nazionale, Tezze Valsugana, Grigno, Comunità Valsugana e Tesino, Provincia di Trento, Trentino-Alto Adige/Südtirol, 38055, Italia",Cima Campo,45.9998035,11.6879398,mountain,region_36
landf_95,"9, Capriana, Comunità territoriale della Val di Fiemme, Provincia di Trento, Trentino-Alto Adige/Südtirol, 38030, Italia",Monte Corno - Trudner Horn,46.2898752,11.3238241,mountain,region_20
landf_96,"Strada forestale Prà della Castellana, Cinte Tesino, Comunità Valsugana e Tesino, Provincia di Trento, Trentino-Alto Adige/Südtirol, 38053, Italia",Monte Mezza,46.0455556,11.5816667,mountain,region_98
landf_97,"Monte Totoga, Sentiero Gaetano Moretta, Gobbera, Canal San Bovo, Comunità di Primiero, Provincia di Trento, Trentino-Alto Adige/Südtirol, Italia",Monte Totoga,46.135559,11.7492946,mountain,region_88
landf_98,"Troso dele Spiase (E518), Tesero, Comunità territoriale della Val di Fiemme, Provincia di Trento, Trentino-Alto Adige/Südtirol, 38038, Italia",Cornacci,46.3113226,11.5235816,mountain,region_156
landf_99,"Strada Provinciale del Passo del Manghen, Telve, Comunità Valsugana e Tesino, Provincia di Trento, Trentino-Alto Adige/Südtirol, Italia",Ziolera,46.171736,11.4554569,mountain,region_72
landf_100,"al lago del Forame, Cavalese, Comunità territoriale della Val di Fiemme, Provincia di Trento, Trentino-Alto Adige/Südtirol, Italia",Cimon di Val Moena,46.220685,11.4792198,mountain,region_21
landf_101,"Bait de Mulat, Strada per Pragatai, Zaluna, Bellamonte, Predazzo, Comunità territoriale della Val di Fiemme, Provincia di Trento, Trentino-Alto Adige/Südtirol, 38037, Italia",La Sopösa,46.3251155,11.6219478,mountain,region_55
landf_102,"Pragatai, Zaluna, Predazzo, Comunità territoriale della Val di Fiemme, Provincia di Trento, Trentino-Alto Adige/Südtirol, 38037, Italia",Monte Mulat - Mül Grant,46.3270715,11.6326015,mountain,region_55
landf_103,"Alta Via di Viezena, Predazzo, Comunità territoriale della Val di Fiemme, Provincia di Trento, Trentino-Alto Adige/Südtirol, 38035, Italia",Viezzena - Viesena,46.3376652,11.6751093,mountain,region_55
landf_104,"Valbona, Moena, Comun General de Fascia, Provincia di Trento, Trentino-Alto Adige/Südtirol, 38035, Italia",Sas de Mezdì,46.3562573,11.6704242,mountain,region_47
landf_105,"Santana Weg-Nr574, Tesero, Comunità territoriale della Val di Fiemme, Provincia di Trento, Trentino-Alto Adige/Südtirol, Italia",Pala di Santa,46.3458524,11.5123106,mountain,region_156
landf_106,"Lapidi in memoria di giovani partigiani (I Piccoli Maestri), Strada forestale Brustolaè, Bislonghi, Castel Ivano, Comunità Valsugana e Tesino, Provincia di Trento, Trentino-Alto Adige/Südtirol, 38059, Italia",Cima Incudine,46.0120088,11.5487399,mountain,region_16
landf_107,"Sentiero forestale do Peniola, Moena, Comun General de Fascia, Provincia di Trento, Trentino-Alto Adige/Südtirol, 38035, Italia",Sas da Ciamp,46.37956,11.62491,mountain,region_47
landf_108,"515B, Predazzo, Comunità territoriale della Val di Fiemme, Provincia di Trento, Trentino-Alto Adige/Südtirol, 38037, Italia",La Forcella di Pelenzana,46.310669,11.571878,mountain,region_55
landf_109,"Sentiero per Cima delle Stellune, Cavalese, Comunità territoriale della Val di Fiemme, Provincia di Trento, Trentino-Alto Adige/Südtirol, Italia",Cima delle Stellune,46.1994171,11.5107524,mountain,region_21
landf_110,"mulattiera Grande Guerra, Ziano di Fiemme, Comunità territoriale della Val di Fiemme, Provincia di Trento, Trentino-Alto Adige/Südtirol, Italia",Pala del Cardinal,46.2439106,11.6018329,mountain,region_165
landf_111,"Cros de Costalta, Sentiero delle scalette, Baselga di Piné, Comunità Alta Valsugana e Bersntol, Provincia di Trento, Trentino-Alto Adige/Südtirol, 38042, Italia",Dosso di Costalta,46.1321025,11.2891682,mountain,region_5
landf_112,"Bivacco ANA ai Mangheneti, Strada Provinciale del Passo del Manghen, Telve, Comunità Valsugana e Tesino, Provincia di Trento, Trentino-Alto Adige/Südtirol, Italia",Cima Fornace,46.1647739,11.4192871,mountain,region_72
landf_113,"Bivacco ANA ai Mangheneti, Strada Provinciale del Passo del Manghen, Telve, Comunità Valsugana e Tesino, Provincia di Trento, Trentino-Alto Adige/Südtirol, Italia",Monte Cadino,46.1676536,11.4209121,mountain,region_72
landf_114,"2, Alpe Cermis, Cavalese, Comunità territoriale della Val di Fiemme, Provincia di Trento, Trentino-Alto Adige/Südtirol, Italia",Paion del Cermis,46.2413696,11.5035518,mountain,region_21
landf_115,"5a, Cavalese, Comunità territoriale della Val di Fiemme, Provincia di Trento, Trentino-Alto Adige/Südtirol, Italia",Cimon del To della Trappola,46.2315971,11.5005337,mountain,region_21
landf_116,"Tesero, Comunità territoriale della Val di Fiemme, Provincia di Trento, Trentino-Alto Adige/Südtirol, 38038, Italia",Cimon di Lasteolo,46.2168382,11.5446191,mountain,region_156
landf_117,"Busa del Castel, Ziano di Fiemme, Comunità territoriale della Val di Fiemme, Provincia di Trento, Trentino-Alto Adige/Südtirol, Italia",Cima Litegosa,46.2253087,11.558882,mountain,region_165
landf_118,"Busona di Val del Mattio, Baselga di Piné, Comunità Alta Valsugana e Bersntol, Provincia di Trento, Trentino-Alto Adige/Südtirol, Italia",Monte Ruioch,46.1540984,11.3635196,mountain,region_5
landf_119,"Via Ferrata dei Campanili del Latemar, Predazzo, Comunità territoriale della Val di Fiemme, Provincia di Trento, Trentino-Alto Adige/Südtirol, 39056, Italia",Cimon del Latemar - Diamantiditurm,46.3810697,11.5750434,mountain,region_55
landf_120,"Strada Forestale Val Cantieri, Cere, Telve, Comunità Valsugana e Tesino, Provincia di Trento, Trentino-Alto Adige/Südtirol, Italia",Monte Valpiana,46.1629253,11.480299,mountain,region_72
landf_121,"Sentiero Baraccamenti Baitol, Baselga di Piné, Comunità Alta Valsugana e Bersntol, Provincia di Trento, Trentino-Alto Adige/Südtirol, Italia",Baitol,46.1606082,11.3795719,mountain,region_5
landf_122,"Mulattiera militare, Fioré, Baselga di Piné, Comunità Alta Valsugana e Bersntol, Provincia di Trento, Trentino-Alto Adige/Südtirol, 38042, Italia",Dos dei Pini,46.1171378,11.2761491,mountain,region_5
landf_123,"Sostitutivo 404, Baselga di Piné, Comunità Alta Valsugana e Bersntol, Provincia di Trento, Trentino-Alto Adige/Südtirol, 38042, Italia",Cadinel bas,46.1262206,11.2865143,mountain,region_5
landf_124,"Strada del Croz de le Casele, Fovo alto, Baselga di Piné, Comunità Alta Valsugana e Bersntol, Provincia di Trento, Trentino-Alto Adige/Südtirol, 38042, Italia",Croz de le Casele,46.1315259,11.2723197,mountain,region_5
landf_125,"Campitello di Fassa - Ciampedel, Campitello di Fassa, Comun General de Fascia, Provincia di Trento, Trentino-Alto Adige/Südtirol, 38031, Italia",Punta Grohmann - Grohmannspitze,46.5106,11.732966,mountain,region_90
landf_126,"527, Campitello di Fassa, Comun General de Fascia, Provincia di Trento, Trentino-Alto Adige/Südtirol, 39040, Italia",Sasplat - Plattkofel - Sasso Piatto,46.5141348,11.7157706,mountain,region_90
landf_127,"Forte Vezzena, Strada Forestale Cima Vezzena, Levico Terme, Comunità Alta Valsugana e Bersntol, Provincia di Trento, Trentino-Alto Adige/Südtirol, 38056, Italia",Cima Vezzena,45.9790546,11.3426214,mountain,region_34
landf_128,"Strada forestale Cazalin, Borgo Valsugana, Comunità Valsugana e Tesino, Provincia di Trento, Trentino-Alto Adige/Südtirol, Italia",Cima Mandriolo,45.9842643,11.3771727,mountain,region_82
landf_129,"Bivacco Jellici, Sentiero militare del Grontòn, Moena, Comun General de Fascia, Provincia di Trento, Trentino-Alto Adige/Südtirol, 38035, Italia",Cima Bocche - Cimon de Boce,46.3542156,11.7527077,mountain,region_47
landf_130,"Cima Juribrutto, E628, Moena, Comun General de Fascia, Provincia di Trento, Trentino-Alto Adige/Südtirol, 38035, Italia",Cima Juribrutto - Gereburt,46.3594001,11.765161,mountain,region_47
landf_131,"Senter dei schiràti, Baselga di Piné, Comunità Alta Valsugana e Bersntol, Provincia di Trento, Trentino-Alto Adige/Südtirol, 38043, Italia",La Corda,46.1743388,11.355881,mountain,region_5
landf_132,"Strada forestale ""Fovo Alto 2"", Fovo alto, Baselga di Piné, Comunità Alta Valsugana e Bersntol, Provincia di Trento, Trentino-Alto Adige/Südtirol, 38042, Italia",I Dossi,46.1264522,11.2738416,mountain,region_5
landf_133,"Path from Passo Cadino to Malga Fornasa Alta, Valfloriana, Comunità territoriale della Val di Fiemme, Provincia di Trento, Trentino-Alto Adige/Südtirol, Italia",Monte Croce,46.1693463,11.3924897,mountain,region_5
landf_134,"Via San Giovanni Bosco, Checa, Brusago, Bedollo, Comunità Alta Valsugana e Bersntol, Provincia di Trento, Trentino-Alto Adige/Südtirol, 38043, Italia",Gać,46.1799217,11.3092621,mountain,region_6
landf_135,"Cogne sud, Lona-Lases, Comunità della Valle di Cembra, Provincia di Trento, Trentino-Alto Adige/Südtirol, Italia",Monte Cogne,46.1943544,11.3677123,mountain,region_118
landf_136,"Pale dal Sas, Valfloriana, Comunità territoriale della Val di Fiemme, Provincia di Trento, Trentino-Alto Adige/Südtirol, Italia",Cimon del Tres,46.2053277,11.3972251,mountain,region_154
landf_137,"Al Doss di Segonzano, Segonzano, Comunità della Valle di Cembra, Provincia di Trento, Trentino-Alto Adige/Südtirol, 38043, Italia",Dosso di Segonzano,46.1866385,11.2921819,mountain,region_144
landf_138,"Roge, Brusago, Bedollo, Comunità Alta Valsugana e Bersntol, Provincia di Trento, Trentino-Alto Adige/Südtirol, 38043, Italia",Dos dei Lovi,46.1822121,11.3331581,mountain,region_6
landf_139,"Strada forestale Piaie, Baldìss, Predazzo, Comunità territoriale della Val di Fiemme, Provincia di Trento, Trentino-Alto Adige/Südtirol, 38037, Italia",Malgola,46.301123,11.6236559,mountain,region_55
landf_140,"Strada di Malga Stramaiolo, Bedollo, Comunità Alta Valsugana e Bersntol, Provincia di Trento, Trentino-Alto Adige/Südtirol, 38043, Italia",Lemperperg,46.1457866,11.3375462,mountain,region_6
landf_141,"trincea, Roncegno Terme, Comunità Valsugana e Tesino, Provincia di Trento, Trentino-Alto Adige/Südtirol, Italia",Fravort,46.0760038,11.3511386,mountain,region_132
landf_142,"Sentiero Prima Guerra Mondiale, Frassilongo - Garait, Comunità Alta Valsugana e Bersntol, Provincia di Trento, Trentino-Alto Adige/Südtirol, Italia",Oscivart,46.0775693,11.3471098,mountain,region_107
landf_143,"Strada del Pian de la Casara, Levico Terme, Comunità Alta Valsugana e Bersntol, Provincia di Trento, Trentino-Alto Adige/Südtirol, 38056, Italia",Cima Panarotta,46.0500145,11.3344548,mountain,region_125
landf_144,"Piazzola - Marić, Campolongo, Baselga di Piné, Comunità Alta Valsugana e Bersntol, Provincia di Trento, Trentino-Alto Adige/Südtirol, 38043, Italia",Dos de la Piazzola,46.1405935,11.2842637,mountain,region_5
landf_145,"Capanna Punta Penia, Via Ferrata Marmolada Cresta Ovest, San Giovanni di Fassa - Sèn Jan, Comun General de Fascia, Provincia di Trento, Trentino-Alto Adige/Südtirol, Italia",Punta Penia,46.434526,11.8513263,mountain,region_64
landf_146,"Via Ferrata Col Rodella, Campitello di Fassa, Comun General de Fascia, Provincia di Trento, Trentino-Alto Adige/Südtirol, 38031, Italia",Col Rodela,46.4953446,11.7486236,mountain,region_90
landf_147,"Via dei Sgualdi, Vigalzano, Canzolino, Pergine Valsugana, Comunità Alta Valsugana e Bersntol, Provincia di Trento, Trentino-Alto Adige/Südtirol, 38057, Italia",Tessara,46.0786611,11.2315418,mountain,region_125
landf_148,"Belvedere Alto, Via Domenica Targa, Guarda, Canzolino, Pergine Valsugana, Comunità Alta Valsugana e Bersntol, Provincia di Trento, Trentino-Alto Adige/Südtirol, 38042, Italia",Belvedere,46.0898264,11.234489,mountain,region_125
landf_149,"mulattiera militare, Mas del Ghiga, Pergine Valsugana, Comunità Alta Valsugana e Bersntol, Provincia di Trento, Trentino-Alto Adige/Südtirol, 38042, Italia",Monte Calvo,46.1007524,11.2604791,mountain,region_125
landf_150,"Valon del Fos, Canazei, Comun General de Fascia, Provincia di Trento, Trentino-Alto Adige/Südtirol, 38032, Italia",Col Aut,46.5107642,11.81835,mountain,region_92
landf_151,"Caoria, Canal San Bovo, Comunità di Primiero, Provincia di Trento, Trentino-Alto Adige/Südtirol, Italia",Cima Spiadon,46.1833357,11.6497369,mountain,region_88
landf_152,"Località Cesure, Caoria Sperandii, Caoria, Canal San Bovo, Comunità di Primiero, Provincia di Trento, Trentino-Alto Adige/Südtirol, 38050, Italia",Cima di Mezzogiorno,46.1768434,11.67361,mountain,region_88
landf_153,"Panchina, trincea, Torcegno, Comunità Valsugana e Tesino, Provincia di Trento, Trentino-Alto Adige/Südtirol, Italia",Pizzo Alto,46.1054519,11.3757451,mountain,region_152
landf_154,"E706, San Martino di Castrozza, Primiero San Martino di Castrozza, Comunità di Primiero, Provincia di Trento, Trentino-Alto Adige/Südtirol, Italia",Cimon della Pala,46.2849069,11.8239713,mountain,region_52
landf_155,"Strada forestale Colaz, Imer, Comunità di Primiero, Provincia di Trento, Trentino-Alto Adige/Südtirol, Italia",Monte Vederna,46.129354,11.7884068,mountain,region_35
landf_156,"Via Italiana, Ziano di Fiemme, Comunità territoriale della Val di Fiemme, Provincia di Trento, Trentino-Alto Adige/Südtirol, Italia",Cauriol Piccolo,46.2351848,11.5891131,mountain,region_165
landf_157,"Caoria, Canal San Bovo, Comunità di Primiero, Provincia di Trento, Trentino-Alto Adige/Südtirol, Italia",Aia Tonda,46.1702025,11.6613752,mountain,region_88
landf_158,"Sentiero della Memoria, Castel Ivano, Comunità Valsugana e Tesino, Provincia di Trento, Trentino-Alto Adige/Südtirol, 38050, Italia",Tombolin di Caldenave,46.1215149,11.5438917,mountain,region_62
landf_159,"Giro de Solombo, Aguai, Carano, Ville di Fiemme, Comunità territoriale della Val di Fiemme, Provincia di Trento, Trentino-Alto Adige/Südtirol, 38099, Italia",Solombo,46.3030588,11.4163781,mountain,region_88
landf_160,"Sentiero Baraccamenti Baitol, Telve, Comunità Alta Valsugana e Bersntol, Provincia di Trento, Trentino-Alto Adige/Südtirol, Italia",Schliverai Spitz,46.1568166,11.3658752,mountain,region_72
landf_161,"Strada Val Venegia, San Martino di Castrozza, Primiero San Martino di Castrozza, Comunità di Primiero, Provincia di Trento, Trentino-Alto Adige/Südtirol, Italia",Monte Castellaz,46.3073186,11.7952973,mountain,region_52
landf_162,"Strada forestale Cinque Croci, Pieve Tesino, Comunità Valsugana e Tesino, Provincia di Trento, Trentino-Alto Adige/Südtirol, Italia",Col di San Giovanni,46.1800084,11.5463305,mountain,region_53
landf_163,"Strada Forestale Valpiana - Croce, Cere, Telve, Comunità Valsugana e Tesino, Provincia di Trento, Trentino-Alto Adige/Südtirol, Italia",Monte Setole,46.1539016,11.4898766,mountain,region_72
landf_164,"Strada forestale Masi alti - Coston, Castello-Molina di Fiemme, Comunità territoriale della Val di Fiemme, Provincia di Trento, Trentino-Alto Adige/Südtirol, Italia",Cima Inferno,46.2148419,11.4546558,mountain,region_15
landf_165,"Sette Laghi, Torcegno, Comunità Valsugana e Tesino, Provincia di Trento, Trentino-Alto Adige/Südtirol, Italia",Hoabonti,46.0937167,11.3739496,mountain,region_152
landf_166,"Crozo negro, Sette Laghi, Torcegno, Comunità Valsugana e Tesino, Provincia di Trento, Trentino-Alto Adige/Südtirol, Italia",Monte Cola,46.0934691,11.3868854,mountain,region_152
landf_167,"Forcella Cavallazza, 15, San Martino di Castrozza, Primiero San Martino di Castrozza, Comunità di Primiero, Provincia di Trento, Trentino-Alto Adige/Südtirol, Italia",Cavallazza,46.2787046,11.7767933,mountain,region_52
landf_168,"Lastei, Castello-Molina di Fiemme, Comunità territoriale della Val di Fiemme, Provincia di Trento, Trentino-Alto Adige/Südtirol, Italia",Cima delle Buse,46.185741,11.4980873,mountain,region_15
landf_169,"Paolati - Cogne ovest, Lona-Lases, Comunità della Valle di Cembra, Provincia di Trento, Trentino-Alto Adige/Südtirol, 38043, Italia",Monte Frattoni,46.2004122,11.3609047,mountain,region_118
landf_170,"Laghi di Rocco, Pieve Tesino, Comunità Valsugana e Tesino, Provincia di Trento, Trentino-Alto Adige/Südtirol, Italia",Cima Lagorai,46.2020718,11.5243368,mountain,region_53
landf_171,"Casal, Segonzano, Comunità della Valle di Cembra, Provincia di Trento, Trentino-Alto Adige/Südtirol, 38047, Italia",Venticcia,46.1976116,11.2610203,mountain,region_144
landf_172,"Traccia Sentiero Cima Agaro - Magri, Castello Tesino, Comunità Valsugana e Tesino, Provincia di Trento, Trentino-Alto Adige/Südtirol, 38053, Italia",Monte Agaro,46.0952518,11.6556704,mountain,region_17
landf_173,"Traccia Sentiero Lago Pisorno - Agnelessa, Canal San Bovo, Comunità di Primiero, Provincia di Trento, Trentino-Alto Adige/Südtirol, Italia",Cima Scanaiòl,46.2148405,11.7664607,mountain,region_88
landf_174,"Gamsband, Canazei, Comun General de Fascia, Provincia di Trento, Trentino-Alto Adige/Südtirol, 38032, Italia",3. Ciampanil dl Sela - 3. Sellaturm - III° Torre del Sella,46.5110867,11.7779629,mountain,region_92
landf_175,"Col Pelous - Alba, Mazzin, Comun General de Fascia, Provincia di Trento, Trentino-Alto Adige/Südtirol, 38032, Italia",Col Pelous,46.465145,11.7521439,mountain,region_90
landf_176,"677, Canazei, Comun General de Fascia, Provincia di Trento, Trentino-Alto Adige/Südtirol, 39048, Italia",Piz Rotic,46.5297611,11.8035543,mountain,region_92
landf_177,"Normalweg 1. Sellaturm, Canazei, Comun General de Fascia, Provincia di Trento, Trentino-Alto Adige/Südtirol, 38032, Italia",1. Ciampanil dl Sela - 1. Sellaturm - I° Torre del Sella,46.5093828,11.774633,mountain,region_92
landf_178,"Normalweg 1. Sellaturm, Canazei, Comun General de Fascia, Provincia di Trento, Trentino-Alto Adige/Südtirol, 38032, Italia",2. Ciampanil dl Sela - 2. Sellaturm - II° Torre del Sella,46.5099028,11.7759014,mountain,region_92
landf_179,"Normalweg 1. Sellaturm, Canazei, Comun General de Fascia, Provincia di Trento, Trentino-Alto Adige/Südtirol, 38032, Italia",Locomotiva - Lokomotive,46.50912,11.772745,mountain,region_92
landf_180,"Orsa Maggiore, 646, Canazei, Comun General de Fascia, Provincia di Trento, Trentino-Alto Adige/Südtirol, 38032, Italia",L'Aut,46.4408386,11.7566096,mountain,region_92
landf_181,"Passo Mirafiori - Pala delle Buse, Lona-Lases, Comunità della Valle di Cembra, Provincia di Trento, Trentino-Alto Adige/Südtirol, Italia",Pala delle Buse,46.1910349,11.3823127,mountain,region_118
landf_182,"Sentiero Baraccamenti Baitol, Telve, Comunità Valsugana e Tesino, Provincia di Trento, Trentino-Alto Adige/Südtirol, Italia",Monte Camin,46.1747374,11.3844023,mountain,region_72
landf_183,"Sentiero attrezzato ""Achille Gadler"", San Martino di Castrozza, Primiero San Martino di Castrozza, Comunità di Primiero, Provincia di Trento, Trentino-Alto Adige/Südtirol, Italia",Colbricon Ovest,46.272223,11.7512476,mountain,region_52
landf_184,"Pian Della Maddalena, Castello-Molina di Fiemme, Comunità territoriale della Val di Fiemme, Provincia di Trento, Trentino-Alto Adige/Südtirol, Italia",Mugon,46.1921,11.4888,mountain,region_15
landf_185,"Tresca, GeoTrail del Dos Capèl, Predazzo, Comunità territoriale della Val di Fiemme, Provincia di Trento, Trentino-Alto Adige/Südtirol, Italia",Monte Agnello - Cimòn de Tresca,46.3265403,11.5587785,mountain,region_55
landf_186,"Madonnina, Scala del Tombolin, Bieno, Comunità Valsugana e Tesino, Provincia di Trento, Trentino-Alto Adige/Südtirol, 38050, Italia",Cimon di Rava,46.1229185,11.5692768,mountain,region_7
landf_187,"Strada Provinciale 31 del Manghen, Castello-Molina di Fiemme, Comunità territoriale della Val di Fiemme, Provincia di Trento, Trentino-Alto Adige/Südtirol, Italia",Costa Onchieli,46.186833,11.4428679,mountain,region_15
landf_188,"517B, Predazzo, Comunità territoriale della Val di Fiemme, Provincia di Trento, Trentino-Alto Adige/Südtirol, 39056, Italia",Col Cornon,46.3835955,11.5885432,mountain,region_55
landf_189,"Strada Provinciale 31 del Manghen, Castello-Molina di Fiemme, Comunità territoriale della Val di Fiemme, Provincia di Trento, Trentino-Alto Adige/Südtirol, Italia",Monte Manghen,46.1753075,11.4435374,mountain,region_15
landf_190,"Iscrizione romana, Strada forestale Stue basse - Camini, Castello-Molina di Fiemme, Comunità territoriale della Val di Fiemme, Provincia di Trento, Trentino-Alto Adige/Südtirol, Italia",Pergol,46.1891873,11.4615828,mountain,region_15
landf_191,"Orti, Scurelle, Comunità Valsugana e Tesino, Provincia di Trento, Trentino-Alto Adige/Südtirol, 38050, Italia",Cima Caldenave,46.1258556,11.5558435,mountain,region_62
landf_192,"Ricovero Tenente Cecchin, Sentiero dei Laghi, Cinte Tesino, Comunità Valsugana e Tesino, Provincia di Trento, Trentino-Alto Adige/Südtirol, Italia",Cima Lasteati,46.161021,11.5682732,mountain,region_98
landf_193,"Percorso Trincee Prima Guerra Mondiale, Scurelle, Comunità Valsugana e Tesino, Provincia di Trento, Trentino-Alto Adige/Südtirol, 38050, Italia",Cima Brunella,46.1312205,11.5698721,mountain,region_62
landf_194,"Frisanchi, Altopiano della Vigolana, Comunità Alta Valsugana e Bersntol, Provincia di Trento, Trentino-Alto Adige/Südtirol, 38049, Italia",Dos Alt,45.9712868,11.2189937,mountain,region_15
landf_195,"Sentiero dei Laghi, Cinte Tesino, Comunità Valsugana e Tesino, Provincia di Trento, Trentino-Alto Adige/Südtirol, Italia",Cima Socede,46.1718667,11.5547229,mountain,region_98
landf_196,"Forcella Quarazza, Scala del Tombolin, Bieno, Comunità Valsugana e Tesino, Provincia di Trento, Trentino-Alto Adige/Südtirol, 38050, Italia",Cima Trento,46.1296596,11.5697335,mountain,region_7
landf_197,"Herta Miller Haus, Strada Forestale Val Cantieri, Cere, Telve, Comunità Valsugana e Tesino, Provincia di Trento, Trentino-Alto Adige/Südtirol, Italia",Cima del Bortolo,46.1596593,11.4738672,mountain,region_72
landf_198,"Strada di Malga Stramaiolo, Regnana, Centrale, Bedollo, Comunità Alta Valsugana e Bersntol, Provincia di Trento, Trentino-Alto Adige/Südtirol, 38043, Italia",Campidei,46.1628595,11.3291281,mountain,region_6
landf_199,"Percorso Trincee Prima Guerra Mondiale, Scurelle, Comunità Valsugana e Tesino, Provincia di Trento, Trentino-Alto Adige/Südtirol, 38050, Italia",Cima delle Buse Todesche,46.1430306,11.5658179,mountain,region_62
landf_200,"Percorso Trincee Prima Guerra Mondiale, Scurelle, Comunità Valsugana e Tesino, Provincia di Trento, Trentino-Alto Adige/Südtirol, 38050, Italia",Cima Orsera - Cimon di Val Orsera,46.1371778,11.5629996,mountain,region_62
landf_201,"Strada Forestale Tramenaga, Marolo, Telve, Comunità Valsugana e Tesino, Provincia di Trento, Trentino-Alto Adige/Südtirol, Italia",Col Tramenaga,46.1340351,11.4889809,mountain,region_72
landf_202,"Strada forestale Cinque Croci, Pieve Tesino, Comunità Valsugana e Tesino, Provincia di Trento, Trentino-Alto Adige/Südtirol, Italia",Col dei Fiori,46.193196,11.5359742,mountain,region_53
landf_203,"Strada Forestale Cinque Croci 2, Scurelle, Comunità Valsugana e Tesino, Provincia di Trento, Trentino-Alto Adige/Südtirol, Italia",Col della Palazzina,46.177734,11.5366136,mountain,region_62
landf_204,"Sentiero della Memoria, Scurelle, Comunità Valsugana e Tesino, Provincia di Trento, Trentino-Alto Adige/Südtirol, 38050, Italia",Croz di Primalunetta,46.1238028,11.5361529,mountain,region_62
landf_205,"Percorso Trincee Prima Guerra Mondiale, Pieve Tesino, Comunità Valsugana e Tesino, Provincia di Trento, Trentino-Alto Adige/Südtirol, 38050, Italia",Monte Cengello,46.1536955,11.5660211,mountain,region_53
landf_206,"Sentiero della Memoria, Scurelle, Comunità Valsugana e Tesino, Provincia di Trento, Trentino-Alto Adige/Südtirol, 38050, Italia",Monte Cenon,46.1260302,11.5290937,mountain,region_62
landf_207,"Strada forestale Regaise - Fagarolo, Castel Ivano, Comunità Valsugana e Tesino, Provincia di Trento, Trentino-Alto Adige/Südtirol, 38050, Italia",Monte Cima,46.104282,11.5295959,mountain,region_63
landf_208,"Masgerom, Pieve Tesino, Comunità Valsugana e Tesino, Provincia di Trento, Trentino-Alto Adige/Südtirol, Italia",Monte Montalon,46.1909191,11.5060823,mountain,region_53
landf_209,"Strada dei Tamagi, Gabana, Centrale, Bedollo, Comunità Alta Valsugana e Bersntol, Provincia di Trento, Trentino-Alto Adige/Südtirol, 38043, Italia",Dos dei Redi,46.1568861,11.3020884,mountain,region_6
landf_210,"Forcella Pala del Becco, Strada Forestale Valpiana - Croce, Telve, Comunità Valsugana e Tesino, Provincia di Trento, Trentino-Alto Adige/Südtirol, Italia",Pala del Becco,46.1815397,11.4794576,mountain,region_72
landf_211,"Via Ferrata dei Finanzieri, Canazei, Comun General de Fascia, Provincia di Trento, Trentino-Alto Adige/Südtirol, 38032, Italia",Monte Colac,46.4410262,11.782724,mountain,region_92
landf_212,"Sentiero per Busa Alta, Canal San Bovo, Comunità di Primiero, Provincia di Trento, Trentino-Alto Adige/Südtirol, Italia",Cima Busa Alta,46.2498788,11.6096295,mountain,region_88
landf_213,"646, Canazei, Comun General de Fascia, Provincia di Trento, Trentino-Alto Adige/Südtirol, 38032, Italia",Sas Porcel,46.435281,11.7579329,mountain,region_92
landf_214,"Via ferrata delle trincee, Canazei, Comun General de Fascia, Provincia di Trento, Trentino-Alto Adige/Südtirol, Italia",Mesolina,46.4650544,11.8869791,mountain,region_92
landf_215,"Strada del Careta, Maso Giamai, Caldonazzo, Comunità Alta Valsugana e Bersntol, Provincia di Trento, Trentino-Alto Adige/Südtirol, 38052, Italia",Tamazol,45.9708781,11.2592308,mountain,region_89
landf_216,"Strada forestale Strada del Van, Moena, Comun General de Fascia, Provincia di Trento, Trentino-Alto Adige/Südtirol, 38035, Italia",Piz Meda,46.3789381,11.690552,mountain,region_47
landf_217,"Via Ronchi, Steffenetti, Centrale, Bedollo, Comunità Alta Valsugana e Bersntol, Provincia di Trento, Trentino-Alto Adige/Südtirol, 38043, Italia",Cros del Cuc,46.1755789,11.306388,mountain,region_6
landf_218,"Strada forestale Buscapiana, Ronchi, Imer, Comunità di Primiero, Provincia di Trento, Trentino-Alto Adige/Südtirol, Italia",Cima Redasega,46.1642942,11.7806541,mountain,region_35
landf_219,"Strada di Malga Stramaiolo, Bedollo, Comunità Alta Valsugana e Bersntol, Provincia di Trento, Trentino-Alto Adige/Südtirol, 38043, Italia",Cima Pontara,46.1472075,11.3338857,mountain,region_6
landf_220,"Baracca ricostruita Grande Guerra, Strada forestale Vatrighetta - Cagnon, Telve, Comunità Valsugana e Tesino, Provincia di Trento, Trentino-Alto Adige/Südtirol, Italia",Cima di Palù,46.143583,11.386078,mountain,region_72
landf_221,"Traccia per Prati Imperiali, Fierozzo - Vlarotz, Comunità Alta Valsugana e Bersntol, Provincia di Trento, Trentino-Alto Adige/Südtirol, Italia",Monte Gronlait,46.0928879,11.3588461,mountain,region_108
landf_222,"Traccia per Prati Imperiali, Fierozzo - Vlarotz, Comunità Alta Valsugana e Bersntol, Provincia di Trento, Trentino-Alto Adige/Südtirol, Italia",Hoamut,46.0968033,11.3586452,mountain,region_108
landf_223,"Traccia per Prati Imperiali, Fierozzo - Vlarotz, Comunità Alta Valsugana e Bersntol, Provincia di Trento, Trentino-Alto Adige/Südtirol, Italia",Mut,46.1004514,11.3538447,mountain,region_108
landf_224,"502, Ville di Fiemme, Comunità territoriale della Val di Fiemme, Provincia di Trento, Trentino-Alto Adige/Südtirol, 38033, Italia",Il Palone,46.3330842,11.4493094,mountain,region_164
landf_225,"Sinter dei crozzi, Prada, Faida, Baselga di Piné, Comunità Alta Valsugana e Bersntol, Provincia di Trento, Trentino-Alto Adige/Südtirol, 38042, Italia",Dosso della Clinga,46.1130371,11.2442454,mountain,region_5
landf_226,"traccia non visibile, Borgo Valsugana, Comunità Valsugana e Tesino, Provincia di Trento, Trentino-Alto Adige/Südtirol, Italia",Monte Trentin,45.9891866,11.4574938,mountain,region_82
landf_227,"orto botanico - base tuono, Folgaria, Magnifica Comunità degli Altipiani Cimbri, Provincia di Trento, Trentino-Alto Adige/Südtirol, Italia",Monte Maronia,45.8705678,11.2124703,mountain,region_110
landf_228,"Sas fendù, Strada forestale ""Sas Bianch"", Mas del Plancher, Faida, Baselga di Piné, Comunità Alta Valsugana e Bersntol, Provincia di Trento, Trentino-Alto Adige/Südtirol, 38042, Italia",Dos dei Fonghi,46.1047734,11.2679476,mountain,region_5
landf_229,"strada forestale ""Mas dei Rossi"", Cà de l'Angiol, Faida, Baselga di Piné, Comunità Alta Valsugana e Bersntol, Provincia di Trento, Trentino-Alto Adige/Südtirol, 38042, Italia",Dos dei Rossi,46.1144038,11.2654054,mountain,region_5
landf_230,"Via del Covel, Prada, Faida, Baselga di Piné, Comunità Alta Valsugana e Bersntol, Provincia di Trento, Trentino-Alto Adige/Südtirol, 38042, Italia",Dos del sabion,46.1109012,11.2469767,mountain,region_5
landf_231,"strada forestale ""Terra Rossa"", Faida, Baselga di Piné, Comunità Alta Valsugana e Bersntol, Provincia di Trento, Trentino-Alto Adige/Südtirol, 38042, Italia",Dos de la Perina,46.1041017,11.2655219,mountain,region_5
landf_232,"Cava di Quarzo, Mas del Bertoldi, Faida, Baselga di Piné, Comunità Alta Valsugana e Bersntol, Provincia di Trento, Trentino-Alto Adige/Südtirol, 38042, Italia",Dos Alt,46.1003371,11.2476136,mountain,region_5
landf_233,"Via del Sas Bianch, Cà dei Beti, Faida, Baselga di Piné, Comunità Alta Valsugana e Bersntol, Provincia di Trento, Trentino-Alto Adige/Südtirol, 38042, Italia",Dos de l'Oselera,46.1161826,11.2597304,mountain,region_5
landf_234,"Pale dal Sas, Valfloriana, Comunità territoriale della Val di Fiemme, Provincia di Trento, Trentino-Alto Adige/Südtirol, Italia",Monte Fregasoga,46.1851424,11.3812603,mountain,region_118
landf_235,"Valon Bianch, Canazei, Comun General de Fascia, Provincia di Trento, Trentino-Alto Adige/Südtirol, 38032, Italia",Piz Miara,46.5236057,11.7954081,mountain,region_92
landf_236,"Strada forestale ""Sas Bianch"", Mas del Plancher, Faida, Baselga di Piné, Comunità Alta Valsugana e Bersntol, Provincia di Trento, Trentino-Alto Adige/Südtirol, 38042, Italia",Sas Bianch,46.11148,11.2660186,mountain,region_5
landf_237,"Cima di Cece, Predazzo, Comunità territoriale della Val di Fiemme, Provincia di Trento, Trentino-Alto Adige/Südtirol, Italia",Cima di Cece,46.2607604,11.6839946,mountain,region_55
landf_238,"Cava di Quarzo, Mas del Bertoldi, Faida, Baselga di Piné, Comunità Alta Valsugana e Bersntol, Provincia di Trento, Trentino-Alto Adige/Südtirol, 38042, Italia",Dos Entrà i Crozzi,46.1023851,11.2491481,mountain,region_5
landf_239,"409, Altavalle, Comunità della Valle di Cembra, Provincia di Trento, Trentino-Alto Adige/Südtirol, 38047, Italia",Cima Castion,46.2181695,11.2335932,mountain,region_100
landf_240,"Zava, Ischia, Pergine Valsugana, Comunità Alta Valsugana e Bersntol, Provincia di Trento, Trentino-Alto Adige/Südtirol, 38057, Italia",Monte Zava,46.0455087,11.2512801,mountain,region_125
landf_241,"Via degli Altipiani, Maso Michelini, Calceranica al Lago, Comunità Alta Valsugana e Bersntol, Provincia di Trento, Trentino-Alto Adige/Südtirol, 38049, Italia",Sommi,45.9883896,11.2435183,mountain,region_87
landf_242,"Strada forestale Cimone, Ivano-Fracena, Castel Ivano, Comunità Valsugana e Tesino, Provincia di Trento, Trentino-Alto Adige/Südtirol, 38059, Italia",Monte Lefre,46.0594287,11.5489095,mountain,region_16
landf_243,"SP138, Terragnolo, Comunità della Vallagarina, Provincia di Trento, Trentino-Alto Adige/Südtirol, Italia",Coston dei Laghi,45.8405862,11.2188887,mountain,region_74
landf_244,"Serauta, Canazei, Comun General de Fascia, Provincia di Trento, Trentino-Alto Adige/Südtirol, Italia",Quota 3153,46.433827,11.8734113,mountain,region_92
landf_245,"Monte Maggio, SP138, Terragnolo, Comunità della Vallagarina, Provincia di Trento, Trentino-Alto Adige/Südtirol, Italia",Monte Maggio,45.849049,11.221881,mountain,region_74
landf_246,"Strada Provinciale 71 Fersina - Avisio, Sottolona, Lases, Lona-Lases, Comunità della Valle di Cembra, Provincia di Trento, Trentino-Alto Adige/Südtirol, 38040, Italia",Casteleri,46.1554119,11.2263907,mountain,region_118
landf_247,"Strada Val Freda, Lases, Lona-Lases, Comunità della Valle di Cembra, Provincia di Trento, Trentino-Alto Adige/Südtirol, 38040, Italia",Castel,46.143784,11.2258889,mountain,region_118
landf_248,"Nå in tritt von Sambinélo - Sentiero dell'immaginario, Lusérn - Luserna, Magnifica Comunità degli Altipiani Cimbri, Provincia di Trento, Trentino-Alto Adige/Südtirol, 38040, Italia",Cima Norre,45.9086014,11.3462833,mountain,region_117
landf_249,"Ponte Rotto, Lusérn - Luserna, Magnifica Comunità degli Altipiani Cimbri, Provincia di Trento, Trentino-Alto Adige/Südtirol, Italia",Monte Costesin,45.9419242,11.3573235,mountain,region_117
landf_250,"Via Ferrata Laurenzi, Mazzin, Comun General de Fascia, Provincia di Trento, Trentino-Alto Adige/Südtirol, 38030, Italia",Croda dei Cirmei - Antermoiakogel,46.4817729,11.6479529,mountain,region_119
landf_251,"E706, San Martino di Castrozza, Primiero San Martino di Castrozza, Comunità di Primiero, Provincia di Trento, Trentino-Alto Adige/Südtirol, Italia",Cima Corona,46.2731502,11.8367461,mountain,region_52
landf_252,"Via Ferrata Laurenzi, Mazzin, Comun General de Fascia, Provincia di Trento, Trentino-Alto Adige/Südtirol, 38030, Italia",Molignon di Dentro,46.4830443,11.6505064,mountain,region_119
landf_253,"Passo Dona, Via Ferrata Laurenzi, Mazzin, Comun General de Fascia, Provincia di Trento, Trentino-Alto Adige/Südtirol, 38030, Italia",Mantel,46.4738663,11.6711047,mountain,region_119
landf_254,"DOLO Myths Run, Mazzin, Comun General de Fascia, Provincia di Trento, Trentino-Alto Adige/Südtirol, 38032, Italia",Crepa Neigra,46.4532674,11.7641369,mountain,region_119
landf_255,"Medel, Mazzin, Comun General de Fascia, Provincia di Trento, Trentino-Alto Adige/Südtirol, 38031, Italia",Col Bel,46.4479308,11.7359342,mountain,region_119
landf_256,"Strada forestale Buscapiana, Ronchi, Imer, Comunità di Primiero, Provincia di Trento, Trentino-Alto Adige/Südtirol, Italia",Cima Arinàs,46.1585271,11.7700803,mountain,region_35
landf_257,"per cima Paradisi, Canal San Bovo, Comunità di Primiero, Provincia di Trento, Trentino-Alto Adige/Südtirol, Italia",Cima dei Paradisi,46.2299924,11.6628301,mountain,region_88
landf_258,"Pian da le Gialine, Mazzin, Comun General de Fascia, Provincia di Trento, Trentino-Alto Adige/Südtirol, 38030, Italia",Polenton,46.4673328,11.6679028,mountain,region_119
landf_259,"Via Nova, Ponte dei Busi, Imer, Comunità di Primiero, Provincia di Trento, Trentino-Alto Adige/Südtirol, Italia",Pecolet,46.1470163,11.7735853,mountain,region_35
landf_260,"Via Ferrata Laurenzi, Mazzin, Comun General de Fascia, Provincia di Trento, Trentino-Alto Adige/Südtirol, Italia",Sas de Dona,46.4790067,11.6671095,mountain,region_119
landf_261,"Via Ferrata Laurenzi, Mazzin, Comun General de Fascia, Provincia di Trento, Trentino-Alto Adige/Südtirol, Italia",Croda del Lago,46.4811588,11.6604555,mountain,region_119
landf_262,"Fraina, Mazzin, Comun General de Fascia, Provincia di Trento, Trentino-Alto Adige/Südtirol, 38031, Italia",Taic,46.4524887,11.7473467,mountain,region_119
landf_263,"Forcella Folga, Traccia Sentiero Lago Pisorno - Agnelessa, Mezzano, Comunità di Primiero, Provincia di Trento, Trentino-Alto Adige/Südtirol, Italia",Cima Folga,46.1984584,11.7546848,mountain,region_116
landf_264,"Traccia Sentiero Lago Pisorno - Agnelessa, Mezzano, Comunità di Primiero, Provincia di Trento, Trentino-Alto Adige/Südtirol, Italia",Cima d'Arzòn,46.2065463,11.7603182,mountain,region_116
landf_265,"Via Ferrata Laurenzi, Mazzin, Comun General de Fascia, Provincia di Trento, Trentino-Alto Adige/Südtirol, Italia",Testone del Rifugio,46.4783562,11.6647202,mountain,region_119
landf_266,"Via Ferrata Laurenzi, Mazzin, Comun General de Fascia, Provincia di Trento, Trentino-Alto Adige/Südtirol, 38030, Italia",Torre del Lago,46.4805561,11.6551154,mountain,region_119
landf_267,"Via Ferrata Laurenzi, Mazzin, Comun General de Fascia, Provincia di Trento, Trentino-Alto Adige/Südtirol, 38030, Italia",Cresta del Lago,46.4806797,11.6578001,mountain,region_119
landf_268,"La Cisterna, Mazzin, Comun General de Fascia, Provincia di Trento, Trentino-Alto Adige/Südtirol, 38030, Italia",Sòt Palacia,46.4721731,11.6885009,mountain,region_119
landf_269,"Dosso di Miola, Sinter de Cambaselga, Laita, Serraia, Miola, Baselga di Piné, Comunità Alta Valsugana e Bersntol, Provincia di Trento, Trentino-Alto Adige/Südtirol, 38042, Italia",Dosso di Miola,46.1304976,11.2507084,mountain,region_5
landf_270,"Strada forestale Busa longa, Castelnuovo, Comunità Valsugana e Tesino, Provincia di Trento, Trentino-Alto Adige/Südtirol, 38051, Italia",Monte Civeron,46.0356318,11.4860218,mountain,region_18
landf_271,"Pontara, Cadrobbi, Miola, Baselga di Piné, Comunità Alta Valsugana e Bersntol, Provincia di Trento, Trentino-Alto Adige/Südtirol, 38042, Italia",Dos del Massalon,46.1233337,11.246722,mountain,region_5
landf_272,"Sasso di Rocca, 646, Canazei, Comun General de Fascia, Provincia di Trento, Trentino-Alto Adige/Südtirol, 38032, Italia",Sas Bianch de Roseal,46.4315778,11.7703335,mountain,region_92
landf_273,"Ciamp de Mez, Canazei, Comun General de Fascia, Provincia di Trento, Trentino-Alto Adige/Südtirol, 38032, Italia",Sas Neigher,46.434191,11.7802112,mountain,region_92
landf_274,"Via del Cadrobol, Bugno, Palustela, Miola, Baselga di Piné, Comunità Alta Valsugana e Bersntol, Provincia di Trento, Trentino-Alto Adige/Südtirol, 38042, Italia",Dos del Sas,46.1202516,11.2516323,mountain,region_5
landf_275,"646, Canazei, Comun General de Fascia, Provincia di Trento, Trentino-Alto Adige/Südtirol, 38032, Italia",Sas de Roces,46.4311841,11.7764095,mountain,region_92
landf_276,"Strada di Bedolpian, Ricaldo, Miola, Baselga di Piné, Comunità Alta Valsugana e Bersntol, Provincia di Trento, Trentino-Alto Adige/Südtirol, 38042, Italia",Dos Alt,46.1420674,11.2490494,mountain,region_5
landf_277,"Strada forestale Pian de le Vederne, Località ""Le Casere"", Imer, Comunità di Primiero, Provincia di Trento, Trentino-Alto Adige/Südtirol, Italia",Col Camoz,46.1284606,11.8074852,mountain,region_35
landf_278,"Strada forestale ""Val dei Bergagni"", Parciocca, Miola, Baselga di Piné, Comunità Alta Valsugana e Bersntol, Provincia di Trento, Trentino-Alto Adige/Südtirol, 38042, Italia",Dos de la Parciocca,46.1279907,11.2656381,mountain,region_5
landf_279,"Acqua del Marizat, Strada Forestale ""Costalta"", Parciocca, Miola, Baselga di Piné, Comunità Alta Valsugana e Bersntol, Provincia di Trento, Trentino-Alto Adige/Südtirol, 38042, Italia",Tombola,46.130069,11.2656425,mountain,region_5
landf_280,"Strada Forestale ""Costalta"", Parciocca, Miola, Baselga di Piné, Comunità Alta Valsugana e Bersntol, Provincia di Trento, Trentino-Alto Adige/Südtirol, 38042, Italia",Dos del Nel,46.1315365,11.2672478,mountain,region_5
landf_281,"Strada forestale Feudo Rucadin, Stramentizzo, Molina di Fiemme, Castello-Molina di Fiemme, Comunità territoriale della Val di Fiemme, Provincia di Trento, Trentino-Alto Adige/Südtirol, 38099, Italia",Rucadin,46.2565504,11.4106744,mountain,region_15
landf_282,"Via del Masét, Maset, Montagnaga, Baselga di Piné, Comunità Alta Valsugana e Bersntol, Provincia di Trento, Trentino-Alto Adige/Südtirol, 38042, Italia",Dosso di Sant'Anna,46.0988021,11.2345637,mountain,region_5
landf_283,"Strada forestale Val di Roda, Mezzano, Comunità di Primiero, Provincia di Trento, Trentino-Alto Adige/Südtirol, Italia",Agheré,46.1250785,11.85924,mountain,region_116
landf_284,"Strada Piadochin, Case Fonteghi, Mezzano, Comunità di Primiero, Provincia di Trento, Trentino-Alto Adige/Südtirol, Italia",Cima Piadochin,46.1365109,11.8495723,mountain,region_116
landf_285,"Strada forestale ""Bisel-Lem-Puel"", Puel, Montagnaga, Baselga di Piné, Comunità Alta Valsugana e Bersntol, Provincia di Trento, Trentino-Alto Adige/Südtirol, 38042, Italia",Dosso di Puel,46.0949009,11.2284458,mountain,region_5
landf_286,"Valt, Montagnaga, Baselga di Piné, Comunità Alta Valsugana e Bersntol, Provincia di Trento, Trentino-Alto Adige/Südtirol, 38042, Italia",Dos del Tes,46.1074683,11.2323403,mountain,region_5
landf_287,"Strada forestale Col Mares, Imer, Comunità di Primiero, Provincia di Trento, Trentino-Alto Adige/Südtirol, Italia",Col Mares,46.1203755,11.8117839,mountain,region_35
landf_288,"Pista ciclopedonale Montagnaga - Ferrari, Bernardi, Montagnaga, Baselga di Piné, Comunità Alta Valsugana e Bersntol, Provincia di Trento, Trentino-Alto Adige/Südtirol, 38042, Italia",Leien,46.1033898,11.2304201,mountain,region_5
landf_289,"Strada forestale Boal Canalini - Val dei Ponti, Mezzano, Comunità di Primiero, Provincia di Trento, Trentino-Alto Adige/Südtirol, Italia",Col della Parrocchia,46.1233575,11.8399161,mountain,region_116
landf_290,"Strada forestale Costabella, Segadure, Mezzano, Comunità di Primiero, Provincia di Trento, Trentino-Alto Adige/Südtirol, Italia",Colfierech,46.1468809,11.8797632,mountain,region_116
landf_291,"Cordogné, Poit, Mezzano, Comunità di Primiero, Provincia di Trento, Trentino-Alto Adige/Südtirol, Italia",Cordognè,46.1433497,11.8362445,mountain,region_116
landf_292,"Via dei Bernardi, Bernardi, Montagnaga, Baselga di Piné, Comunità Alta Valsugana e Bersntol, Provincia di Trento, Trentino-Alto Adige/Südtirol, 38042, Italia",Dos de le Morf,46.1027903,11.235109,mountain,region_5
landf_293,"Strada forestale ""Bisel-Lem-Puel"", Puel, Montagnaga, Baselga di Piné, Comunità Alta Valsugana e Bersntol, Provincia di Trento, Trentino-Alto Adige/Südtirol, 38042, Italia",Dosso Alto,46.0970548,11.2233462,mountain,region_5
landf_294,"Pista ciclopedonale Montagnaga - Ferrari, Valt, Montagnaga, Baselga di Piné, Comunità Alta Valsugana e Bersntol, Provincia di Trento, Trentino-Alto Adige/Südtirol, 38042, Italia",Postel,46.1091857,11.2243643,mountain,region_5
landf_295,"Strada forestale ""Bisel-Lem-Puel"", Puel, Montagnaga, Baselga di Piné, Comunità Alta Valsugana e Bersntol, Provincia di Trento, Trentino-Alto Adige/Südtirol, 38042, Italia",Dos de Lem,46.0961278,11.2270789,mountain,region_5
landf_296,"Caola, Puel, Montagnaga, Baselga di Piné, Comunità Alta Valsugana e Bersntol, Provincia di Trento, Trentino-Alto Adige/Südtirol, 38042, Italia",Croz de le Grole,46.0934807,11.2272627,mountain,region_5
landf_297,"Via del Masét, Maset, Montagnaga, Baselga di Piné, Comunità Alta Valsugana e Bersntol, Provincia di Trento, Trentino-Alto Adige/Südtirol, 38042, Italia",Dos de l'Oselera,46.0980171,11.2326216,mountain,region_5
landf_298,"Conca, Strada forestale Tognola, Malga Tognòla di Siròr, San Martino di Castrozza, Primiero San Martino di Castrozza, Comunità di Primiero, Provincia di Trento, Trentino-Alto Adige/Südtirol, Italia",Cima Tognòla,46.2314201,11.7710853,mountain,region_52
landf_299,"Malga Valcigolera, San Martino di Castrozza, Primiero San Martino di Castrozza, Comunità di Primiero, Provincia di Trento, Trentino-Alto Adige/Südtirol, Italia",Cima Val Cigolera,46.2590011,11.7434328,mountain,region_52
landf_300,"Locca-Vasoni, Montesover, Sover, Comunità della Valle di Cembra, Provincia di Trento, Trentino-Alto Adige/Südtirol, 38048, Italia",Dos de Camorè,46.2067185,11.3419982,mountain,region_145
landf_301,"Muncion, San Giovanni di Fassa - Sèn Jan, Comun General de Fascia, Provincia di Trento, Trentino-Alto Adige/Südtirol, 38036, Italia",Torre Rizzi,46.4565025,11.6708483,mountain,region_64
landf_302,"Ronch, Muncion, San Giovanni di Fassa - Sèn Jan, Comun General de Fascia, Provincia di Trento, Trentino-Alto Adige/Südtirol, 38036, Italia",Aut da Muncion,46.4559343,11.6754324,mountain,region_64
landf_303,"Muncion, San Giovanni di Fassa - Sèn Jan, Comun General de Fascia, Provincia di Trento, Trentino-Alto Adige/Südtirol, 38036, Italia",Piz dal Sciarpel,46.4594499,11.6652177,mountain,region_64
landf_304,"Muncion, San Giovanni di Fassa - Sèn Jan, Comun General de Fascia, Provincia di Trento, Trentino-Alto Adige/Südtirol, 38036, Italia",Gran Cront,46.4535233,11.6514576,mountain,region_64
landf_305,"Muncion, San Giovanni di Fassa - Sèn Jan, Comun General de Fascia, Provincia di Trento, Trentino-Alto Adige/Südtirol, 38036, Italia",Cogol de Larsec,46.4611961,11.6541602,mountain,region_64
landf_306,"Muncion, San Giovanni di Fassa - Sèn Jan, Comun General de Fascia, Provincia di Trento, Trentino-Alto Adige/Südtirol, 38036, Italia",Spiz delle Roe di Ciampie,46.4563158,11.6690791,mountain,region_64
landf_307,"Via di Castel Rocca, Nogaré, Pergine Valsugana, Comunità Alta Valsugana e Bersntol, Provincia di Trento, Trentino-Alto Adige/Südtirol, 38045, Italia",Croz de la Rocca,46.0950769,11.2166567,mountain,region_125
landf_308,"Strada forestale Vallorchere, Imer, Comunità di Primiero, Provincia di Trento, Trentino-Alto Adige/Südtirol, Italia",Col di Muri,46.1134723,11.7820331,mountain,region_35
landf_309,"Parco naturale Paneveggio - Pale di San Martino, San Martino di Castrozza, Primiero San Martino di Castrozza, Comunità di Primiero, Provincia di Trento, Trentino-Alto Adige/Südtirol, 38054, Italia",Colbricòn Piccolo,46.2771904,11.7458507,mountain,region_52
landf_310,"San Lorenzo, Croce, Stalletta, Olle, Borgo Valsugana, Comunità Valsugana e Tesino, Provincia di Trento, Trentino-Alto Adige/Südtirol, 38051, Italia",Rocchetta,46.0429303,11.4530026,mountain,region_82
landf_311,"Strada Val Venegia, San Martino di Castrozza, Primiero San Martino di Castrozza, Comunità di Primiero, Provincia di Trento, Trentino-Alto Adige/Südtirol, Italia",Costazza,46.3013681,11.8034879,mountain,region_52
landf_312,"chiesa di San Lorenzo, Strada forestale San Lorenzo, Pràe, Fastro, Olle, Borgo Valsugana, Comunità Valsugana e Tesino, Provincia di Trento, Trentino-Alto Adige/Südtirol, 38051, Italia",San Lorenzo,46.0253596,11.4393899,mountain,region_82
landf_313,"Baldal, Palai en Bersntol - Palù del Fersina, Palù del Fersina - Palai en Bersntol, Comunità Alta Valsugana e Bersntol, Provincia di Trento, Trentino-Alto Adige/Südtirol, Italia",Pala dei Campedei,46.1492461,11.3521195,mountain,region_124
landf_314,"Sentiero alpinistico Fratelli Giuliani, Palù del Fersina - Palai en Bersntol, Comunità Alta Valsugana e Bersntol, Provincia di Trento, Trentino-Alto Adige/Südtirol, Italia",Cima d'Ezze,46.1306345,11.4019971,mountain,region_124
landf_315,"Sentiero alpinistico Fratelli Giuliani, Palù del Fersina - Palai en Bersntol, Comunità Alta Valsugana e Bersntol, Provincia di Trento, Trentino-Alto Adige/Südtirol, Italia",Sopra Conella,46.1141703,11.3938115,mountain,region_124
landf_316,"Busa del Carl, Palù del Fersina - Palai en Bersntol, Comunità Alta Valsugana e Bersntol, Provincia di Trento, Trentino-Alto Adige/Südtirol, Italia",Monte Conca,46.14704,11.38443,mountain,region_124
landf_317,"Sentiero alpinistico Fratelli Giuliani, Palù del Fersina - Palai en Bersntol, Comunità Alta Valsugana e Bersntol, Provincia di Trento, Trentino-Alto Adige/Südtirol, Italia",Sasso Rosso,46.12133,11.3996317,mountain,region_124
landf_318,"337, San Martino di Castrozza, Primiero San Martino di Castrozza, Comunità di Primiero, Provincia di Trento, Trentino-Alto Adige/Südtirol, 38054, Italia",Punta Cés,46.2682316,11.7556107,mountain,region_52
landf_319,"Sentiero alpinistico Fratelli Giuliani, Palù del Fersina - Palai en Bersntol, Comunità Alta Valsugana e Bersntol, Provincia di Trento, Trentino-Alto Adige/Südtirol, Italia",Cima di Sette Selle,46.1279858,11.3986979,mountain,region_124
landf_320,"Strada Val Venegia, San Martino di Castrozza, Primiero San Martino di Castrozza, Comunità di Primiero, Provincia di Trento, Trentino-Alto Adige/Südtirol, Italia",Punta Rolle,46.2938788,11.801805,mountain,region_52
landf_321,"Rifugio Erdemolo, Maso Lenzi, Palù del Fersina - Palai en Bersntol, Comunità Alta Valsugana e Bersntol, Provincia di Trento, Trentino-Alto Adige/Südtirol, Italia",Monte Hoamonder,46.1267528,11.3907015,mountain,region_124
landf_322,"Rifugio Erdemolo, Maso Lenzi, Palù del Fersina - Palai en Bersntol, Comunità Alta Valsugana e Bersntol, Provincia di Trento, Trentino-Alto Adige/Südtirol, Italia",Stocher,46.1207161,11.3706209,mountain,region_124
landf_323,"Paradiso, 15, San Martino di Castrozza, Primiero San Martino di Castrozza, Comunità di Primiero, Provincia di Trento, Trentino-Alto Adige/Südtirol, Italia",Tognazza,46.2879833,11.7865908,mountain,region_52
landf_324,"Bus Di Sotto, Canal San Bovo, Comunità di Primiero, Provincia di Trento, Trentino-Alto Adige/Südtirol, Italia",Tognòla,46.2334155,11.7263169,mountain,region_88
landf_325,"Valcigolera, Strada forestale Valcigolera, Malga Valcigolera, San Martino di Castrozza, Primiero San Martino di Castrozza, Comunità di Primiero, Provincia di Trento, Trentino-Alto Adige/Südtirol, Italia",Tognòla,46.2512687,11.7535236,mountain,region_52
landf_326,"Selva De Mulon, Canazei, Comun General de Fascia, Provincia di Trento, Trentino-Alto Adige/Südtirol, Italia",Gran Vernel,46.4423985,11.8321343,mountain,region_92
landf_327,"Ippovia del Trentino orientale, Palù del Fersina - Palai en Bersntol, Comunità Alta Valsugana e Bersntol, Provincia di Trento, Trentino-Alto Adige/Südtirol, 38043, Italia",Crozzon,46.1392497,11.3296052,mountain,region_124
landf_328,"Strada Provinciale 246 di Celado, Sottomolizza, Castello Tesino, Comunità Valsugana e Tesino, Provincia di Trento, Trentino-Alto Adige/Südtirol, 38053, Italia",Col della Cimogna,46.0189579,11.6641593,mountain,region_17
landf_329,"Sentiero alpinistico Fratelli Giuliani, Palù del Fersina - Palai en Bersntol, Comunità Valsugana e Tesino, Provincia di Trento, Trentino-Alto Adige/Südtirol, Italia",Cime di Saleri,46.124539,11.4103204,mountain,region_124
landf_330,"Valle degli orti, Palù del Fersina - Palai en Bersntol, Comunità Alta Valsugana e Bersntol, Provincia di Trento, Trentino-Alto Adige/Südtirol, Italia",Cima Terra Bianca,46.1161011,11.3896896,mountain,region_124
landf_331,"Ippovia del Trentino orientale, Palù del Fersina - Palai en Bersntol, Comunità Alta Valsugana e Bersntol, Provincia di Trento, Trentino-Alto Adige/Südtirol, 38043, Italia",Tèrmen,46.1401583,11.3313608,mountain,region_124
landf_332,"Al passo Polpen, Jerger - Tolleri, Palai en Bersntol - Palù del Fersina, Palù del Fersina - Palai en Bersntol, Comunità Alta Valsugana e Bersntol, Provincia di Trento, Trentino-Alto Adige/Südtirol, 38043, Italia",Cimon di Pontara,46.148525,11.3473613,mountain,region_124
landf_333,"Sentiero alpinistico Fratelli Giuliani, Palù del Fersina - Palai en Bersntol, Comunità Alta Valsugana e Bersntol, Provincia di Trento, Trentino-Alto Adige/Südtirol, Italia",Cima Colombara,46.132452,11.4028512,mountain,region_124
landf_334,"Strada forestale Itene, Panchià, Comunità territoriale della Val di Fiemme, Provincia di Trento, Trentino-Alto Adige/Südtirol, Italia",Formentone,46.2374628,11.5670853,mountain,region_15
landf_335,"Val Di Caldenave, Scurelle, Comunità Valsugana e Tesino, Provincia di Trento, Trentino-Alto Adige/Südtirol, Italia",Cima Delle Tavarade,46.1365,11.5351,mountain,region_62
landf_336,"Strada Forestale Valpiana - Croce, Cere, Telve, Comunità Valsugana e Tesino, Provincia di Trento, Trentino-Alto Adige/Südtirol, Italia",Tombolo Di Montaletto,46.1554,11.5019,mountain,region_72
landf_337,"per Cima Corma, Castello Tesino, Comunità Valsugana e Tesino, Provincia di Trento, Trentino-Alto Adige/Südtirol, Italia",Cima Corma,46.1858278,11.5953556,mountain,region_17
landf_338,"Sentiero per il Cimon de le Buse de l'Oro, Cavalese, Comunità territoriale della Val di Fiemme, Provincia di Trento, Trentino-Alto Adige/Südtirol, Italia",Cimon Di Busa Della Neve,46.2035055,11.5216308,mountain,region_21
landf_339,"Strada forestale Cinque Croci, Pieve Tesino, Comunità Valsugana e Tesino, Provincia di Trento, Trentino-Alto Adige/Südtirol, Italia",Col Degli Uccelli,46.1897793,11.5559161,mountain,region_53
landf_340,"Buse Belle, Castello Tesino, Comunità Valsugana e Tesino, Provincia di Trento, Trentino-Alto Adige/Südtirol, Italia",Col del vento,46.1851244,11.6126169,mountain,region_17
landf_341,"Bivacco Nada Teatin, Strada forestale Itene, Panchià, Comunità territoriale della Val di Fiemme, Provincia di Trento, Trentino-Alto Adige/Südtirol, Italia",Il Frate,46.2322876,11.5650183,mountain,region_15
landf_342,"Forcella Tellina, Trodo dei Aseni, Pieve Tesino, Comunità Valsugana e Tesino, Provincia di Trento, Trentino-Alto Adige/Südtirol, Italia",Punta Socede,46.1667926,11.5870007,mountain,region_53
landf_343,"Strada Provinciale del Passo del Manghen, Telve, Comunità Valsugana e Tesino, Provincia di Trento, Trentino-Alto Adige/Südtirol, Italia",Cima Di Valsolero,46.1676585,11.4492027,mountain,region_72
landf_344,"Osservatorio Austroungarico Monte Rust, Via Roma, Chiesa, Lavarone, Magnifica Comunità degli Altipiani Cimbri, Provincia di Trento, Trentino-Alto Adige/Südtirol, 38046, Italia",Monte Rust,45.9383814,11.2446995,mountain,region_110
landf_345,"Sentiero per Moregna - Giovanni Fifol, Predazzo, Comunità territoriale della Val di Fiemme, Provincia di Trento, Trentino-Alto Adige/Südtirol, Italia",Coltorondo,46.2557232,11.638678,mountain,region_55
landf_346,"Baito ex Mandre Muro, Panchià, Comunità territoriale della Val di Fiemme, Provincia di Trento, Trentino-Alto Adige/Südtirol, Italia",Cimon di Cadinello,46.23094,11.5406314,mountain,region_15
landf_347,"1° tornante, Penìa, Canazei, Comun General de Fascia, Provincia di Trento, Trentino-Alto Adige/Südtirol, 38032, Italia",Bocia De L' Ors,46.4465,11.8048,mountain,region_92
landf_348,"P02, Soraga di Fassa, Comun General de Fascia, Provincia di Trento, Trentino-Alto Adige/Südtirol, Italia",Cima dell'Uomo,46.4062271,11.808922,mountain,region_146
landf_349,"1° tornante, Penìa, Canazei, Comun General de Fascia, Provincia di Trento, Trentino-Alto Adige/Südtirol, 38032, Italia",Coi de Lèstes,46.4475,11.8039,mountain,region_92
landf_350,"Ciamorciaa, Canazei, Comun General de Fascia, Provincia di Trento, Trentino-Alto Adige/Südtirol, Italia",Col Dal Baranchie,46.4571,11.8483,mountain,region_92
landf_351,"Military Kitchen, SS641, Canazei, Comun General de Fascia, Provincia di Trento, Trentino-Alto Adige/Südtirol, Italia",Col De Bousc,46.4531748,11.8598399,mountain,region_92
landf_352,"Ciamp de Mez, Canazei, Comun General de Fascia, Provincia di Trento, Trentino-Alto Adige/Südtirol, 38032, Italia",Col Del Paluf,"46,428",11.8014,mountain,region_92
landf_353,"Sot Vernel, Canazei, Comun General de Fascia, Provincia di Trento, Trentino-Alto Adige/Südtirol, 38032, Italia",La Spires,46.4449,11.8126,mountain,region_92
landf_354,"A Corona Alta, Panchià, Comunità territoriale della Val di Fiemme, Provincia di Trento, Trentino-Alto Adige/Südtirol, Italia",Corona Alta,46.2417244,11.5349502,mountain,region_15
landf_355,"Sot Vernel, Canazei, Comun General de Fascia, Provincia di Trento, Trentino-Alto Adige/Südtirol, 38032, Italia",Pèla de Vernel,46.4459189,11.8157314,mountain,region_92
landf_356,"Baito ex Mandre Muro, Panchià, Comunità territoriale della Val di Fiemme, Provincia di Trento, Trentino-Alto Adige/Südtirol, Italia",Sass della Bara,46.2291565,11.5567016,mountain,region_15
landf_357,"Soraga di Fassa, Comun General de Fascia, Provincia di Trento, Trentino-Alto Adige/Südtirol, 38030, Italia",Ponta del Ciadin,46.4058,11.8043,mountain,region_146
landf_358,"Capanna Punta Penia, Via Ferrata Marmolada Cresta Ovest, San Giovanni di Fassa - Sèn Jan, Comun General de Fascia, Provincia di Trento, Trentino-Alto Adige/Südtirol, Italia",Punta Rocca,46.4343771,11.8564677,mountain,region_92
landf_359,"Col dal Pisol, Pera, San Giovanni di Fassa - Sèn Jan, Comun General de Fascia, Provincia di Trento, Trentino-Alto Adige/Südtirol, 38036, Italia",Sas de Pere da Fech,46.4401201,11.7109197,mountain,region_64
landf_360,"Selva De Mulon, Canazei, Comun General de Fascia, Provincia di Trento, Trentino-Alto Adige/Südtirol, Italia",Roda De Mulon,46.4485,11.8355,mountain,region_92
landf_361,"P02, Soraga di Fassa, Comun General de Fascia, Provincia di Trento, Trentino-Alto Adige/Südtirol, Italia",Sas da la Tas-cia,46.4043075,11.8135468,mountain,region_146
landf_362,"SS641, Penìa, Canazei, Comun General de Fascia, Provincia di Trento, Trentino-Alto Adige/Südtirol, 38032, Italia",Sas Dal Pegorer,46.4519,11.8111,mountain,region_92
landf_363,"Ciamorciaa, Canazei, Comun General de Fascia, Provincia di Trento, Trentino-Alto Adige/Südtirol, Italia",Sas De La Ciaures,46.4491113,11.8438649,mountain,region_92
landf_364,"Bivacco Donato Zeni, Strada Ruf de Ruacia, San Giovanni di Fassa - Sèn Jan, Comun General de Fascia, Provincia di Trento, Trentino-Alto Adige/Südtirol, 38036, Italia",Cima Undici,46.402431,11.7129645,mountain,region_64
landf_365,"San Giovanni di Fassa - Sèn Jan, Comun General de Fascia, Provincia di Trento, Trentino-Alto Adige/Südtirol, 38036, Italia",Cima Scalieret,46.4633351,11.6444448,mountain,region_64
landf_366,"Sentiero alpinistico Fratelli Giuliani, Torcegno, Comunità Valsugana e Tesino, Provincia di Trento, Trentino-Alto Adige/Südtirol, Italia",Sasso Rotto,46.1253509,11.3995306,mountain,region_152
landf_367,"Kaiserjägersteig Col Ombert, San Giovanni di Fassa - Sèn Jan, Comun General de Fascia, Provincia di Trento, Trentino-Alto Adige/Südtirol, Italia",Col Ombert,46.4183753,11.7984793,mountain,region_64
landf_368,"San Giovanni di Fassa - Sèn Jan, Comun General de Fascia, Provincia di Trento, Trentino-Alto Adige/Südtirol, 38036, Italia",Cima del Vajolet - Vajoletspitze,46.4720495,11.6314676,mountain,region_64
landf_369,"Baracca ricostruita Grande Guerra, Strada forestale Vatrighetta - Cagnon, Telve, Comunità Valsugana e Tesino, Provincia di Trento, Trentino-Alto Adige/Südtirol, Italia",Monte Slimber,46.1362251,11.390845,mountain,region_72
landf_370,"Pala del Gheiger, Sentiero forestale per Lagusel, Sauch, San Giovanni di Fassa - Sèn Jan, Comun General de Fascia, Provincia di Trento, Trentino-Alto Adige/Südtirol, 38036, Italia",Monte Giumellino,46.4324437,11.7301241,mountain,region_64
landf_371,"Sentiero forestale per Lagusel, Sauch, San Giovanni di Fassa - Sèn Jan, Comun General de Fascia, Provincia di Trento, Trentino-Alto Adige/Südtirol, 38036, Italia",Sas d'Adam,46.4359061,11.7422826,mountain,region_64
landf_372,"Strada di Rusci, San Giovanni di Fassa - Sèn Jan, Comun General de Fascia, Provincia di Trento, Trentino-Alto Adige/Südtirol, Italia",Sas bianch,46.4293685,11.780533,mountain,region_64
landf_373,"Strada forestale Pian da le Trapole, San Giovanni di Fassa - Sèn Jan, Comun General de Fascia, Provincia di Trento, Trentino-Alto Adige/Südtirol, 38036, Italia",Punta Vallaccia,46.3948826,11.7080947,mountain,region_64
landf_374,"Val Rosalia, San Giovanni di Fassa - Sèn Jan, Comun General de Fascia, Provincia di Trento, Trentino-Alto Adige/Südtirol, Italia",Pìcol Vernel,46.439598,11.8341331,mountain,region_64
landf_375,"541, San Giovanni di Fassa - Sèn Jan, Comun General de Fascia, Provincia di Trento, Trentino-Alto Adige/Südtirol, Italia",Ostturm - Torre Est,46.461527,11.6277192,mountain,region_64
landf_376,"Ciamp De La Selva, San Giovanni di Fassa - Sèn Jan, Comun General de Fascia, Provincia di Trento, Trentino-Alto Adige/Südtirol, Italia",Ponta De Cornates,46.4428,11.8237,mountain,region_64
landf_377,"al lago del Forame, Cavalese, Comunità territoriale della Val di Fiemme, Provincia di Trento, Trentino-Alto Adige/Südtirol, Italia",Monte Tuschere,46.1905547,11.4744475,mountain,region_21
landf_378,"P02, San Giovanni di Fassa - Sèn Jan, Comun General de Fascia, Provincia di Trento, Trentino-Alto Adige/Südtirol, Italia",Ponte Cadine,46.4113,11.8122,mountain,region_64
landf_379,"Sentiero attrezzato Attilio Sieff, Ziano di Fiemme, Comunità territoriale della Val di Fiemme, Provincia di Trento, Trentino-Alto Adige/Südtirol, 38038, Italia",Punta Polse,46.2924375,11.5587841,mountain,region_165
landf_380,"Traccia Sassovernale cresta S/SW, San Giovanni di Fassa - Sèn Jan, Comun General de Fascia, Provincia di Trento, Trentino-Alto Adige/Südtirol, Italia",Sasso Vernale,46.4189191,11.8403559,mountain,region_64
landf_381,"Le Bernardae, San Giovanni di Fassa - Sèn Jan, Comun General de Fascia, Provincia di Trento, Trentino-Alto Adige/Südtirol, Italia",Vernadais,"46,425",11.8011,mountain,region_64
landf_382,"Lapide in memoria di Rigoni Rinaldo (Moretto), Via per Petretto, Roncade, Ospedaletto, Comunità Valsugana e Tesino, Provincia di Trento, Trentino-Alto Adige/Südtirol, 38059, Italia",Cima Isidoro,46.011974,11.5537821,mountain,region_126
landf_383,"541, San Giovanni di Fassa - Sèn Jan, Comun General de Fascia, Provincia di Trento, Trentino-Alto Adige/Südtirol, Italia",Hauptturm - Torre Principale,46.4616829,11.6270194,mountain,region_64
landf_384,"Borgo Valsugana, Comunità Valsugana e Tesino, Provincia di Trento, Trentino-Alto Adige/Südtirol, 38051, Italia",Cima Laste,45.9818638,11.4074106,mountain,region_82
landf_385,"Busa del Castel, Ziano di Fiemme, Comunità territoriale della Val di Fiemme, Provincia di Trento, Trentino-Alto Adige/Südtirol, Italia",Cima De Copola,46.2219212,11.559428,mountain,region_165
landf_386,"Tesero, Comunità territoriale della Val di Fiemme, Provincia di Trento, Trentino-Alto Adige/Südtirol, 38038, Italia",Cimon de le Sute,46.2109,11.5334,mountain,region_156
landf_387,"Aquila Vaia, Strada forestale Laghetti, Grigno, Comunità Valsugana e Tesino, Provincia di Trento, Trentino-Alto Adige/Südtirol, Italia",Monte Cucco,45.9795705,11.5939392,mountain,region_36
landf_388,"Strada forestale Gasperini, Grigno, Comunità Valsugana e Tesino, Provincia di Trento, Trentino-Alto Adige/Südtirol, 38055, Italia",Colle dei Meneghini,45.9710032,11.6435309,mountain,region_36
landf_389,"Strada forestale Val d'Antenne, Grigno, Comunità Valsugana e Tesino, Provincia di Trento, Trentino-Alto Adige/Südtirol, 38055, Italia",Colle Val D'Antenne,45.9804017,11.6384481,mountain,region_36
landf_390,"Via Ferrata Laurenzi, Mazzin, Comun General de Fascia, Provincia di Trento, Trentino-Alto Adige/Südtirol, Italia",Crepes de Lausa,46.468315,11.660185,mountain,region_119
landf_391,"San Giovanni di Fassa - Sèn Jan, Comun General de Fascia, Provincia di Trento, Trentino-Alto Adige/Südtirol, 38036, Italia",Pala di Crapela,46.4003964,11.7509159,mountain,region_64
landf_392,"Sentiero forestale per Lagusel, Sauch, San Giovanni di Fassa - Sèn Jan, Comun General de Fascia, Provincia di Trento, Trentino-Alto Adige/Südtirol, Italia",Sas dal Pief,46.4065942,11.7549012,mountain,region_64
landf_393,"San Giovanni di Fassa - Sèn Jan, Comun General de Fascia, Provincia di Trento, Trentino-Alto Adige/Südtirol, 38036, Italia",Punta de l'Ort,46.4048069,11.7557984,mountain,region_64
landf_394,"Sela de la Palacia, Strada di Rusci, San Giovanni di Fassa - Sèn Jan, Comun General de Fascia, Provincia di Trento, Trentino-Alto Adige/Südtirol, Italia",Sas da Pecol,46.4078732,11.7638915,mountain,region_64
landf_395,"Banch de la Campagnacia, Strada di Rusci, San Giovanni di Fassa - Sèn Jan, Comun General de Fascia, Provincia di Trento, Trentino-Alto Adige/Südtirol, Italia",Sas da Laste,46.4060364,11.7802153,mountain,region_64
landf_396,"Sentiero delle Scalette, San Giovanni di Fassa - Sèn Jan, Comun General de Fascia, Provincia di Trento, Trentino-Alto Adige/Südtirol, 38036, Italia",Pala de Lalacia,46.4544908,11.6613278,mountain,region_64
landf_397,"Sentiero delle Scalette, San Giovanni di Fassa - Sèn Jan, Comun General de Fascia, Provincia di Trento, Trentino-Alto Adige/Südtirol, 38036, Italia",Guglia del Rifugio,46.4500126,11.6449097,mountain,region_64
landf_398,"Locca-Vasoni, Lona-Lases, Comunità della Valle di Cembra, Provincia di Trento, Trentino-Alto Adige/Südtirol, 38048, Italia",Cima del Casaret,46.1895051,11.3529932,mountain,region_118
landf_399,"Valle della Ilba, Roncegno Terme, Comunità Valsugana e Tesino, Provincia di Trento, Trentino-Alto Adige/Südtirol, Italia",Col dei Omeneti,46.0895465,11.3750185,mountain,region_132
landf_400,"Orna, Casolera-Porchera, Telve di Sopra, Comunità Valsugana e Tesino, Provincia di Trento, Trentino-Alto Adige/Südtirol, Italia",Monte Ciste,46.1134455,11.4462769,mountain,region_71
landf_401,"541, San Giovanni di Fassa - Sèn Jan, Comun General de Fascia, Provincia di Trento, Trentino-Alto Adige/Südtirol, Italia",Vajoletnadel - Torre Estrema,46.4630728,11.6282639,mountain,region_64
landf_402,"Bivacco Marco Dal Bianco, Via Ferrata Marmolada Cresta Ovest, San Giovanni di Fassa - Sèn Jan, Comun General de Fascia, Provincia di Trento, Trentino-Alto Adige/Südtirol, Italia",Ombreta di Mezzo,46.4264956,11.8419504,mountain,region_64
landf_403,"Traccia Sassovernale cresta S/SW, San Giovanni di Fassa - Sèn Jan, Comun General de Fascia, Provincia di Trento, Trentino-Alto Adige/Südtirol, Italia",Ombreta Occidentale,46.4267793,11.8341616,mountain,region_64
landf_404,"Strada forestale Pian da le Trapole, San Giovanni di Fassa - Sèn Jan, Comun General de Fascia, Provincia di Trento, Trentino-Alto Adige/Südtirol, 38036, Italia",Sas da la Luna,46.3993883,11.7050311,mountain,region_64
landf_405,"Passo del Campivel, Strada di Malga Stramaiolo, Bedollo, Comunità Alta Valsugana e Bersntol, Provincia di Trento, Trentino-Alto Adige/Südtirol, 38043, Italia",Cimat,46.1555361,11.3432557,mountain,region_6
landf_406,"Sentiero Prima Guerra Mondiale, Frassilongo - Garait, Comunità Alta Valsugana e Bersntol, Provincia di Trento, Trentino-Alto Adige/Südtirol, Italia",La Fontanella,46.0653677,11.3425234,mountain,region_132
landf_407,"Le Fontanelle, Tezze Valsugana, Grigno, Comunità Valsugana e Tesino, Provincia di Trento, Trentino-Alto Adige/Südtirol, 38055, Italia",Col delle Mandre,45.9860604,11.683548,mountain,region_36
landf_408,"Strada Provinciale 246 di Celado, Sottomolizza, Castello Tesino, Comunità Valsugana e Tesino, Provincia di Trento, Trentino-Alto Adige/Südtirol, 38053, Italia",Col dei Baili,46.042888,11.6487705,mountain,region_17
landf_409,"Castello Tesino, Comunità Valsugana e Tesino, Provincia di Trento, Trentino-Alto Adige/Südtirol, 38053, Italia",Col di Gamba,46.0384676,11.6569142,mountain,region_17
landf_410,"Castello Tesino, Comunità Valsugana e Tesino, Provincia di Trento, Trentino-Alto Adige/Südtirol, 38053, Italia",Col di Volta,46.0439766,11.6517735,mountain,region_17
landf_411,"Strada dell'antenna, Castello Tesino, Comunità Valsugana e Tesino, Provincia di Trento, Trentino-Alto Adige/Südtirol, 38053, Italia",Monte Pasolin,46.0405332,11.6442832,mountain,region_17
landf_412,"Strada del Morello, Grigno, Comunità Valsugana e Tesino, Provincia di Trento, Trentino-Alto Adige/Südtirol, 38055, Italia",Col Cantiero,46.023222,11.6439258,mountain,region_36
landf_413,"Strada della Baia, Castello Tesino, Comunità Valsugana e Tesino, Provincia di Trento, Trentino-Alto Adige/Südtirol, 38053, Italia",Col della Baia,46.0472979,11.6717483,mountain,region_17
landf_414,"Strada Provinciale 246 di Celado, Sottomolizza, Castello Tesino, Comunità Valsugana e Tesino, Provincia di Trento, Trentino-Alto Adige/Südtirol, 38053, Italia",Monte Valnappe,46.0320187,11.6476173,mountain,region_17
landf_415,"Rifugio Maria, 627, Canazei, Comun General de Fascia, Provincia di Trento, Trentino-Alto Adige/Südtirol, 38032, Italia",Sas de Pordoi,46.500733,11.8079947,mountain,region_92
landf_416,"non segnato, Pieve Tesino, Comunità Valsugana e Tesino, Provincia di Trento, Trentino-Alto Adige/Südtirol, Italia",Campagnasa,46.150999,11.6065493,mountain,region_53
landf_417,"non segnato, Pieve Tesino, Comunità Valsugana e Tesino, Provincia di Trento, Trentino-Alto Adige/Südtirol, Italia",il Passetto,46.1607935,11.6104024,mountain,region_53
landf_418,"Palon dela Cavallara, Strada forestale Viosa, Castello Tesino, Comunità Valsugana e Tesino, Provincia di Trento, Trentino-Alto Adige/Südtirol, Italia",Palòn della Cavallara,46.1323278,11.6581202,mountain,region_17
landf_419,"punti di postazione, SP79, Castello Tesino, Comunità Valsugana e Tesino, Provincia di Trento, Trentino-Alto Adige/Südtirol, 38053, Italia",Col della Boia,46.125268,11.6652852,mountain,region_17
landf_420,"LO4, Cavalese, Comunità territoriale della Val di Fiemme, Provincia di Trento, Trentino-Alto Adige/Südtirol, Italia",Castel di Bombasel,46.2230301,11.5069046,mountain,region_21
landf_421,"Pradi de la Fior, Valfloriana, Comunità territoriale della Val di Fiemme, Provincia di Trento, Trentino-Alto Adige/Südtirol, Italia",Monte Brustoloni,46.213351,11.4009773,mountain,region_154
landf_422,"Sentiero Baraccamenti Baitol, Telve, Comunità Valsugana e Tesino, Provincia di Trento, Trentino-Alto Adige/Südtirol, Italia",Doss dei Zirmi,46.1676687,11.3735716,mountain,region_72
landf_423,"Via Ferrata Laurenzi, Campitello di Fassa, Comun General de Fascia, Provincia di Trento, Trentino-Alto Adige/Südtirol, Italia",Nordwestlicher Molignon - Molignon di Fuori,46.4876807,11.6436026,mountain,region_90
landf_424,"San Giovanni di Fassa - Sèn Jan, Comun General de Fascia, Provincia di Trento, Trentino-Alto Adige/Südtirol, 38036, Italia",Le Pope,46.4599569,11.6403843,mountain,region_64
landf_425,"Sentiero delle Scalette, San Giovanni di Fassa - Sèn Jan, Comun General de Fascia, Provincia di Trento, Trentino-Alto Adige/Südtirol, 38036, Italia",Crepa de Socorda,46.4485656,11.6512316,mountain,region_64
landf_426,"Sentiero delle Scalette, San Giovanni di Fassa - Sèn Jan, Comun General de Fascia, Provincia di Trento, Trentino-Alto Adige/Südtirol, 38036, Italia",Becco dell'Acquila,46.4495506,11.6478628,mountain,region_64
landf_427,"Sentiero delle Scalette, San Giovanni di Fassa - Sèn Jan, Comun General de Fascia, Provincia di Trento, Trentino-Alto Adige/Südtirol, 38036, Italia",Campanile Gardeccia,46.4500366,11.6464627,mountain,region_64
landf_428,"Sentiero delle Scalette, San Giovanni di Fassa - Sèn Jan, Comun General de Fascia, Provincia di Trento, Trentino-Alto Adige/Südtirol, 38039, Italia",Guglia Margherita,46.4549558,11.6598576,mountain,region_64
landf_429,"Trinceroni del Monte Cauriol, Via Austriaca, Ziano di Fiemme, Comunità territoriale della Val di Fiemme, Provincia di Trento, Trentino-Alto Adige/Südtirol, Italia",Monte Cauriol,46.2353094,11.5964133,mountain,region_165
landf_430,"Strada Forestale Cima Vezzena, Levico Terme, Comunità Alta Valsugana e Bersntol, Provincia di Trento, Trentino-Alto Adige/Südtirol, 38056, Italia",Il Camin,45.9765185,11.3522589,mountain,region_34
landf_431,"Baita Cangi, Levico Terme, Comunità Alta Valsugana e Bersntol, Provincia di Trento, Trentino-Alto Adige/Südtirol, 38056, Italia",Monte Naspo,45.9776289,11.3214022,mountain,region_34
landf_432,"Passo Mirafiori - Pala delle Buse, Lona-Lases, Comunità della Valle di Cembra, Provincia di Trento, Trentino-Alto Adige/Südtirol, Italia",Pala della Madonna,46.2031454,11.3923268,mountain,region_154
landf_433,"Sentiero delle Scalette, San Giovanni di Fassa - Sèn Jan, Comun General de Fascia, Provincia di Trento, Trentino-Alto Adige/Südtirol, 38036, Italia",Pala Patech,46.4503767,11.6457841,mountain,region_64
landf_434,"Sentiero attrezzato ""Achille Gadler"", San Martino di Castrozza, Primiero San Martino di Castrozza, Comunità di Primiero, Provincia di Trento, Trentino-Alto Adige/Südtirol, Italia",Colbricon Est,46.2738562,11.7534637,mountain,region_52
landf_435,"Sentiero delle Scalette, San Giovanni di Fassa - Sèn Jan, Comun General de Fascia, Provincia di Trento, Trentino-Alto Adige/Südtirol, 38036, Italia",Punta di Socorda,46.4495672,11.6514784,mountain,region_64
landf_436,"Campitello di Fassa - Ciampedel, Campitello di Fassa, Comun General de Fascia, Provincia di Trento, Trentino-Alto Adige/Südtirol, 38031, Italia",Piza Innerkofler - Innerkoflerturm - Plan de Sass,46.5104008,11.7308878,mountain,region_90
landf_437,"Strada forestale Col San Pietro, Torcegno, Comunità Valsugana e Tesino, Provincia di Trento, Trentino-Alto Adige/Südtirol, 38051, Italia",Colle San pietro,46.0687691,11.4639263,mountain,region_152
landf_438,"541, San Giovanni di Fassa - Sèn Jan, Comun General de Fascia, Provincia di Trento, Trentino-Alto Adige/Südtirol, Italia",Torre Marcia - Morscher Turm,46.4640793,11.6291728,mountain,region_64
landf_439,"Aia Dell'Orso, Pieve Tesino, Comunità Valsugana e Tesino, Provincia di Trento, Trentino-Alto Adige/Südtirol, Italia",Col del Latte,46.2039052,11.5656921,mountain,region_53
landf_440,"Cima Diavoli, Castello Tesino, Comunità Valsugana e Tesino, Provincia di Trento, Trentino-Alto Adige/Südtirol, Italia",Cima Diavoli,46.1782406,11.6077611,mountain,region_17
landf_441,"Sentiero per Busa Alta, Ziano di Fiemme, Comunità territoriale della Val di Fiemme, Provincia di Trento, Trentino-Alto Adige/Südtirol, Italia",Canzenagol,46.2547361,11.6139082,mountain,region_165
landf_442,"Percorso Trincee Prima Guerra Mondiale, Pieve Tesino, Comunità Valsugana e Tesino, Provincia di Trento, Trentino-Alto Adige/Südtirol, 38050, Italia",Tombola Nera,46.1452626,11.5704541,mountain,region_53
landf_443,"San Giovanni di Fassa - Sèn Jan, Comun General de Fascia, Provincia di Trento, Trentino-Alto Adige/Südtirol, 38036, Italia",Pale de Mesdí,46.4541358,11.6490555,mountain,region_64
landf_444,"Strada di Rusci, Sauch, San Giovanni di Fassa - Sèn Jan, Comun General de Fascia, Provincia di Trento, Trentino-Alto Adige/Südtirol, 38031, Italia",L Veie,46.4345905,11.7501773,mountain,region_64
landf_445,"Sentiero Baraccamenti Baitol, Telve, Comunità Valsugana e Tesino, Provincia di Trento, Trentino-Alto Adige/Südtirol, Italia",Pala de la Busona,46.1811022,11.3813403,mountain,region_72
landf_446,"Busa dei Campedei, Bedollo, Comunità Alta Valsugana e Bersntol, Provincia di Trento, Trentino-Alto Adige/Südtirol, 38043, Italia",Pala di Stramaiolo - Mitreck,46.1533527,11.357655,mountain,region_6
landf_447,"GeoTrail del Dos Capèl, Predazzo, Comunità territoriale della Val di Fiemme, Provincia di Trento, Trentino-Alto Adige/Südtirol, Italia",Dos Capèl,46.3355842,11.5603238,mountain,region_55
landf_448,"Percorso a monte, Cagnotti, Rizzolaga, Baselga di Piné, Comunità Alta Valsugana e Bersntol, Provincia di Trento, Trentino-Alto Adige/Südtirol, 38042, Italia",Dosso del lago,46.1359191,11.2605843,mountain,region_5
landf_449,"Strada forestale ""Pontare Longhe - Le Pale"", Al Sant, Rizzolaga, Baselga di Piné, Comunità Alta Valsugana e Bersntol, Provincia di Trento, Trentino-Alto Adige/Südtirol, 38047, Italia",Cime Alte,46.1505731,11.2521925,mountain,region_5
landf_450,"Strada forestale Val Bronzale, Ospedaletto, Comunità Valsugana e Tesino, Provincia di Trento, Trentino-Alto Adige/Südtirol, 38050, Italia",Col dei Malandrini,46.044713,11.5710964,mountain,region_126
landf_451,"Strada forestale ""Pontare Longhe - Le Pale"", Al Sant, Rizzolaga, Baselga di Piné, Comunità Alta Valsugana e Bersntol, Provincia di Trento, Trentino-Alto Adige/Südtirol, 38047, Italia",Ceramonte,46.1623813,11.2710605,mountain,region_5
landf_452,"Via per Petretto, Roncade, Ospedaletto, Comunità Valsugana e Tesino, Provincia di Trento, Trentino-Alto Adige/Südtirol, 38059, Italia",Sasso Corvo,46.0293927,11.5554752,mountain,region_126
landf_453,"passaggio molto esposto, Strada forestale Pinteri, Mezzano, Comunità di Primiero, Provincia di Trento, Trentino-Alto Adige/Südtirol, Italia",Sasso di Scarnia,46.1211338,11.8935198,mountain,region_116
landf_454,"339 - 349, Sentiero per Moregna - Giovanni Fifol, Predazzo, Comunità territoriale della Val di Fiemme, Provincia di Trento, Trentino-Alto Adige/Südtirol, Italia",Cadinon,46.2636683,11.6211795,mountain,region_55
landf_455,"Strada forestale Busa del Mochene, Valle di Sella, Borgo Valsugana, Comunità Valsugana e Tesino, Provincia di Trento, Trentino-Alto Adige/Südtirol, Italia",Sasso Alto,46.0153237,11.404808,mountain,region_82
landf_456,"Strada forestale Val Vis - Cera - Busa dei Groi, Borgo Valsugana, Comunità Valsugana e Tesino, Provincia di Trento, Trentino-Alto Adige/Südtirol, 38051, Italia",L'Armentera,46.0222786,11.4274968,mountain,region_82
landf_457,"Puisle, Roncegno Terme, Comunità Valsugana e Tesino, Provincia di Trento, Trentino-Alto Adige/Südtirol, Italia",Colle della Stanga,46.0185136,11.4151573,mountain,region_132
landf_458,"Scala del Tombolin, Bieno, Comunità Valsugana e Tesino, Provincia di Trento, Trentino-Alto Adige/Südtirol, 38050, Italia",Monte Castelletto,46.1111588,11.5689105,mountain,region_7
landf_459,"Croce dela Caorina, Alta Via di Viezena, Predazzo, Comunità territoriale della Val di Fiemme, Provincia di Trento, Trentino-Alto Adige/Südtirol, 38035, Italia",Le Pezze - Caorina,46.3333086,11.67488,mountain,region_55
landf_460,"Al lago Gronton, Moena, Comun General de Fascia, Provincia di Trento, Trentino-Alto Adige/Südtirol, 38035, Italia",Cima Lastè,46.3475969,11.7218234,mountain,region_47
landf_461,"Sentiero per Moregna - Giovanni Fifol, Predazzo, Comunità territoriale della Val di Fiemme, Provincia di Trento, Trentino-Alto Adige/Südtirol, Italia",Cima di Valmaggiore,46.2565859,11.6579627,mountain,region_55
landf_462,"Sentiero per Moregna - Giovanni Fifol, Predazzo, Comunità territoriale della Val di Fiemme, Provincia di Trento, Trentino-Alto Adige/Südtirol, Italia",Dos Calighèr,46.2634638,11.6536394,mountain,region_55
landf_463,"E349 - Sentiero attrezzato ""Achille Gadler"", Predazzo, Comunità territoriale della Val di Fiemme, Provincia di Trento, Trentino-Alto Adige/Südtirol, Italia",Cima di Valbona,46.2659713,11.6939671,mountain,region_55
landf_464,"E349 - Sentiero attrezzato ""Achille Gadler"", Predazzo, Comunità territoriale della Val di Fiemme, Provincia di Trento, Trentino-Alto Adige/Südtirol, Italia",Cima Valon,46.2614664,11.7051617,mountain,region_55
landf_465,"E349 - Sentiero attrezzato ""Achille Gadler"", Predazzo, Comunità territoriale della Val di Fiemme, Provincia di Trento, Trentino-Alto Adige/Südtirol, Italia",Campanile di Cece,46.2569271,11.6764166,mountain,region_55
landf_466,"Bus Di Sotto, Canal San Bovo, Comunità di Primiero, Provincia di Trento, Trentino-Alto Adige/Südtirol, Italia",Cima Miesnotta,46.2540231,11.7065917,mountain,region_88
landf_467,"Sinter de le Salare, Rizzolaga, Baselga di Piné, Comunità Alta Valsugana e Bersntol, Provincia di Trento, Trentino-Alto Adige/Südtirol, 38042, Italia",Dos de le Salare,46.1344623,11.2778269,mountain,region_5
landf_468,"Sentiero Prima Guerra Mondiale, Frassilongo - Garait, Comunità Alta Valsugana e Bersntol, Provincia di Trento, Trentino-Alto Adige/Südtirol, Italia",Prennputz,46.062512,11.3424051,mountain,region_132
landf_469,"al lago del Forame, Cavalese, Comunità territoriale della Val di Fiemme, Provincia di Trento, Trentino-Alto Adige/Südtirol, Italia",Cimon di Busa Grana,46.2077897,11.482938,mountain,region_21
landf_470,"Sentiero per il Cimon de le Buse de l'Oro, Cavalese, Comunità territoriale della Val di Fiemme, Provincia di Trento, Trentino-Alto Adige/Südtirol, Italia",Cimon della Roa,46.2112622,11.5134748,mountain,region_21
landf_471,"nuova variante della mulattiera di Sadole causa interruzione vecchia mulattiera, Ziano di Fiemme, Comunità territoriale della Val di Fiemme, Provincia di Trento, Trentino-Alto Adige/Südtirol, Italia",Castel Aie,46.2403592,11.577302,mountain,region_165
landf_472,"Mendola - Mendel, Ruffré-Mendola, Comunità della Val di Non, Provincia di Trento, Trentino-Alto Adige/Südtirol, 38011, Italia",Kleiner Penegal - Piccolo Penegal,46.424912,11.207447,mountain,region_135
landf_473,"Spiazzon, Sagron, Sagron Mis, Comunità di Primiero, Provincia di Trento, Trentino-Alto Adige/Südtirol, Italia",Sasso Delle Undici,46.1725897,11.9439362,mountain,region_61
landf_474,"Tesero, Comunità territoriale della Val di Fiemme, Provincia di Trento, Trentino-Alto Adige/Südtirol, 38038, Italia",Cima Formion,46.2265933,11.5377862,mountain,region_156
landf_475,"Strada forestale Colaz, Imer, Comunità di Primiero, Provincia di Trento, Trentino-Alto Adige/Südtirol, Italia",Col dela Stangada,46.1248212,11.7874353,mountain,region_35
landf_476,"Strada forestale Agnerola, Imer, Comunità di Primiero, Provincia di Trento, Trentino-Alto Adige/Südtirol, Italia",Spiz a Fagòt,46.1167468,11.8032667,mountain,region_35
landf_477,"Strada forestale Serra, Musiera di Sopra Vinante, Telve, Comunità Valsugana e Tesino, Provincia di Trento, Trentino-Alto Adige/Südtirol, Italia",Cima di Castel Cucco,46.1070572,11.4664169,mountain,region_72
landf_478,"Malga Sette Selle, Torcegno, Comunità Valsugana e Tesino, Provincia di Trento, Trentino-Alto Adige/Südtirol, Italia",Cima Tempiaro,46.1151483,11.407158,mountain,region_152
landf_479,"Via dei Pinteroti, Masetti, San Cristoforo al Lago, Pergine Valsugana, Comunità Alta Valsugana e Bersntol, Provincia di Trento, Trentino-Alto Adige/Südtirol, 38057, Italia",Dos del Cuco,46.0492418,11.2452409,mountain,region_125
landf_480,"Malga Valmeneghina, Telve di Sopra, Comunità Valsugana e Tesino, Provincia di Trento, Trentino-Alto Adige/Südtirol, Italia",Cima Mendana,46.1223801,11.4266211,mountain,region_71
landf_481,"Strada forestale Serra, Musiera di Sopra Vinante, Telve di Sopra, Comunità Valsugana e Tesino, Provincia di Trento, Trentino-Alto Adige/Südtirol, Italia",Cima Valboagna,46.1016739,11.4689937,mountain,region_71
landf_482,"Strada forestale Serra, Musiera di Sopra Vinante, Telve di Sopra, Comunità Valsugana e Tesino, Provincia di Trento, Trentino-Alto Adige/Südtirol, Italia",Monte Salubio,46.1044114,11.47078,mountain,region_71
landf_483,"Strada forestale Serra, Musiera di Sopra Vinante, Telve, Comunità Valsugana e Tesino, Provincia di Trento, Trentino-Alto Adige/Südtirol, 38051, Italia",Col Caponere,46.0936055,11.4732155,mountain,region_72
landf_484,"Strada Forestale ""Costalta"", Sant'Orsola Terme, Comunità Alta Valsugana e Bersntol, Provincia di Trento, Trentino-Alto Adige/Südtirol, 38043, Italia",Cadinel alt,46.1293644,11.288517,mountain,region_60
landf_485,"SP224, Sant'Orsola Terme, Comunità Alta Valsugana e Bersntol, Provincia di Trento, Trentino-Alto Adige/Südtirol, 38043, Italia",Sass de Sant'Orsola,46.1316914,11.3212806,mountain,region_60
landf_486,"Sentiero attrezzato ""Achille Gadler"", San Martino di Castrozza, Primiero San Martino di Castrozza, Comunità di Primiero, Provincia di Trento, Trentino-Alto Adige/Südtirol, Italia",Cime di Bragagnolo,46.2648477,11.7270894,mountain,region_52
landf_487,"Sentiero attrezzato ""Achille Gadler"", San Martino di Castrozza, Primiero San Martino di Castrozza, Comunità di Primiero, Provincia di Trento, Trentino-Alto Adige/Südtirol, Italia",Cima di Ceremana,46.2647315,11.737824,mountain,region_52
landf_488,"Sentiero attrezzato ""Achille Gadler"", Predazzo, Comunità territoriale della Val di Fiemme, Provincia di Trento, Trentino-Alto Adige/Südtirol, Italia",Costòn dei Slavaci,46.2617847,11.7168581,mountain,region_55
landf_489,"Sentiero Don Battistin, Predazzo, Comunità territoriale della Val di Fiemme, Provincia di Trento, Trentino-Alto Adige/Südtirol, Italia",Cima di Sella,46.2693583,11.6720254,mountain,region_55
landf_490,"Galleria Sora Colmer, Canazei, Comun General de Fascia, Provincia di Trento, Trentino-Alto Adige/Südtirol, Italia",Sass Ciapel,46.4768091,11.8403205,mountain,region_92
landf_491,"Strada forestale ""Sporcela"", Sant'Orsola Terme, Comunità Alta Valsugana e Bersntol, Provincia di Trento, Trentino-Alto Adige/Südtirol, 38043, Italia",Col de Sporcela,46.1251313,11.2951346,mountain,region_60
landf_492,"Sentiero della Cros de Mala, Masi dei Stefani, Sant'Orsola Terme, Comunità Alta Valsugana e Bersntol, Provincia di Trento, Trentino-Alto Adige/Südtirol, 38042, Italia",La Brada,46.1075433,11.2721507,mountain,region_60
landf_493,"Malga Cagnon di Sotto, Telve, Comunità Valsugana e Tesino, Provincia di Trento, Trentino-Alto Adige/Südtirol, Italia",Cima Cagnon,46.1379334,11.4055522,mountain,region_72
landf_494,"Baito Caseròte, Strada forestale Vatrighetta - Cagnon, Telve, Comunità Valsugana e Tesino, Provincia di Trento, Trentino-Alto Adige/Südtirol, Italia",Col di Boi,46.1458143,11.4130723,mountain,region_72
landf_495,"Villa Longo, Telve, Comunità Valsugana e Tesino, Provincia di Trento, Trentino-Alto Adige/Südtirol, Italia",Col di Fregio,46.1324975,11.4436004,mountain,region_72
landf_496,"Sentiero alto per c. Pastronezze da malga Ezze, Telve, Comunità Valsugana e Tesino, Provincia di Trento, Trentino-Alto Adige/Südtirol, Italia",Monte Pastronezze,46.1358924,11.4378589,mountain,region_72
landf_497,"Laghetti di Coltorondo, Canal San Bovo, Comunità di Primiero, Provincia di Trento, Trentino-Alto Adige/Südtirol, Italia",Monte Tabio,46.251011,11.6827621,mountain,region_88
landf_498,"Strada forestale Pian da le Trapole, San Giovanni di Fassa - Sèn Jan, Comun General de Fascia, Provincia di Trento, Trentino-Alto Adige/Südtirol, 38036, Italia",Sasso delle Dodici,46.4080754,11.7007536,mountain,region_64
landf_499,"Panorama Weg, Cavareno, Comunità della Val di Non, Provincia di Trento, Trentino-Alto Adige/Südtirol, 38011, Italia",Glockenbühel - Monte Campana,46.3970557,11.2147887,mountain,region_101
landf_500,"Forcella Folga, Traccia Sentiero Lago Pisorno - Agnelessa, Mezzano, Comunità di Primiero, Provincia di Trento, Trentino-Alto Adige/Südtirol, Italia",Col Mongo,46.1961841,11.7606565,mountain,region_116
landf_501,"Boal dele Stele, Mezzano, Comunità di Primiero, Provincia di Trento, Trentino-Alto Adige/Südtirol, Italia",Palon di Folga,46.1929891,11.765999,mountain,region_116
landf_502,"Malga Valsorda, Mezzano, Comunità di Primiero, Provincia di Trento, Trentino-Alto Adige/Südtirol, Italia",Cima Valsorda,46.1997107,11.7361929,mountain,region_116
landf_503,"Malga Valsorda, Mezzano, Comunità di Primiero, Provincia di Trento, Trentino-Alto Adige/Südtirol, Italia",Cima Cuneletti,46.2046385,11.7359697,mountain,region_116
landf_504,"Rifugio El Zedron, Sentiero forestale per Lagusel, Sauch, San Giovanni di Fassa - Sèn Jan, Comun General de Fascia, Provincia di Trento, Trentino-Alto Adige/Südtirol, 38036, Italia",Col de Valvacin,46.4341947,11.7358878,mountain,region_64
landf_505,"DOLO Myths Run, Mazzin, Comun General de Fascia, Provincia di Trento, Trentino-Alto Adige/Südtirol, 38032, Italia",Spiz de Soforcela,46.4562288,11.7629015,mountain,region_92
landf_506,"Bivacco Marco Dal Bianco, Via Ferrata Marmolada Cresta Ovest, San Giovanni di Fassa - Sèn Jan, Comun General de Fascia, Provincia di Trento, Trentino-Alto Adige/Südtirol, Italia",Ombreta Orientale,46.4243255,11.8464784,mountain,region_64
landf_507,"San Giovanni di Fassa - Sèn Jan, Comun General de Fascia, Provincia di Trento, Trentino-Alto Adige/Südtirol, 38036, Italia",1. Lämmerkopf - Prima Testa d'Agnello,46.4711805,11.6258023,mountain,region_64
landf_508,"SP66, Riposo, Serso, Pergine Valsugana, Comunità Alta Valsugana e Bersntol, Provincia di Trento, Trentino-Alto Adige/Südtirol, 38057, Italia",Casteller,46.0828068,11.2402045,mountain,region_125
landf_509,"Baita di Monte Silana, Strada forestale Silana, Bosco Santa Maria, Pieve Tesino, Comunità Valsugana e Tesino, Provincia di Trento, Trentino-Alto Adige/Südtirol, 38053, Italia",Monte Silana,46.0812809,11.6032375,mountain,region_53
landf_510,"E349 - Sentiero attrezzato ""Achille Gadler"", Predazzo, Comunità territoriale della Val di Fiemme, Provincia di Trento, Trentino-Alto Adige/Südtirol, Italia",Palòn di Cece,46.2576658,11.6790989,mountain,region_55
landf_511,"Punta Alochet (Cresta De Le Sele) - Lech de la Campagnola, Moena, Comun General de Fascia, Provincia di Trento, Trentino-Alto Adige/Südtirol, 38035, Italia",Punta dele Selle,46.3949547,11.7584856,mountain,region_47
landf_512,"Punta Alochet (Cresta De Le Sele) - Lech de la Campagnola, Moena, Comun General de Fascia, Provincia di Trento, Trentino-Alto Adige/Südtirol, 38035, Italia",Punta Alochet,46.3900719,11.7507259,mountain,region_47
landf_513,"Ricoleta, Moena, Comun General de Fascia, Provincia di Trento, Trentino-Alto Adige/Südtirol, 38035, Italia",Cima Malinverno,46.387374,11.7248648,mountain,region_47
landf_514,"Ricoleta, Moena, Comun General de Fascia, Provincia di Trento, Trentino-Alto Adige/Südtirol, 38035, Italia",Spiz de Tariciogn,46.3858782,11.7400972,mountain,region_47
landf_515,"Pian del Gac - campo di aeromodellismo, Via Val dei Sari, Zetri, Fornace, Comunità Alta Valsugana e Bersntol, Provincia di Trento, Trentino-Alto Adige/Südtirol, 38041, Italia",Monte Gorsa,46.1386071,11.2101956,mountain,region_112
landf_516,"Velo della Madonna, Ferrata della Vecia, Siror, Primiero San Martino di Castrozza, Comunità di Primiero, Provincia di Trento, Trentino-Alto Adige/Südtirol, 38054, Italia",Cima della Madonna,46.2323027,11.8461527,mountain,region_52
landf_517,"Stazione Funivia di Rosetta, Strada forestale Val di Roda, Siror, Primiero San Martino di Castrozza, Comunità di Primiero, Provincia di Trento, Trentino-Alto Adige/Südtirol, Italia",Cima della Rosetta,46.2627327,11.8312066,mountain,region_52
landf_518,"714; 715, Ferrata della Vecia, Siror, Primiero San Martino di Castrozza, Comunità di Primiero, Provincia di Trento, Trentino-Alto Adige/Südtirol, 38054, Italia",Campanile Pradidali,46.24435,11.8451299,mountain,region_52
landf_519,"714; 715, Ferrata della Vecia, Siror, Primiero San Martino di Castrozza, Comunità di Primiero, Provincia di Trento, Trentino-Alto Adige/Südtirol, 38054, Italia",Cima di Ball,46.2429769,11.8446253,mountain,region_52
landf_520,"Sentiero Forestale Prà Molin, Mazzin, Comun General de Fascia, Provincia di Trento, Trentino-Alto Adige/Südtirol, 38031, Italia",Ponjin,46.480579,11.7075883,mountain,region_90
landf_521,"Capitello, Sentiero forestale Scofa, Mazzin - Mazin, Mazzin, Comun General de Fascia, Provincia di Trento, Trentino-Alto Adige/Südtirol, 38030, Italia",Dò Ciuril,46.4700512,11.6910955,mountain,region_119
landf_522,"Prati Ronzi, Siror, Primiero San Martino di Castrozza, Comunità di Primiero, Provincia di Trento, Trentino-Alto Adige/Südtirol, 38054, Italia",Cima di Val di Roda,46.2463073,11.8398668,mountain,region_52
landf_523,"Strada forestale Val di Roda, Siror, Primiero San Martino di Castrozza, Comunità di Primiero, Provincia di Trento, Trentino-Alto Adige/Südtirol, Italia",Col dei Bechi,46.2554215,11.8364381,mountain,region_52
landf_524,"Bivacco Guide Alpine di San Martino, Ferrata della Vecia, Siror, Primiero San Martino di Castrozza, Comunità di Primiero, Provincia di Trento, Trentino-Alto Adige/Südtirol, 38054, Italia",Pala di San Martino,46.2537463,11.8503179,mountain,region_52
landf_525,"Strada forestale Doch - Forcella Calaita, Siror, Primiero San Martino di Castrozza, Comunità di Primiero, Provincia di Trento, Trentino-Alto Adige/Südtirol, 38054, Italia",Col Santo,46.2074138,11.7989967,mountain,region_52
landf_526,"Primiero Dolomiti Marathon, Siror, Primiero San Martino di Castrozza, Comunità di Primiero, Provincia di Trento, Trentino-Alto Adige/Südtirol, 38054, Italia",Spiz del Doch,46.2001123,11.7984769,mountain,region_52
landf_527,"Castello Tesino, Comunità Valsugana e Tesino, Provincia di Trento, Trentino-Alto Adige/Südtirol, 38053, Italia",Col della Croce,46.1649167,11.6381811,mountain,region_17
landf_528,"Castello Tesino, Comunità Valsugana e Tesino, Provincia di Trento, Trentino-Alto Adige/Südtirol, 38053, Italia",Conte Moro,46.1637101,11.6500087,mountain,region_17
landf_529,"Castello Tesino, Comunità Valsugana e Tesino, Provincia di Trento, Trentino-Alto Adige/Südtirol, 38053, Italia",Monte Tolvà,46.1435926,11.6447594,mountain,region_17
landf_530,"Castello Tesino, Comunità Valsugana e Tesino, Provincia di Trento, Trentino-Alto Adige/Südtirol, 38053, Italia",Cima Orena,46.1370525,11.6451945,mountain,region_17
landf_531,"Strada forestale Orena, Castello Tesino, Comunità Valsugana e Tesino, Provincia di Trento, Trentino-Alto Adige/Südtirol, Italia",Monte Timoncello,46.1244612,11.6447917,mountain,region_17
landf_532,"Castello Tesino, Comunità Valsugana e Tesino, Provincia di Trento, Trentino-Alto Adige/Südtirol, 38053, Italia",Col del Rigon,46.1405996,11.6730611,mountain,region_17
landf_533,"Castello Tesino, Comunità Valsugana e Tesino, Provincia di Trento, Trentino-Alto Adige/Südtirol, 38053, Italia",M. Calmandrino,46.1458626,11.6729109,mountain,region_17
landf_534,"Bivacco Guide Alpine di San Martino, Ferrata della Vecia, Siror, Primiero San Martino di Castrozza, Comunità di Primiero, Provincia di Trento, Trentino-Alto Adige/Südtirol, 38054, Italia",Cima Immink,46.2515644,11.8504281,mountain,region_52
landf_535,"Castello Tesino, Comunità Valsugana e Tesino, Provincia di Trento, Trentino-Alto Adige/Südtirol, 38053, Italia",Il Contessat,46.1583172,11.6380281,mountain,region_17
landf_536,"Memoriale Don Italo Girardi, Strada forestale Tolvà - Regana, Castello Tesino, Comunità Valsugana e Tesino, Provincia di Trento, Trentino-Alto Adige/Südtirol, Italia",La Contessa,46.1545676,11.6401174,mountain,region_17
landf_537,"SP79, Cinte Tesino, Comunità Valsugana e Tesino, Provincia di Trento, Trentino-Alto Adige/Südtirol, Italia",Pizzo degli Uccelli,46.1243486,11.6885617,mountain,region_98
landf_538,"Castello Tesino, Comunità Valsugana e Tesino, Provincia di Trento, Trentino-Alto Adige/Südtirol, 38053, Italia",Colle di Coston,46.1343949,11.6762919,mountain,region_17
landf_539,"Traccia Sentiero Lago Pisorno - Agnelessa, Canal San Bovo, Comunità di Primiero, Provincia di Trento, Trentino-Alto Adige/Südtirol, Italia",Agnelessa,46.2130599,11.7750025,mountain,region_88
landf_540,"9, Malga Scanaiòl, Imer, Comunità di Primiero, Provincia di Trento, Trentino-Alto Adige/Südtirol, 38054, Italia",Cima Tognazza,46.2284479,11.7703636,mountain,region_35
landf_541,"Strada forestale Valcorbelle, Cinte Tesino, Comunità Valsugana e Tesino, Provincia di Trento, Trentino-Alto Adige/Südtirol, Italia",Col della Remitta,46.1186488,11.712476,mountain,region_98
landf_542,"714; 715, Ferrata della Vecia, Siror, Primiero San Martino di Castrozza, Comunità di Primiero, Provincia di Trento, Trentino-Alto Adige/Südtirol, 38054, Italia",Cima Pradidali,46.2484306,11.8497027,mountain,region_52
landf_543,"Strada forestale Val Dorda - Val de Neora, Zortea, Canal San Bovo, Comunità di Primiero, Provincia di Trento, Trentino-Alto Adige/Südtirol, Italia",Coston,46.1841,11.7562594,mountain,region_88
landf_544,"Cadinot, Siror, Primiero San Martino di Castrozza, Comunità di Primiero, Provincia di Trento, Trentino-Alto Adige/Südtirol, 38054, Italia",Cimerlo,46.2241618,11.8485892,mountain,region_52
landf_545,"Volta del Corno, Telve, Comunità Valsugana e Tesino, Provincia di Trento, Trentino-Alto Adige/Südtirol, Italia",Col Scandolera,46.1085343,11.4904154,mountain,region_72
landf_546,"Velo della Madonna, Ferrata della Vecia, Siror, Primiero San Martino di Castrozza, Comunità di Primiero, Provincia di Trento, Trentino-Alto Adige/Südtirol, 38054, Italia",Cima della Stanga,46.2286584,11.8472174,mountain,region_52
landf_547,"Sentiero Baraccamenti Baitol, Telve, Comunità Alta Valsugana e Bersntol, Provincia di Trento, Trentino-Alto Adige/Südtirol, Italia",Pala di Cagnon,46.1574467,11.3718135,mountain,region_72
landf_548,"Busa dei Campedei, Bedollo, Comunità Alta Valsugana e Bersntol, Provincia di Trento, Trentino-Alto Adige/Südtirol, 38043, Italia",Schvorzlommer,46.1534722,11.3611557,mountain,region_6
landf_549,"715; 739, Ferrata della Vecia, Siror, Primiero San Martino di Castrozza, Comunità di Primiero, Provincia di Trento, Trentino-Alto Adige/Südtirol, 38054, Italia",Torre Pradidali,46.2475332,11.853226,mountain,region_52
landf_550,"trincea, Torcegno, Comunità Valsugana e Tesino, Provincia di Trento, Trentino-Alto Adige/Südtirol, Italia",Monte del Lago,46.1085357,11.3834441,mountain,region_152
landf_551,"Scala del Tombolin, Bieno, Comunità Valsugana e Tesino, Provincia di Trento, Trentino-Alto Adige/Südtirol, 38050, Italia",Cima del Frate,46.1163165,11.5716411,mountain,region_7
landf_552,"Stalla vecchia, Cavalese, Comunità territoriale della Val di Fiemme, Provincia di Trento, Trentino-Alto Adige/Südtirol, Italia",Cimon del Terzo,46.2061964,11.490719,mountain,region_21
landf_553,"al lago del Forame, Cavalese, Comunità territoriale della Val di Fiemme, Provincia di Trento, Trentino-Alto Adige/Südtirol, Italia",Cimon di Busa Bèla,46.2060561,11.4755817,mountain,region_21
landf_554,"al lago del Forame, Cavalese, Comunità territoriale della Val di Fiemme, Provincia di Trento, Trentino-Alto Adige/Südtirol, Italia",Cimonat,46.2123392,11.4864159,mountain,region_21
landf_555,"La Gadainera, Stal, Vignola, Vignola Falesina, Comunità Alta Valsugana e Bersntol, Provincia di Trento, Trentino-Alto Adige/Südtirol, 38056, Italia",Monte Orno,46.0573558,11.2815401,mountain,region_161
landf_556,"Strada Provinciale 12 di Vignola e Panarotta, La Gadainera, Stal, Vignola, Vignola Falesina, Comunità Alta Valsugana e Bersntol, Provincia di Trento, Trentino-Alto Adige/Südtirol, 38056, Italia",Sèmperspitz,46.0498472,11.3073456,mountain,region_161
landf_557,"Val Male, Siror, Primiero San Martino di Castrozza, Comunità di Primiero, Provincia di Trento, Trentino-Alto Adige/Südtirol, 38054, Italia",Sas del Cogol,46.2159524,11.8247298,mountain,region_52
landf_558,"Strada forestale Val di Roda, Siror, Primiero San Martino di Castrozza, Comunità di Primiero, Provincia di Trento, Trentino-Alto Adige/Südtirol, Italia",Cusiglio,46.2597782,11.8296168,mountain,region_52
landf_559,"Malga Cagnon di Sotto, Telve, Comunità Valsugana e Tesino, Provincia di Trento, Trentino-Alto Adige/Südtirol, Italia",Pala de l'Aiona,46.1634757,11.4130569,mountain,region_72
landf_560,"Passo Mangheneto, Strada Provinciale del Passo del Manghen, Telve, Comunità Valsugana e Tesino, Provincia di Trento, Trentino-Alto Adige/Südtirol, Italia",Manghenéti,46.1710156,11.4294624,mountain,region_72
landf_561,"Baracchetta militare 1918, Strada forestale Vatrighetta - Cagnon, Telve, Comunità Valsugana e Tesino, Provincia di Trento, Trentino-Alto Adige/Südtirol, Italia",Cima Bolénga,46.1626197,11.4054848,mountain,region_72
landf_562,"Tesero, Comunità territoriale della Val di Fiemme, Provincia di Trento, Trentino-Alto Adige/Südtirol, 38038, Italia",Lasteolo sud,46.2151225,11.5435245,mountain,region_156
landf_563,"Siror, Primiero San Martino di Castrozza, Comunità di Primiero, Provincia di Trento, Trentino-Alto Adige/Südtirol, 38054, Italia",Punta Figlio della Rosetta,46.2602805,11.828587,mountain,region_52
landf_564,"Pieve Tesino, Comunità Valsugana e Tesino, Provincia di Trento, Trentino-Alto Adige/Südtirol, 38050, Italia",Cima Segura,46.1364156,11.5810347,mountain,region_53
landf_565,"Ponte forra Sorgazza (inagibile), Pieve Tesino, Comunità Valsugana e Tesino, Provincia di Trento, Trentino-Alto Adige/Südtirol, Italia",Cima Costa Brunella,46.1275072,11.5836664,mountain,region_53
landf_566,"Scala del Tombolin, Bieno, Comunità Valsugana e Tesino, Provincia di Trento, Trentino-Alto Adige/Südtirol, 38050, Italia",Tombolin di Rava,46.1194549,11.5637066,mountain,region_7
landf_567,"Dogo di Quarazza, Pieve Tesino, Comunità Valsugana e Tesino, Provincia di Trento, Trentino-Alto Adige/Südtirol, Italia",M. Fierollo,46.1072354,11.5895619,mountain,region_53
landf_568,"Spiado, Pieve Tesino, Comunità Valsugana e Tesino, Provincia di Trento, Trentino-Alto Adige/Südtirol, 38053, Italia",M. Spiado,46.1040219,11.5890255,mountain,region_53
landf_569,"Sentiero per Busa Alta, Ziano di Fiemme, Comunità territoriale della Val di Fiemme, Provincia di Trento, Trentino-Alto Adige/Südtirol, Italia",Busa Alta Italiana,46.2460726,11.607665,mountain,region_165
landf_570,"Sentiero per Moregna - Giovanni Fifol, Canal San Bovo, Comunità di Primiero, Provincia di Trento, Trentino-Alto Adige/Südtirol, Italia",Cima Moregna,46.2597894,11.6405552,mountain,region_88
landf_571,"Strada forestale Casaiola, Valfloriana, Comunità territoriale della Val di Fiemme, Provincia di Trento, Trentino-Alto Adige/Südtirol, Italia",Dosso della Sella,46.2172936,11.3805971,mountain,region_154
landf_572,"Strada forestale Casaiola, Valfloriana, Comunità territoriale della Val di Fiemme, Provincia di Trento, Trentino-Alto Adige/Südtirol, Italia",Dos da le Laste,46.2279026,11.3846309,mountain,region_154
landf_573,"Strada forestale Val di Roda, Siror, Primiero San Martino di Castrozza, Comunità di Primiero, Provincia di Trento, Trentino-Alto Adige/Südtirol, Italia",Torre Bettega,46.2497816,11.838105,mountain,region_52
landf_574,"Crozi d'Ezze, Telve di Sopra, Comunità Valsugana e Tesino, Provincia di Trento, Trentino-Alto Adige/Südtirol, Italia",Crozi d'Ezze,46.1365291,11.4107156,mountain,region_71
landf_575,"Passo Cadin, Path from Passo Cadino to Malga Fornasa Alta, Valfloriana, Comunità territoriale della Val di Fiemme, Provincia di Trento, Trentino-Alto Adige/Südtirol, Italia",Crozzi Brusadi,46.1601699,11.4006719,mountain,region_72
landf_576,"Strada Forestale Pastronezze, Telve, Comunità Valsugana e Tesino, Provincia di Trento, Trentino-Alto Adige/Südtirol, Italia",Col di Fregio,46.1322983,11.4556638,mountain,region_72
landf_577,"Cippo 14 WWF, Sentiero alto per c. Pastronezze da malga Ezze, Telve di Sopra, Comunità Valsugana e Tesino, Provincia di Trento, Trentino-Alto Adige/Südtirol, Italia",Tornion de l'Agnelessa,46.1383967,11.4206327,mountain,region_71
landf_578,"Torcegno, Comunità Valsugana e Tesino, Provincia di Trento, Trentino-Alto Adige/Südtirol, Italia",Monte Carli,46.1072641,11.4212248,mountain,region_152
landf_579,"Busa di Casa Pinello, ippovia, Ronchi Valsugana, Comunità Valsugana e Tesino, Provincia di Trento, Trentino-Alto Adige/Südtirol, Italia",Col del Chelder,46.0916602,11.3923045,mountain,region_133
landf_580,"Strada forestale Stoi, Cinte Tesino, Comunità Valsugana e Tesino, Provincia di Trento, Trentino-Alto Adige/Südtirol, 38053, Italia",Col delle Bagole,46.0439602,11.5909214,mountain,region_98
landf_581,"Strada forestale Col delle Bagole, Prati di Monte Mezza, Cinte Tesino, Comunità Valsugana e Tesino, Provincia di Trento, Trentino-Alto Adige/Südtirol, 38053, Italia",Pale della Caldiera,46.0354397,11.5943755,mountain,region_98
landf_582,"Strada forestale Prà della Castellana, Cinte Tesino, Comunità Valsugana e Tesino, Provincia di Trento, Trentino-Alto Adige/Südtirol, 38053, Italia",Cima la Presa,46.0543212,11.5845202,mountain,region_98
landf_583,"Strada forestale Stoi, Cinte Tesino, Comunità Valsugana e Tesino, Provincia di Trento, Trentino-Alto Adige/Südtirol, 38053, Italia",Monte Cismon,46.0396956,11.5894946,mountain,region_98
landf_584,"Sentiero per il Cimon de le Buse de l'Oro, Cavalese, Comunità territoriale della Val di Fiemme, Provincia di Trento, Trentino-Alto Adige/Südtirol, Italia",Cimon delle Buse de l'Oro,46.2084875,11.518968,mountain,region_21
landf_585,"Strada forestale Aia del buso - Nassare, Scurelle, Comunità Valsugana e Tesino, Provincia di Trento, Trentino-Alto Adige/Südtirol, Italia",Croz de Conseria,46.1508214,11.5505343,mountain,region_62
landf_586,"Bivacco Guide Alpine di San Martino, Ferrata della Vecia, Siror, Primiero San Martino di Castrozza, Comunità di Primiero, Provincia di Trento, Trentino-Alto Adige/Südtirol, 38054, Italia",Cima delle Scarpe,46.2592147,11.849935,mountain,region_52
landf_587,"Forte Busa Granda, Strada Provinciale per Vetriolo - SP11, Vetriolo Terme, Levico Terme, Comunità Alta Valsugana e Bersntol, Provincia di Trento, Trentino-Alto Adige/Südtirol, 38056, Italia",Busa Grande,46.0356251,11.2983125,mountain,region_34
landf_588,"Percorso Trincee Prima Guerra Mondiale, Scurelle, Comunità Valsugana e Tesino, Provincia di Trento, Trentino-Alto Adige/Südtirol, 38050, Italia",Monte Consèria,46.1495415,11.5545432,mountain,region_62
landf_589,"Strada forestale Pieve Alte, Tesero, Comunità territoriale della Val di Fiemme, Provincia di Trento, Trentino-Alto Adige/Südtirol, 38038, Italia",Monte Prestavel,46.3347386,11.4980547,mountain,region_156
landf_590,"Strada panoramica della Valsugana, Canai, Ronchi Valsugana, Comunità Valsugana e Tesino, Provincia di Trento, Trentino-Alto Adige/Südtirol, 38051, Italia",Colle San Marco,46.0735785,11.4410763,mountain,region_133
landf_591,"Alpenhütte, Sentiero forestale do Peniola, Moena, Comun General de Fascia, Provincia di Trento, Trentino-Alto Adige/Südtirol, 38035, Italia",C. da Ciamp,46.3774843,11.6200799,mountain,region_47
landf_592,"Alpenhütte, Sentiero forestale do Peniola, Moena, Comun General de Fascia, Provincia di Trento, Trentino-Alto Adige/Südtirol, 38035, Italia",M. Toac,46.3778679,11.6111968,mountain,region_47
landf_593,"702; 715, Strada forestale Val di Roda, Siror, Primiero San Martino di Castrozza, Comunità di Primiero, Provincia di Trento, Trentino-Alto Adige/Südtirol, Italia",Rodetta,46.2596597,11.8460512,mountain,region_52
landf_594,"517B, San Giovanni di Fassa - Sèn Jan, Comun General de Fascia, Provincia di Trento, Trentino-Alto Adige/Südtirol, 39056, Italia",Cava del Bol,46.3796757,11.5965396,mountain,region_47
landf_595,"Bait dal Col, Strada forestale di Valsorda, Moena, Comun General de Fascia, Provincia di Trento, Trentino-Alto Adige/Südtirol, Italia",El Col,46.3715683,11.6086071,mountain,region_47
landf_596,"Peniola / Penia, Moena, Comun General de Fascia, Provincia di Trento, Trentino-Alto Adige/Südtirol, 38035, Italia",Sa Coi,46.3693581,11.6224156,mountain,region_47
landf_597,"Peniola / Penia, Moena, Comun General de Fascia, Provincia di Trento, Trentino-Alto Adige/Südtirol, 38035, Italia",La Sèla,46.3668665,11.6236028,mountain,region_47
landf_598,"Valbona, Moena, Comun General de Fascia, Provincia di Trento, Trentino-Alto Adige/Südtirol, 38035, Italia",Col de Poza,46.3499261,11.6747858,mountain,region_47
landf_599,"702; 715, Strada forestale Val di Roda, Siror, Primiero San Martino di Castrozza, Comunità di Primiero, Provincia di Trento, Trentino-Alto Adige/Südtirol, Italia",Croda di Roda,46.2603718,11.8406439,mountain,region_52
landf_600,"Bivacco Argentino, Sentiero della Memoria, Castel Ivano, Comunità Valsugana e Tesino, Provincia di Trento, Trentino-Alto Adige/Südtirol, 38050, Italia",Cima Ravetta,46.1111552,11.5463715,mountain,region_16
landf_601,"Sentiero della Memoria, Castel Ivano, Comunità Valsugana e Tesino, Provincia di Trento, Trentino-Alto Adige/Südtirol, 38050, Italia",Monte Tauro,46.1048433,11.5441162,mountain,region_16
landf_602,"Sentiero della Memoria, Castel Ivano, Comunità Valsugana e Tesino, Provincia di Trento, Trentino-Alto Adige/Südtirol, 38050, Italia",Cima Primaluna,46.1167711,11.5444263,mountain,region_16
landf_603,"Passo Le Selle, Punta Alochet (Cresta De Le Sele) - Lech de la Campagnola, Moena, Comun General de Fascia, Provincia di Trento, Trentino-Alto Adige/Südtirol, 38035, Italia",Picol Laste,46.3999522,11.7639849,mountain,region_47
landf_604,"Ricovero Austriaco, Punta Alochet (Cresta De Le Sele) - Lech de la Campagnola, Moena, Comun General de Fascia, Provincia di Trento, Trentino-Alto Adige/Südtirol, 38035, Italia",Gran Laste,46.4015398,11.7684374,mountain,region_47
landf_605,"Ricoveri austriaci, Punta Alochet (Cresta De Le Sele) - Lech de la Campagnola, Moena, Comun General de Fascia, Provincia di Trento, Trentino-Alto Adige/Südtirol, 38035, Italia",Cima de Campagnacia,46.4011588,11.7739818,mountain,region_47
landf_606,"Banch de la Campagnacia, Strada di Rusci, San Giovanni di Fassa - Sèn Jan, Comun General de Fascia, Provincia di Trento, Trentino-Alto Adige/Südtirol, Italia",Col de Costabela,46.4038582,11.7791753,mountain,region_47
landf_607,"541, San Giovanni di Fassa - Sèn Jan, Comun General de Fascia, Provincia di Trento, Trentino-Alto Adige/Südtirol, Italia",Winklerturm - Torre Winkler,46.4608877,11.6259109,mountain,region_64
landf_608,"Moena, Comun General de Fascia, Provincia di Trento, Trentino-Alto Adige/Südtirol, 38035, Italia",Punta de le Valate,46.405328,11.7976777,mountain,region_47
landf_609,"Cima Uomo, P02, Soraga di Fassa, Comun General de Fascia, Provincia di Trento, Trentino-Alto Adige/Südtirol, Italia",Om Gran,46.4036798,11.7998218,mountain,region_146
landf_610,"Cima Uomo, P02, Soraga di Fassa, Comun General de Fascia, Provincia di Trento, Trentino-Alto Adige/Südtirol, Italia",L'Om Picol,46.3982788,11.7994141,mountain,region_146
landf_611,"I sentieri dell'amicizia, Sentiero alternativo per il passo Cirelle, Fuciade, Soraga di Fassa, Comun General de Fascia, Provincia di Trento, Trentino-Alto Adige/Südtirol, Italia",Palon de Jigolé,46.4084854,11.8275513,mountain,region_146
landf_612,"Cros del Feudo, 50, Predazzo, Comunità territoriale della Val di Fiemme, Provincia di Trento, Trentino-Alto Adige/Südtirol, 38037, Italia",Cima Feudo,46.3579325,11.5699125,mountain,region_55
landf_613,"Cros del Feudo, 50, Predazzo, Comunità territoriale della Val di Fiemme, Provincia di Trento, Trentino-Alto Adige/Südtirol, 38037, Italia",Piz dei Mus Primo,46.3594984,11.5737608,mountain,region_55
landf_614,"50, Predazzo, Comunità territoriale della Val di Fiemme, Provincia di Trento, Trentino-Alto Adige/Südtirol, 38037, Italia",Piz dei Mus Secondo,46.3599813,11.5791044,mountain,region_55
landf_615,"Bivacco Latemar Attilio Sieff, Via Ferrata dei Campanili del Latemar, Predazzo, Comunità territoriale della Val di Fiemme, Provincia di Trento, Trentino-Alto Adige/Südtirol, 39056, Italia",Zan de Montagna,46.3696206,11.5681694,mountain,region_55
landf_616,"50, Predazzo, Comunità territoriale della Val di Fiemme, Provincia di Trento, Trentino-Alto Adige/Südtirol, 38037, Italia",Torre dei Muss,46.3607875,11.5830956,mountain,region_55
landf_617,"Via Ferrata dei Campanili del Latemar, Predazzo, Comunità territoriale della Val di Fiemme, Provincia di Trento, Trentino-Alto Adige/Südtirol, 39056, Italia",Cima di Valsorda,46.3643984,11.5587063,mountain,region_55
landf_618,"Via Ferrata dei Campanili del Latemar, Predazzo, Comunità territoriale della Val di Fiemme, Provincia di Trento, Trentino-Alto Adige/Südtirol, 39056, Italia",Eggentaler Horn - Corno d'Ega,46.3719114,11.5567916,mountain,region_55
landf_619,"Via Ferrata dei Campanili del Latemar, Predazzo, Comunità territoriale della Val di Fiemme, Provincia di Trento, Trentino-Alto Adige/Südtirol, 39056, Italia",Cima del Forcellone - Erzlahnspitze,46.3787665,11.5622885,mountain,region_55
landf_620,"Baito La Bassa, 62, Tesero, Comunità territoriale della Val di Fiemme, Provincia di Trento, Trentino-Alto Adige/Südtirol, 38038, Italia",Censi,46.3261258,11.5372761,mountain,region_156
landf_621,"Armentagiola, Tesero, Comunità territoriale della Val di Fiemme, Provincia di Trento, Trentino-Alto Adige/Südtirol, 38038, Italia",Doss dei Branchi,46.3203954,11.5283209,mountain,region_156
landf_622,"515B, Predazzo, Comunità territoriale della Val di Fiemme, Provincia di Trento, Trentino-Alto Adige/Südtirol, 38037, Italia",Pelenzana,46.3180175,11.5669676,mountain,region_55
landf_623,"Baito de le Pisancae, Sentiero attrezzato Attilio Sieff, Ziano di Fiemme, Comunità territoriale della Val di Fiemme, Provincia di Trento, Trentino-Alto Adige/Südtirol, 38038, Italia",Pisancae,46.306425,11.5586717,mountain,region_165
landf_624,"Ciadinon, Moena, Comun General de Fascia, Provincia di Trento, Trentino-Alto Adige/Südtirol, 38035, Italia",Grontonel,46.3607219,11.7272709,mountain,region_47
landf_625,"Fango, Moena, Comun General de Fascia, Provincia di Trento, Trentino-Alto Adige/Südtirol, 38035, Italia",Camel,46.3640178,11.7389141,mountain,region_47
landf_626,"Ciamp de Ors, Moena, Comun General de Fascia, Provincia di Trento, Trentino-Alto Adige/Südtirol, 38035, Italia",Pamberg,46.3653121,11.7483005,mountain,region_47
landf_627,"Valon Bianch, Canazei, Comun General de Fascia, Provincia di Trento, Trentino-Alto Adige/Südtirol, 38032, Italia",Piz Gralba,46.5210068,11.792511,mountain,region_92
landf_628,"Valon Bianch, Canazei, Comun General de Fascia, Provincia di Trento, Trentino-Alto Adige/Südtirol, 38032, Italia",Piz Beguz,46.5277578,11.800367,mountain,region_92
landf_629,"Valon Bianch, Canazei, Comun General de Fascia, Provincia di Trento, Trentino-Alto Adige/Südtirol, 38032, Italia",Torre di Roces,46.5153532,11.8053089,mountain,region_92
landf_630,"Valon Bianch, Canazei, Comun General de Fascia, Provincia di Trento, Trentino-Alto Adige/Südtirol, 38032, Italia",Torre di Siela,46.5144082,11.7986356,mountain,region_92
landf_631,"Valon del Fos, Canazei, Comun General de Fascia, Provincia di Trento, Trentino-Alto Adige/Südtirol, 38032, Italia",P. ta de Joel,46.5017131,11.8230407,mountain,region_92
landf_632,"Traccia Sentiero Lago Pisorno - Agnelessa, Mezzano, Comunità di Primiero, Provincia di Trento, Trentino-Alto Adige/Südtirol, Italia",Cima di Grugola,46.2006408,11.7586464,mountain,region_116
landf_633,"541, San Giovanni di Fassa - Sèn Jan, Comun General de Fascia, Provincia di Trento, Trentino-Alto Adige/Südtirol, Italia",Stabelerturm - Torre Stabeler,46.4609653,11.6252243,mountain,region_64
landf_634,"Via Ferrata Laurenzi, Mazzin, Comun General de Fascia, Provincia di Trento, Trentino-Alto Adige/Südtirol, Italia",Mittlere Grasleitenspitze - Cima del Principe,46.4868528,11.6372182,mountain,region_119
landf_635,"541, San Giovanni di Fassa - Sèn Jan, Comun General de Fascia, Provincia di Trento, Trentino-Alto Adige/Südtirol, Italia",Nordturm - Torre Nord,46.4623807,11.626975,mountain,region_64
landf_636,"541, San Giovanni di Fassa - Sèn Jan, Comun General de Fascia, Provincia di Trento, Trentino-Alto Adige/Südtirol, Italia",Schartenturm - Torre del Passo,46.4640151,11.6281293,mountain,region_64
landf_637,"Castelrotto, Scalette, Sièga, L'oro, Tomaselli, Castel Ivano, Comunità Valsugana e Tesino, Provincia di Trento, Trentino-Alto Adige/Südtirol, 38059, Italia",Col dei Trenti,46.0669388,11.5265244,mountain,region_16
landf_638,"Vallon delle Lede, Tonadico, Primiero San Martino di Castrozza, Comunità di Primiero, Provincia di Trento, Trentino-Alto Adige/Südtirol, Italia",Cima La Fradusta,46.2510705,11.8734312,mountain,region_52
landf_639,"Pedemonte, Tonadico, Primiero San Martino di Castrozza, Comunità di Primiero, Provincia di Trento, Trentino-Alto Adige/Südtirol, 38054, Italia",Sass Maòr,46.2326015,11.8487277,mountain,region_52
landf_640,"Sentiero Vani Alti, Tonadico, Primiero San Martino di Castrozza, Comunità di Primiero, Provincia di Trento, Trentino-Alto Adige/Südtirol, Italia",Sass d'Ortiga,46.237333,11.9160665,mountain,region_52
landf_641,"Sentiero per Moregna - Giovanni Fifol, Predazzo, Comunità territoriale della Val di Fiemme, Provincia di Trento, Trentino-Alto Adige/Südtirol, Italia",Cima di Valbona,46.2559238,11.6496235,mountain,region_55
landf_642,"nuova variante della mulattiera di Sadole causa interruzione vecchia mulattiera, Ziano di Fiemme, Comunità territoriale della Val di Fiemme, Provincia di Trento, Trentino-Alto Adige/Südtirol, Italia",Mandriccione,46.251208,11.5884607,mountain,region_165
landf_643,"nuova variante della mulattiera di Sadole causa interruzione vecchia mulattiera, Ziano di Fiemme, Comunità territoriale della Val di Fiemme, Provincia di Trento, Trentino-Alto Adige/Südtirol, Italia",Beco dei Slavaci,46.2543037,11.5898777,mountain,region_165
landf_644,"nuova variante della mulattiera di Sadole causa interruzione vecchia mulattiera, Ziano di Fiemme, Comunità territoriale della Val di Fiemme, Provincia di Trento, Trentino-Alto Adige/Südtirol, Italia",Camin,46.248853,11.5867337,mountain,region_165
landf_645,"Sentiero Attrezzato Fiamme Gialle, Tonadico, Primiero San Martino di Castrozza, Comunità di Primiero, Provincia di Trento, Trentino-Alto Adige/Südtirol, Italia",Croda Granda,46.2487483,11.9290873,mountain,region_52
landf_646,"Vallon delle Lede, Tonadico, Primiero San Martino di Castrozza, Comunità di Primiero, Provincia di Trento, Trentino-Alto Adige/Südtirol, Italia",Sasso delle Lede,46.2392501,11.8735956,mountain,region_52
landf_647,"Pedemonte, Tonadico, Primiero San Martino di Castrozza, Comunità di Primiero, Provincia di Trento, Trentino-Alto Adige/Südtirol, 38054, Italia",Cima Canali,46.2439504,11.8636961,mountain,region_52
landf_648,"Sentiero attrezzato ""Achille Gadler"", San Martino di Castrozza, Primiero San Martino di Castrozza, Comunità di Primiero, Provincia di Trento, Trentino-Alto Adige/Südtirol, Italia",C. Stradòn,46.2841153,11.74977,mountain,region_52
landf_649,"Val Cremana, San Martino di Castrozza, Primiero San Martino di Castrozza, Comunità di Primiero, Provincia di Trento, Trentino-Alto Adige/Südtirol, Italia",Bragaröl,46.2794043,11.7220088,mountain,region_52
landf_650,"Predazzo, Comunità territoriale della Val di Fiemme, Provincia di Trento, Trentino-Alto Adige/Südtirol, 38037, Italia",Castel,46.2793926,11.686541,mountain,region_55
landf_651,"Sentiero Passo Regade, Tonadico, Primiero San Martino di Castrozza, Comunità di Primiero, Provincia di Trento, Trentino-Alto Adige/Südtirol, Italia",Cima Feltraio,46.2125058,11.9013499,mountain,region_52
landf_652,"Sentiero Vani Alti, Tonadico, Primiero San Martino di Castrozza, Comunità di Primiero, Provincia di Trento, Trentino-Alto Adige/Südtirol, Italia",Cima Sant'Anna,46.2405623,11.9134047,mountain,region_52
landf_653,"Busa dei Slavaci, Predazzo, Comunità territoriale della Val di Fiemme, Provincia di Trento, Trentino-Alto Adige/Südtirol, Italia",Dos de le Nòre,46.2670854,11.6422305,mountain,region_55
landf_654,"LO4, Cavalese, Comunità territoriale della Val di Fiemme, Provincia di Trento, Trentino-Alto Adige/Südtirol, Italia",Corde de Bombasèl,46.2258724,11.5115559,mountain,region_21
landf_655,"Pian delle Lede, Tonadico, Primiero San Martino di Castrozza, Comunità di Primiero, Provincia di Trento, Trentino-Alto Adige/Südtirol, Italia",Cima Sforcelloni,46.2297778,11.9130351,mountain,region_52
landf_656,"Pedemonte, Tonadico, Primiero San Martino di Castrozza, Comunità di Primiero, Provincia di Trento, Trentino-Alto Adige/Südtirol, 38054, Italia",Cima Wilma,46.2464475,11.8649815,mountain,region_52
landf_657,"Ziano di Fiemme, Comunità territoriale della Val di Fiemme, Provincia di Trento, Trentino-Alto Adige/Südtirol, 38030, Italia",I Becari,46.2688686,11.617978,mountain,region_165
landf_658,"Sentiero Passo Regade, Tonadico, Primiero San Martino di Castrozza, Comunità di Primiero, Provincia di Trento, Trentino-Alto Adige/Südtirol, Italia",Cima d'Oltro,46.2207565,11.9068508,mountain,region_52
landf_659,"Vallon delle Lede, Tonadico, Primiero San Martino di Castrozza, Comunità di Primiero, Provincia di Trento, Trentino-Alto Adige/Südtirol, Italia",Cima d'Ostio,46.2337853,11.8791881,mountain,region_52
landf_660,"Buse Alte, Tonadico, Primiero San Martino di Castrozza, Comunità di Primiero, Provincia di Trento, Trentino-Alto Adige/Südtirol, Italia",Cima di Lastéi,46.2477428,11.8917202,mountain,region_52
landf_661,"Vallon delle Lede, Tonadico, Primiero San Martino di Castrozza, Comunità di Primiero, Provincia di Trento, Trentino-Alto Adige/Südtirol, Italia",Cima di Sèdole,46.2349103,11.8840293,mountain,region_52
landf_662,"Sentiero Vani Alti, Tonadico, Primiero San Martino di Castrozza, Comunità di Primiero, Provincia di Trento, Trentino-Alto Adige/Südtirol, Italia",Cime Vani Alti,46.2438976,11.9208561,mountain,region_52
landf_663,"Sentiero Attrezzato Fiamme Gialle, Tonadico, Primiero San Martino di Castrozza, Comunità di Primiero, Provincia di Trento, Trentino-Alto Adige/Südtirol, Italia",Cime del Coro,46.2507768,11.9145338,mountain,region_52
landf_664,"SS347, Padreterno, Tonadico, Primiero San Martino di Castrozza, Comunità di Primiero, Provincia di Trento, Trentino-Alto Adige/Südtirol, Italia",Col Molinai,46.1970686,11.9084468,mountain,region_52
landf_665,"Mostra fotografica ""Guerra alla Guerra"", Variante 609, San Giovanni di Fassa - Sèn Jan, Comun General de Fascia, Provincia di Trento, Trentino-Alto Adige/Südtirol, Italia",Castello di Costabella,46.4034414,11.7879596,mountain,region_47
landf_666,"Sentiero Passo Regade, Tonadico, Primiero San Martino di Castrozza, Comunità di Primiero, Provincia di Trento, Trentino-Alto Adige/Südtirol, Italia",Le Rocchette,46.2168215,11.9045548,mountain,region_52
landf_667,"Banch de la Campagnacia, Strada di Rusci, San Giovanni di Fassa - Sèn Jan, Comun General de Fascia, Provincia di Trento, Trentino-Alto Adige/Südtirol, Italia",Cima di Costabella,46.4040014,11.7792887,mountain,region_47
landf_668,"trincea, Torcegno, Comunità Valsugana e Tesino, Provincia di Trento, Trentino-Alto Adige/Südtirol, Italia",Cima Cavè,46.11156,11.38523,mountain,region_152
landf_669,"Forcella Viosa o Sternozzena, Strada forestale Viosa, Castello Tesino, Comunità Valsugana e Tesino, Provincia di Trento, Trentino-Alto Adige/Südtirol, Italia",Cima Spiaz,46.1358531,11.6683742,mountain,region_17
landf_670,"Pian delle Lede, Tonadico, Primiero San Martino di Castrozza, Comunità di Primiero, Provincia di Trento, Trentino-Alto Adige/Südtirol, Italia",Pala dei Colombi,46.2427956,11.8958879,mountain,region_52
landf_671,"Pian delle Lede, Tonadico, Primiero San Martino di Castrozza, Comunità di Primiero, Provincia di Trento, Trentino-Alto Adige/Südtirol, Italia",Pala del Rifugio,46.2378821,11.9095542,mountain,region_52
landf_672,"Strada forestale Fraton Alto, Tonadico, Primiero San Martino di Castrozza, Comunità di Primiero, Provincia di Trento, Trentino-Alto Adige/Südtirol, Italia",Pale del Garfol,46.1825464,11.9224158,mountain,region_52
landf_673,"Parcheggio Parco, Via per la Panarotta, Assizzi, Pergine Valsugana, Comunità Alta Valsugana e Bersntol, Provincia di Trento, Trentino-Alto Adige/Südtirol, 38057, Italia",Dòs de Valàr,46.0540405,11.2568142,mountain,region_125
landf_674,"Bait Toal Mason, SS346, Moena, Comun General de Fascia, Provincia di Trento, Trentino-Alto Adige/Südtirol, 38035, Italia",Lom,46.3769866,11.7167976,mountain,region_47
landf_675,"Passo Scalet, Sentiero Baraccamenti Baitol, Telve, Comunità Valsugana e Tesino, Provincia di Trento, Trentino-Alto Adige/Südtirol, Italia",Col del Craiz,46.1673207,11.3883,mountain,region_72
landf_676,"Busa dei Campedei, Bedollo, Comunità Alta Valsugana e Bersntol, Provincia di Trento, Trentino-Alto Adige/Südtirol, 38043, Italia",Oltnmonn,46.1515477,11.3553743,mountain,region_6
landf_677,"trincea, Torcegno, Comunità Valsugana e Tesino, Provincia di Trento, Trentino-Alto Adige/Südtirol, Italia",Cima delle Lepri,46.1136,11.38537,mountain,region_152
landf_678,"Senter de Vall'orca, Molino Sassi Grandi, Pergine Valsugana, Comunità Alta Valsugana e Bersntol, Provincia di Trento, Trentino-Alto Adige/Südtirol, 38042, Italia",Dos dei Maregi,46.0982963,11.2479526,mountain,region_125
landf_679,"Pian delle Lede, Tonadico, Primiero San Martino di Castrozza, Comunità di Primiero, Provincia di Trento, Trentino-Alto Adige/Südtirol, Italia",Punta della Madonna,46.231675,11.9122487,mountain,region_52
landf_680,"Sass delle Parole, Strada forestale Socina, Bedollo, Comunità Alta Valsugana e Bersntol, Provincia di Trento, Trentino-Alto Adige/Südtirol, 38043, Italia",Piz Comboni,46.1879155,11.3084422,mountain,region_6
landf_681,"Postazione italiana, E628, Moena, Comun General de Fascia, Provincia di Trento, Trentino-Alto Adige/Südtirol, 38035, Italia",Col de le Palue,46.3674894,11.7624856,mountain,region_47
landf_682,"Sentiero per Moregna - Giovanni Fifol, Predazzo, Comunità territoriale della Val di Fiemme, Provincia di Trento, Trentino-Alto Adige/Südtirol, Italia",Cima Puchtateinz,46.2578925,11.6302893,mountain,region_55
landf_683,"La trincea 2425m, Al lago Gronton, Moena, Comun General de Fascia, Provincia di Trento, Trentino-Alto Adige/Südtirol, 38035, Italia",Cima di Lusia - Cimon de Lujia,46.3462454,11.7291805,mountain,region_47
landf_684,"Sentiero Passo Regade, Tonadico, Primiero San Martino di Castrozza, Comunità di Primiero, Provincia di Trento, Trentino-Alto Adige/Südtirol, Italia",Tacca Bianca,46.2110724,11.8933605,mountain,region_52
landf_685,"passaggio molto esposto, Strada forestale Pinteri, Mezzano, Comunità di Primiero, Provincia di Trento, Trentino-Alto Adige/Südtirol, Italia",Monte Zoccare Alto,46.1294804,11.8976135,mountain,region_116
landf_686,"Normale cima Mastorna Orientale, Tonadico, Primiero San Martino di Castrozza, Comunità di Primiero, Provincia di Trento, Trentino-Alto Adige/Südtirol, Italia",Cima Mastorna Orientale,46.2515512,11.8972716,mountain,region_52
landf_687,"Sentiero Vani Alti, Tonadico, Primiero San Martino di Castrozza, Comunità di Primiero, Provincia di Trento, Trentino-Alto Adige/Südtirol, Italia",Sass da Camp,46.2435761,11.9243635,mountain,region_52
landf_688,"Passo Fregasoga, Sentiero Baraccamenti Baitol, Telve, Comunità Valsugana e Tesino, Provincia di Trento, Trentino-Alto Adige/Südtirol, Italia",Crozi de la Busona,46.1802085,11.3814389,mountain,region_72
landf_689,"Passo delle Regade, Sentiero Passo Regade, Tonadico, Primiero San Martino di Castrozza, Comunità di Primiero, Provincia di Trento, Trentino-Alto Adige/Südtirol, Italia",Cima Regade,46.2088287,11.896926,mountain,region_52
landf_690,"Sentiero Prima Guerra Mondiale, Frassilongo - Garait, Comunità Alta Valsugana e Bersntol, Provincia di Trento, Trentino-Alto Adige/Südtirol, Italia",Jechl,46.0772584,11.3435799,mountain,region_107
landf_691,"Bedolé, Strada forestale Cosaipi, Transacqua, Primiero San Martino di Castrozza, Comunità di Primiero, Provincia di Trento, Trentino-Alto Adige/Südtirol, 38054, Italia",Bedolé,46.1837619,11.8029481,mountain,region_52
landf_692,"Strada Forestale Giasinozza, Transacqua, Primiero San Martino di Castrozza, Comunità di Primiero, Provincia di Trento, Trentino-Alto Adige/Südtirol, Italia",Cima Palughet,46.1818225,11.9116243,mountain,region_52
landf_693,"Croce del Padela, Strada forestale Roncon, Transacqua, Primiero San Martino di Castrozza, Comunità di Primiero, Provincia di Trento, Trentino-Alto Adige/Südtirol, 38054, Italia",Croce di Padela,46.1658692,11.86704,mountain,region_52
landf_694,"P02, Soraga di Fassa, Comun General de Fascia, Provincia di Trento, Trentino-Alto Adige/Südtirol, Italia",Cima Cadine,46.4108745,11.8171836,mountain,region_146
landf_695,"Strada Forestale Giasinozza, Giasinozza, Transacqua, Primiero San Martino di Castrozza, Comunità di Primiero, Provincia di Trento, Trentino-Alto Adige/Südtirol, Italia",Col Guion,46.1607089,11.8649352,mountain,region_52
landf_696,"Frazione Slaghenaufi, Slaghenaufi, Lavarone, Magnifica Comunità degli Altipiani Cimbri, Provincia di Trento, Trentino-Alto Adige/Südtirol, 38046, Italia",Monte Cimon,45.9654493,11.2667211,mountain,region_38
landf_697,"Strada forestale Pretecasa - Stadel, Transacqua, Primiero San Martino di Castrozza, Comunità di Primiero, Provincia di Trento, Trentino-Alto Adige/Südtirol, 38054, Italia",Colle Cenguei,46.1787056,11.8620822,mountain,region_52
landf_698,"Pont de la Rio, Sover, Comunità della Valle di Cembra, Provincia di Trento, Trentino-Alto Adige/Südtirol, 38092, Italia",Castelét,46.220415,11.3037624,mountain,region_145
landf_699,"Strada Provinciale 12 di Vignola e Panarotta, La Gadainera, Stal, Vignola, Vignola Falesina, Comunità Alta Valsugana e Bersntol, Provincia di Trento, Trentino-Alto Adige/Südtirol, 38056, Italia",Semper Spitz,46.0512949,11.2941352,mountain,region_161
landf_700,"Sentiero Baraccamenti Baitol, Telve, Comunità Valsugana e Tesino, Provincia di Trento, Trentino-Alto Adige/Südtirol, Italia",Campanile del Baitol,46.1618941,11.3819426,mountain,region_72
landf_701,"Strada forestale Roncon, Transacqua, Primiero San Martino di Castrozza, Comunità di Primiero, Provincia di Trento, Trentino-Alto Adige/Südtirol, 38054, Italia",Colle Stiozze,46.1789028,11.8683247,mountain,region_52
landf_702,"non segnato, Pieve Tesino, Comunità Valsugana e Tesino, Provincia di Trento, Trentino-Alto Adige/Südtirol, Italia",Sasso Largo,46.1588034,11.6065407,mountain,region_53
landf_703,"Rifugio Capanna al Ghiacciaio, 31, Via Ferrata Marmolada Cresta Ovest, Canazei, Comun General de Fascia, Provincia di Trento, Trentino-Alto Adige/Südtirol, 38032, Italia",Sas da les doudesc,46.446453,11.865257,mountain,region_92
landf_704,"Serauta, Canazei, Comun General de Fascia, Provincia di Trento, Trentino-Alto Adige/Südtirol, Italia",Sas da les Undesc,46.4450163,11.8737969,mountain,region_92
landf_705,"Pisa Bòi, Strada forestale Molinazza, Niosa, Transacqua, Primiero San Martino di Castrozza, Comunità di Primiero, Provincia di Trento, Trentino-Alto Adige/Südtirol, 38054, Italia",Sanguarna,46.1782524,11.8506573,mountain,region_52
landf_706,"Croce del Padela, Strada forestale Roncon, Transacqua, Primiero San Martino di Castrozza, Comunità di Primiero, Provincia di Trento, Trentino-Alto Adige/Südtirol, 38054, Italia",Sasso Padella,46.1647465,11.8643702,mountain,region_52
landf_707,"Val Cesure, Transacqua, Primiero San Martino di Castrozza, Comunità di Primiero, Provincia di Trento, Trentino-Alto Adige/Südtirol, Italia",Cima Spizòti,46.1488995,11.892291,mountain,region_52
landf_708,"Val Sbrendòle, Transacqua, Primiero San Martino di Castrozza, Comunità di Primiero, Provincia di Trento, Trentino-Alto Adige/Südtirol, Italia",Cima Spizòti,46.1503256,11.8913566,mountain,region_52
landf_709,"Col di S. Piero, Strada forestale Neva, Malga Neva Seconda, Transacqua, Primiero San Martino di Castrozza, Comunità di Primiero, Provincia di Trento, Trentino-Alto Adige/Südtirol, Italia",Col San Pietro,46.1504895,11.9009939,mountain,region_52
landf_710,"Val del Mat, Transacqua, Primiero San Martino di Castrozza, Comunità di Primiero, Provincia di Trento, Trentino-Alto Adige/Südtirol, Italia",Costa di Cogn,46.165522,11.8996456,mountain,region_52
landf_711,"Strada forestale Neva, Malga Neva Seconda, Transacqua, Primiero San Martino di Castrozza, Comunità di Primiero, Provincia di Trento, Trentino-Alto Adige/Südtirol, Italia",Monte Neva,46.1561816,11.9093502,mountain,region_52
landf_712,"traccia per Passo diavoli, Castello Tesino, Comunità Valsugana e Tesino, Provincia di Trento, Trentino-Alto Adige/Südtirol, Italia",Cima della Banca,46.171557,11.6121375,mountain,region_17
landf_713,"Masgerom, Pieve Tesino, Comunità Valsugana e Tesino, Provincia di Trento, Trentino-Alto Adige/Südtirol, Italia",Montalon,46.1909887,11.5081144,mountain,region_53
landf_714,"Strada forestale Lavinaia, Toè, Transacqua, Primiero San Martino di Castrozza, Comunità di Primiero, Provincia di Trento, Trentino-Alto Adige/Südtirol, Italia",Colspiz,46.1833244,11.8908212,mountain,region_52
landf_715,"Sentiero del Monte Picosta, Castello Tesino, Comunità Valsugana e Tesino, Provincia di Trento, Trentino-Alto Adige/Südtirol, 38053, Italia",Monte Picosta,46.0544755,11.667783,mountain,region_17
landf_716,"E349 - Sentiero attrezzato ""Achille Gadler"", Predazzo, Comunità territoriale della Val di Fiemme, Provincia di Trento, Trentino-Alto Adige/Südtirol, Italia",Cima Valonàt,46.2624369,11.695895,mountain,region_55
landf_717,"E349 - Sentiero attrezzato ""Achille Gadler"", Predazzo, Comunità territoriale della Val di Fiemme, Provincia di Trento, Trentino-Alto Adige/Südtirol, Italia",Sentinella del Valonat,46.2623435,11.6926175,mountain,region_55
landf_718,"E349 - Sentiero attrezzato ""Achille Gadler"", Predazzo, Comunità territoriale della Val di Fiemme, Provincia di Trento, Trentino-Alto Adige/Südtirol, Italia",Pilastro Est di Cece,46.2621127,11.688026,mountain,region_55
landf_719,"Transacqua, Primiero San Martino di Castrozza, Comunità di Primiero, Provincia di Trento, Trentino-Alto Adige/Südtirol, 38054, Italia",Dalàibol,46.2011865,11.8946695,mountain,region_52
landf_720,"Via Ferrata delle Trincee, Canazei, Comun General de Fascia, Provincia di Trento, Trentino-Alto Adige/Südtirol, Italia",Mesola,46.4725488,11.8755471,mountain,region_92
landf_721,"13, Untere Kugelalm - Malga Cùgola bassa, Unterradein - Redagno di Sotto, Ville di Fiemme, Comunità territoriale della Val di Fiemme, Provincia di Trento, Trentino-Alto Adige/Südtirol, 39040, Italia",Cugola,46.3241664,11.4317083,mountain,region_15
landf_722,"Strada Val Venegia, San Martino di Castrozza, Primiero San Martino di Castrozza, Comunità di Primiero, Provincia di Trento, Trentino-Alto Adige/Südtirol, Italia",Cima di Val Grande,46.3007442,11.8341938,mountain,region_52
landf_723,"Via Maso Monte Calvo, Mas del Ghiga, Pergine Valsugana, Comunità Alta Valsugana e Bersntol, Provincia di Trento, Trentino-Alto Adige/Südtirol, 38042, Italia",Dos del Dorigo,46.0952889,11.2588325,mountain,region_125
landf_724,"Forcella Cavallazza, 15, San Martino di Castrozza, Primiero San Martino di Castrozza, Comunità di Primiero, Provincia di Trento, Trentino-Alto Adige/Südtirol, Italia",Cavallazza Piccola,46.280314,11.7828903,mountain,region_52
landf_725,"Via Ferrata dei Campanili del Latemar, Predazzo, Comunità territoriale della Val di Fiemme, Provincia di Trento, Trentino-Alto Adige/Südtirol, 39056, Italia",Muttergottes,46.3840265,11.5635315,mountain,region_55
landf_726,"50, Predazzo, Comunità territoriale della Val di Fiemme, Provincia di Trento, Trentino-Alto Adige/Südtirol, 38037, Italia",Migòn de le Père,46.3477972,11.5821085,mountain,region_55
landf_727,"Al lago Gronton, Moena, Comun General de Fascia, Provincia di Trento, Trentino-Alto Adige/Südtirol, 38035, Italia",Cima de le Mandre,46.3476439,11.7173395,mountain,region_47
landf_728,"Alta Via di Viezena, Predazzo, Comunità territoriale della Val di Fiemme, Provincia di Trento, Trentino-Alto Adige/Südtirol, 38035, Italia",Le Cune,46.3443144,11.6902369,mountain,region_55
landf_729,"Valon del Fos, Canazei, Comun General de Fascia, Provincia di Trento, Trentino-Alto Adige/Südtirol, 38032, Italia",Torre Roma,46.4991018,11.8202641,mountain,region_92
landf_730,"Valon del Fos, Canazei, Comun General de Fascia, Provincia di Trento, Trentino-Alto Adige/Südtirol, 38032, Italia",Sass de Forcia Occidentale,46.5005716,11.8124624,mountain,region_92
landf_731,"Valon del Fos, Canazei, Comun General de Fascia, Provincia di Trento, Trentino-Alto Adige/Südtirol, 38032, Italia",Sass de Forcia di Mezzo,46.5002017,11.8173479,mountain,region_92
landf_732,"Valon del Fos, Canazei, Comun General de Fascia, Provincia di Trento, Trentino-Alto Adige/Südtirol, 38032, Italia",Sass de Forcia Orientale,46.5014536,11.8217159,mountain,region_92
landf_733,"Sentiero militare del Grontòn, Moena, Comun General de Fascia, Provincia di Trento, Trentino-Alto Adige/Südtirol, 38035, Italia",Spiz del Gronton,46.3536328,11.7437232,mountain,region_47
landf_734,"Ciadin Bel, Moena, Comun General de Fascia, Provincia di Trento, Trentino-Alto Adige/Südtirol, 38035, Italia",Sas da la Crousc,46.3857236,11.694761,mountain,region_47
landf_735,"Sentiero Claudio Scarian, Ville di Fiemme, Comunità territoriale della Val di Fiemme, Provincia di Trento, Trentino-Alto Adige/Südtirol, 38033, Italia",Pozzi,46.3283371,11.4678334,mountain,region_15
landf_736,"Ripetitore, Bancoline - Cucal, Ville di Fiemme, Comunità territoriale della Val di Fiemme, Provincia di Trento, Trentino-Alto Adige/Südtirol, 38033, Italia",Cucal,46.3097826,11.485938,mountain,region_15
landf_737,"Strada de Val de Barch, Viarago, Pergine Valsugana, Comunità Alta Valsugana e Bersntol, Provincia di Trento, Trentino-Alto Adige/Südtirol, 38042, Italia",Dosso del Pratond,46.0913298,11.256345,mountain,region_125
landf_738,"Maso Fenugola, Viarago, Pergine Valsugana, Comunità Alta Valsugana e Bersntol, Provincia di Trento, Trentino-Alto Adige/Südtirol, 38042, Italia",Dos de Vedesena,46.0841514,11.2538518,mountain,region_125
landf_739,"Strada dei Revèrsi, Riposo, Viarago, Pergine Valsugana, Comunità Alta Valsugana e Bersntol, Provincia di Trento, Trentino-Alto Adige/Südtirol, 38042, Italia",Dos de Cagnon,46.0895592,11.2483522,mountain,region_125
landf_740,"Mezadoi, Viarago, Pergine Valsugana, Comunità Alta Valsugana e Bersntol, Provincia di Trento, Trentino-Alto Adige/Südtirol, 38042, Italia",Dos de la Predolcia,46.0859062,11.2641646,mountain,region_125
landf_741,"Via dei vescovi Madruzzo, Poggio dei Pini, Cadrobbi, Vigo, Baselga di Piné, Comunità Alta Valsugana e Bersntol, Provincia di Trento, Trentino-Alto Adige/Südtirol, 38042, Italia",Dosso di Vigo,46.1277386,11.2412194,mountain,region_5
landf_742,"SP215, Tesero, Comunità territoriale della Val di Fiemme, Provincia di Trento, Trentino-Alto Adige/Südtirol, 39050, Italia",Cima Valbona,46.3610568,11.5586057,mountain,region_156
landf_743,"Castel Belvedere, Piazzola legname, Grill, Vigo, Baselga di Piné, Comunità Alta Valsugana e Bersntol, Provincia di Trento, Trentino-Alto Adige/Südtirol, 38042, Italia",Dos de la Mot,46.1118091,11.2381683,mountain,region_5
landf_744,"Scagnel dei strachi, Via della Palustèla, Poggio dei Pini, Ferrari, Vigo, Baselga di Piné, Comunità Alta Valsugana e Bersntol, Provincia di Trento, Trentino-Alto Adige/Südtirol, 38042, Italia",Dossedel,46.1246264,11.2361569,mountain,region_5
landf_745,"Pista ciclopedonale Montagnaga - Ferrari, Poggio dei Pini, Ferrari, Vigo, Baselga di Piné, Comunità Alta Valsugana e Bersntol, Provincia di Trento, Trentino-Alto Adige/Südtirol, 38042, Italia",Dos Alt,46.1192871,11.2319904,mountain,region_5
landf_746,"Strada forestale Rì de la Bastia, Moena, Comun General de Fascia, Provincia di Trento, Trentino-Alto Adige/Südtirol, 38035, Italia",Doss Colvere,46.3595458,11.6987042,mountain,region_47
landf_747,"Via delle Mèie, Bugno, Mas del Plancher, Vigo, Baselga di Piné, Comunità Alta Valsugana e Bersntol, Provincia di Trento, Trentino-Alto Adige/Südtirol, 38042, Italia",Dos dei Ronchi,46.1180671,11.2435949,mountain,region_5
landf_748,"Strada forestale Val Fontane, Castello Tesino, Comunità Valsugana e Tesino, Provincia di Trento, Trentino-Alto Adige/Südtirol, 38053, Italia",Monte Gorgantile,46.1074684,11.6662872,mountain,region_17
landf_749,"Strada forestale Visle, Borgo Valsugana, Comunità Valsugana e Tesino, Provincia di Trento, Trentino-Alto Adige/Südtirol, 38051, Italia",Puisle,46.0320363,11.4212086,mountain,region_132
landf_750,"Rotwand-Klettersteig - Via Ferrata Roda di Vaèl, San Giovanni di Fassa - Sèn Jan, Comun General de Fascia, Provincia di Trento, Trentino-Alto Adige/Südtirol, 39056, Italia",Roda di Vaèl - Rotwand,46.4254208,11.6199047,mountain,region_64
landf_751,"Baita Marino Pederiva, Abstieg vom Masarè-Klettersteig, San Giovanni di Fassa - Sèn Jan, Comun General de Fascia, Provincia di Trento, Trentino-Alto Adige/Südtirol, 38039, Italia",Col de Ciampac,46.4199435,11.6320386,mountain,region_64
landf_752,"San Giovanni di Fassa - Sèn Jan, Comun General de Fascia, Provincia di Trento, Trentino-Alto Adige/Südtirol, 38036, Italia",El Gronton,46.3822889,11.6059784,mountain,region_64
landf_753,"Vial de la Feide - Sentiero delle Pecore, San Giovanni di Fassa - Sèn Jan, Comun General de Fascia, Provincia di Trento, Trentino-Alto Adige/Südtirol, 38036, Italia",I Mugoni,46.433672,11.6268008,mountain,region_64
landf_754,"Vial de la Feide - Sentiero delle Pecore, San Giovanni di Fassa - Sèn Jan, Comun General de Fascia, Provincia di Trento, Trentino-Alto Adige/Südtirol, 38036, Italia",Le Zigolade,46.4325646,11.6346545,mountain,region_64
landf_755,"Vial de la Feide - Sentiero delle Pecore, San Giovanni di Fassa - Sèn Jan, Comun General de Fascia, Provincia di Trento, Trentino-Alto Adige/Südtirol, 38039, Italia",Pale Rabbiose,46.4319844,11.6411395,mountain,region_64
landf_756,"Strada forestale Pian da le Trapole, San Giovanni di Fassa - Sèn Jan, Comun General de Fascia, Provincia di Trento, Trentino-Alto Adige/Südtirol, 38036, Italia",Sas Aut,46.4035085,11.702393,mountain,region_64
landf_757,"Rotwand-Klettersteig - Via Ferrata Roda di Vaèl, San Giovanni di Fassa - Sèn Jan, Comun General de Fascia, Provincia di Trento, Trentino-Alto Adige/Südtirol, 39056, Italia",Torre Finestra,46.4231835,11.6230209,mountain,region_64
landf_758,"Rotwand-Klettersteig - Via Ferrata Roda di Vaèl, San Giovanni di Fassa - Sèn Jan, Comun General de Fascia, Provincia di Trento, Trentino-Alto Adige/Südtirol, 39056, Italia",Roda del Diavolo,46.4218066,11.6210552,mountain,region_64
landf_759,"San Giovanni di Fassa - Sèn Jan, Comun General de Fascia, Provincia di Trento, Trentino-Alto Adige/Südtirol, 38036, Italia",Curaton,46.4421071,11.6343616,mountain,region_64
landf_760,"Aufstieg zum Rotwand-Klettersteig, San Giovanni di Fassa - Sèn Jan, Comun General de Fascia, Provincia di Trento, Trentino-Alto Adige/Südtirol, 38039, Italia",Torre Edoarda,46.423637,11.6231221,mountain,region_64
landf_761,"Croce in ricordo del partigiano Siro Loser, Strada forestale Brustolaè, Bislonghi, Castel Ivano, Comunità Valsugana e Tesino, Provincia di Trento, Trentino-Alto Adige/Südtirol, 38059, Italia",Punta Molina,46.0141385,11.5435951,mountain,region_16
landf_762,"Strada forestale Brustolaè, Bislonghi, Castel Ivano, Comunità Valsugana e Tesino, Provincia di Trento, Trentino-Alto Adige/Südtirol, 38059, Italia",Torino della Fossetta,46.0140044,11.5395879,mountain,region_16
landf_763,"Via Roma, Castel Ivano, Comunità Valsugana e Tesino, Provincia di Trento, Trentino-Alto Adige/Südtirol, 38059, Italia",Col Fortin,46.0469005,11.5436457,mountain,region_16
landf_764,"Sentiero per bivacchi dell'Aia e Colazzo, Castel Ivano, Comunità Valsugana e Tesino, Provincia di Trento, Trentino-Alto Adige/Südtirol, 38050, Italia",Il Colazzo,46.0216795,11.5145064,mountain,region_16
landf_765,"Bait de Mulat, Strada per Pragatai, Zaluna, Bellamonte, Predazzo, Comunità territoriale della Val di Fiemme, Provincia di Trento, Trentino-Alto Adige/Südtirol, 38037, Italia",Mül Piciol,46.3256322,11.6253544,mountain,region_55
landf_766,"Strada Statale 48 delle Dolomiti, Canazei, Comun General de Fascia, Provincia di Trento, Trentino-Alto Adige/Südtirol, 38032, Italia",Col di Rosc,46.4744789,11.8028123,mountain,region_92
landf_767,"Strada forestale Prà delle Roe, Brustolae, Le Busette, Castel Ivano, Comunità Valsugana e Tesino, Provincia di Trento, Trentino-Alto Adige/Südtirol, 38059, Italia",Sasso Gambarile,46.0334475,11.5300864,mountain,region_16
landf_768,"Poppekanzel - Pulpito di Cima Pope, Sentiero Forestale ""De la Nores"", San Giovanni di Fassa - Sèn Jan, Comun General de Fascia, Provincia di Trento, Trentino-Alto Adige/Südtirol, 39056, Italia",Signalkopf,46.3897441,11.601483,mountain,region_64
landf_769,"Ciamp de Mez, Canazei, Comun General de Fascia, Provincia di Trento, Trentino-Alto Adige/Südtirol, 38032, Italia",Torn Dantone,46.434962,11.7822348,mountain,region_92
landf_770,"Canalone dei Bassanesi, Castello Tesino, Comunità Valsugana e Tesino, Provincia di Trento, Trentino-Alto Adige/Südtirol, Italia",Torre Gillo Cavinato,46.1762721,11.6025068,mountain,region_17
landf_771,"Il Respiro degli Alberi, Lanzino, Lavarone, Magnifica Comunità degli Altipiani Cimbri, Provincia di Trento, Trentino-Alto Adige/Südtirol, 38046, Italia",Dosso del Monco,45.9597216,11.2559121,mountain,region_38
landf_772,"Poppekanzel - Pulpito di Cima Pope, Sentiero Forestale ""De la Nores"", San Giovanni di Fassa - Sèn Jan, Comun General de Fascia, Provincia di Trento, Trentino-Alto Adige/Südtirol, 39056, Italia",Cima Pope - Poppekanzel,46.3880876,11.5999018,mountain,region_64
landf_773,"Via al Castello, Fontanabotte, Zivignago, Pergine Valsugana, Comunità Alta Valsugana e Bersntol, Provincia di Trento, Trentino-Alto Adige/Südtirol, 38057, Italia",Colle del Castello,46.0585743,11.2491209,mountain,region_125
landf_774,"Fontanabotte, Zivignago, Pergine Valsugana, Comunità Alta Valsugana e Bersntol, Provincia di Trento, Trentino-Alto Adige/Südtirol, 38057, Italia",Doss del Tegaz,46.0556964,11.2449113,mountain,region_125
landf_775,"Strada forestale Campigol de Mez - Le Prese, Predazzo, Comunità territoriale della Val di Fiemme, Provincia di Trento, Trentino-Alto Adige/Südtirol, 38037, Italia",Col de le Prese,46.3467246,11.5964915,mountain,region_55
