id;city;address;name;latitude;longitude
mount_1;Castello Tesino;traccia per Passo diavoli, Castello Tesino, Comunità Valsugana e Tesino, Provincia di Trento, Trentino-Alto Adige/Südtirol, Italia;Cima d'Asta;46.1766183;11.6052937
mount_2;Tezze Valsugana;Forte Leone, Via Nazionale, Tezze Valsugana, Grigno, Comunità Valsugana e Tesino, Provincia di Trento, Trentino-Alto Adige/Südtirol, 38055, Italia;Cima Campo;45.9998035;11.6879398
mount_3;Capriana;9, Capriana, Comunità territoriale della Val di Fiemme, Provincia di Trento, Trentino-Alto Adige/Südtirol, 38030, Italia;Monte Corno - Trudner Horn;46.2898752;11.3238241
mount_4;Cinte Tesino;Strada forestale Prà della Castellana, Cinte Tesino, Comunità Valsugana e Tesino, Provincia di Trento, Trentino-Alto Adige/Südtirol, 38053, Italia;Monte Mezza;46.0455556;11.5816667
mount_5;Canal San Bovo;Monte Totoga, Sentiero Gaetano Moretta, Gobbera, Canal San Bovo, Comunità di Primiero, Provincia di Trento, Trentino-Alto Adige/Südtirol, Italia;Monte Totoga;46.135559;11.7492946
mount_6;Tesero;Troso dele Spiase (E518), Tesero, Comunità territoriale della Val di Fiemme, Provincia di Trento, Trentino-Alto Adige/Südtirol, 38038, Italia;Cornacci;46.3113226;11.5235816
mount_7;Telve;Strada Provinciale del Passo del Manghen, Telve, Comunità Valsugana e Tesino, Provincia di Trento, Trentino-Alto Adige/Südtirol, Italia;Ziolera;46.171736;11.4554569
mount_8;Cavalese;al lago del Forame, Cavalese, Comunità territoriale della Val di Fiemme, Provincia di Trento, Trentino-Alto Adige/Südtirol, Italia;Cimon di Val Moena;46.220685;11.4792198
mount_9;Bellamonte;Bait de Mulat, Strada per Pragatai, Zaluna, Bellamonte, Predazzo, Comunità territoriale della Val di Fiemme, Provincia di Trento, Trentino-Alto Adige/Südtirol, 38037, Italia;La Sopösa;46.3251155;11.6219478
mount_10;Predazzo;Pragatai, Zaluna, Predazzo, Comunità territoriale della Val di Fiemme, Provincia di Trento, Trentino-Alto Adige/Südtirol, 38037, Italia;Monte Mulat - Mül Grant;46.3270715;11.6326015
mount_11;Ziano di Fiemme;Zanolin, Ziano di Fiemme, Comunità territoriale della Val di Fiemme, Provincia di Trento, Trentino-Alto Adige/Südtirol, Italia;\N;46.2991643;11.5517295
mount_12;Predazzo;Alta Via di Viezena, Predazzo, Comunità territoriale della Val di Fiemme, Provincia di Trento, Trentino-Alto Adige/Südtirol, 38035, Italia;Viezzena - Viesena;46.3376652;11.6751093
mount_13;Moena;Valbona, Moena, Comun General de Fascia, Provincia di Trento, Trentino-Alto Adige/Südtirol, 38035, Italia;Sas de Mezdì;46.3562573;11.6704242
mount_14;Tesero;Santana Weg-Nr574, Tesero, Comunità territoriale della Val di Fiemme, Provincia di Trento, Trentino-Alto Adige/Südtirol, Italia;Pala di Santa;46.3458524;11.5123106
mount_15;Unterradein - Redagno di Sotto;13, Untere Kugelalm - Malga Cùgola bassa, Unterradein - Redagno di Sotto, Ville di Fiemme, Comunità territoriale della Val di Fiemme, Provincia di Trento, Trentino-Alto Adige/Südtirol, 39040, Italia;Cugola;46.3241664;11.4317083
mount_16;Moena;Sentiero forestale do Peniola, Moena, Comun General de Fascia, Provincia di Trento, Trentino-Alto Adige/Südtirol, 38035, Italia;Sas da Ciamp;46.37956;11.62491
mount_17;Predazzo;515B, Predazzo, Comunità territoriale della Val di Fiemme, Provincia di Trento, Trentino-Alto Adige/Südtirol, 38037, Italia;La Forcella di Pelenzana;46.310669;11.571878
mount_18;Cavalese;Sentiero per Cima delle Stellune, Cavalese, Comunità territoriale della Val di Fiemme, Provincia di Trento, Trentino-Alto Adige/Südtirol, Italia;Cima delle Stellune;46.1994171;11.5107524
mount_19;Ziano di Fiemme;mulattiera Grande Guerra, Ziano di Fiemme, Comunità territoriale della Val di Fiemme, Provincia di Trento, Trentino-Alto Adige/Südtirol, Italia;Pala del Cardinal;46.2439106;11.6018329
mount_20;Baselga di Pinè;Path from Passo Cadino to Malga Fornasa Alta, Valfloriana, Comunità territoriale della Val di Fiemme, Provincia di Trento, Trentino-Alto Adige/Südtirol, Italia;Monte Croce;46.1693463;11.3924897
mount_21;Telve;Bivacco ANA ai Mangheneti, Strada Provinciale del Passo del Manghen, Telve, Comunità Valsugana e Tesino, Provincia di Trento, Trentino-Alto Adige/Südtirol, Italia;Cima Fornace;46.1647739;11.4192871
mount_22;Telve;Bivacco ANA ai Mangheneti, Strada Provinciale del Passo del Manghen, Telve, Comunità Valsugana e Tesino, Provincia di Trento, Trentino-Alto Adige/Südtirol, Italia;Monte Cadino;46.1676536;11.4209121
mount_23;Cavalese;2, Alpe Cermis, Cavalese, Comunità territoriale della Val di Fiemme, Provincia di Trento, Trentino-Alto Adige/Südtirol, Italia;Paion del Cermis;46.2413696;11.5035518
mount_24;Cavalese;5a, Cavalese, Comunità territoriale della Val di Fiemme, Provincia di Trento, Trentino-Alto Adige/Südtirol, Italia;Cimon del To della Trappola;46.2315971;11.5005337
mount_25;Tesero;Tesero, Comunità territoriale della Val di Fiemme, Provincia di Trento, Trentino-Alto Adige/Südtirol, 38038, Italia;Cimon di Lasteolo;46.2168382;11.5446191
mount_26;Ziano di Fiemme;Busa del Castel, Ziano di Fiemme, Comunità territoriale della Val di Fiemme, Provincia di Trento, Trentino-Alto Adige/Südtirol, Italia;Cima Litegosa;46.2253087;11.558882
mount_27;Baselga di Piné;Cros de Costalta, Sentiero delle scalette, Baselga di Piné, Comunità Alta Valsugana e Bersntol, Provincia di Trento, Trentino-Alto Adige/Südtirol, 38042, Italia;Dosso di Costalta;46.1321025;11.2891682
mount_28;Predazzo;Via Ferrata dei Campanili del Latemar, Predazzo, Comunità territoriale della Val di Fiemme, Provincia di Trento, Trentino-Alto Adige/Südtirol, 39056, Italia;Cimon del Latemar - Diamantiditurm;46.3810697;11.5750434
mount_29;Telve;Strada Forestale Val Cantieri, Cere, Telve, Comunità Valsugana e Tesino, Provincia di Trento, Trentino-Alto Adige/Südtirol, Italia;Monte Valpiana;46.1629253;11.480299
mount_30;Miola;Dosso di Miola, Sinter de Cambaselga, Laita, Serraia, Miola, Baselga di Piné, Comunità Alta Valsugana e Bersntol, Provincia di Trento, Trentino-Alto Adige/Südtirol, 38042, Italia;Dosso di Miola;46.1304976;11.2507084
mount_31;Baselga di Piné;Busona di Val del Mattio, Baselga di Piné, Comunità Alta Valsugana e Bersntol, Provincia di Trento, Trentino-Alto Adige/Südtirol, Italia;Monte Ruioch;46.1540984;11.3635196
mount_32;Carano;Giro de Solombo, Aguai, Carano, Ville di Fiemme, Comunità territoriale della Val di Fiemme, Provincia di Trento, Trentino-Alto Adige/Südtirol, 38099, Italia;Solombo;46.3030588;11.4163781
mount_33;Pozza di Fassa;Bivacco Donato Zeni, Strada Ruf de Ruacia, San Giovanni di Fassa - Sèn Jan, Comun General de Fascia, Provincia di Trento, Trentino-Alto Adige/Südtirol, 38036, Italia;Cima Undici;46.402431;11.7129645
mount_34;Campitello di Fassa;Campitello di Fassa - Ciampedel, Campitello di Fassa, Comun General de Fascia, Provincia di Trento, Trentino-Alto Adige/Südtirol, 38031, Italia;Punta Grohmann - Grohmannspitze;46.5106;11.732966
mount_35;Campitello di Fassa;527, Campitello di Fassa, Comun General de Fascia, Provincia di Trento, Trentino-Alto Adige/Südtirol, 39040, Italia;Sasplat - Plattkofel - Sasso Piatto;46.5141348;11.7157706
mount_36;Levico Terme;Forte Vezzena, Strada Forestale Cima Vezzena, Levico Terme, Comunità Alta Valsugana e Bersntol, Provincia di Trento, Trentino-Alto Adige/Südtirol, 38056, Italia;Cima Vezzena;45.9790546;11.3426214
mount_37;Borgo Valsugana;Strada forestale Cazalin, Borgo Valsugana, Comunità Valsugana e Tesino, Provincia di Trento, Trentino-Alto Adige/Südtirol, Italia;Cima Mandriolo;45.9842643;11.3771727
mount_38;Moena;Bivacco Jellici, Sentiero militare del Grontòn, Moena, Comun General de Fascia, Provincia di Trento, Trentino-Alto Adige/Südtirol, 38035, Italia;Cima Bocche - Cimon de Boce;46.3542156;11.7527077
mount_39;Moena;Cima Juribrutto, E628, Moena, Comun General de Fascia, Provincia di Trento, Trentino-Alto Adige/Südtirol, 38035, Italia;Cima Juribrutto - Gereburt;46.3594001;11.765161
mount_40;Pozza di Fassa;San Giovanni di Fassa - Sèn Jan, Comun General de Fascia, Provincia di Trento, Trentino-Alto Adige/Südtirol, 38036, Italia;Cima Scalieret;46.4633351;11.6444448
mount_41;Vigo di Fassa;Rotwand-Klettersteig - Via Ferrata Roda di Vaèl, San Giovanni di Fassa - Sèn Jan, Comun General de Fascia, Provincia di Trento, Trentino-Alto Adige/Südtirol, 39056, Italia;Roda di Vaèl - Rotwand;46.4254208;11.6199047
mount_42;Nogaré;Via di Castel Rocca, Nogaré, Pergine Valsugana, Comunità Alta Valsugana e Bersntol, Provincia di Trento, Trentino-Alto Adige/Südtirol, 38045, Italia;Croz de la Rocca;46.0950769;11.2166567
mount_43;Canzolino;Via dei Sgualdi, Vigalzano, Canzolino, Pergine Valsugana, Comunità Alta Valsugana e Bersntol, Provincia di Trento, Trentino-Alto Adige/Südtirol, 38057, Italia;Tessara;46.0786611;11.2315418
mount_44;Lona-Lases;Cogne sud, Lona-Lases, Comunità della Valle di Cembra, Provincia di Trento, Trentino-Alto Adige/Südtirol, Italia;Monte Cogne;46.1943544;11.3677123
mount_45;Valfloriana;Pale dal Sas, Valfloriana, Comunità territoriale della Val di Fiemme, Provincia di Trento, Trentino-Alto Adige/Südtirol, Italia;Cimon del Tres;46.2053277;11.3972251
mount_46;Segonzano;Al Doss di Segonzano, Segonzano, Comunità della Valle di Cembra, Provincia di Trento, Trentino-Alto Adige/Südtirol, 38043, Italia;Dosso di Segonzano;46.1866385;11.2921819
mount_47;San Cristoforo al Lago;Via dei Pinteroti, Masetti, San Cristoforo al Lago, Pergine Valsugana, Comunità Alta Valsugana e Bersntol, Provincia di Trento, Trentino-Alto Adige/Südtirol, 38057, Italia;Dos del Cuco;46.0492418;11.2452409
mount_48;Predazzo;Strada forestale Piaie, Baldìss, Predazzo, Comunità territoriale della Val di Fiemme, Provincia di Trento, Trentino-Alto Adige/Südtirol, 38037, Italia;Malgola;46.301123;11.6236559
mount_49;Bedollo;Strada di Malga Stramaiolo, Bedollo, Comunità Alta Valsugana e Bersntol, Provincia di Trento, Trentino-Alto Adige/Südtirol, 38043, Italia;Lemperperg;46.1457866;11.3375462
mount_50;Roncegno Terme;trincea, Roncegno Terme, Comunità Valsugana e Tesino, Provincia di Trento, Trentino-Alto Adige/Südtirol, Italia;Fravort;46.0760038;11.3511386
mount_51;Frassilongo;Sentiero Prima Guerra Mondiale, Frassilongo - Garait, Comunità Alta Valsugana e Bersntol, Provincia di Trento, Trentino-Alto Adige/Südtirol, Italia;Oscivart;46.0775693;11.3471098
mount_52;Pergine Valsugana;Strada del Pian de la Casara, Levico Terme, Comunità Alta Valsugana e Bersntol, Provincia di Trento, Trentino-Alto Adige/Südtirol, 38056, Italia;Cima Panarotta;46.0500145;11.3344548
mount_53;Serso;SP66, Riposo, Serso, Pergine Valsugana, Comunità Alta Valsugana e Bersntol, Provincia di Trento, Trentino-Alto Adige/Südtirol, 38057, Italia;Casteller;46.0828068;11.2402045
mount_54;Faida;Sinter dei crozzi, Prada, Faida, Baselga di Piné, Comunità Alta Valsugana e Bersntol, Provincia di Trento, Trentino-Alto Adige/Südtirol, 38042, Italia;Dosso della Clinga;46.1130371;11.2442454
mount_55;Campitello di Fassa;Via Ferrata Col Rodella, Campitello di Fassa, Comun General de Fascia, Provincia di Trento, Trentino-Alto Adige/Südtirol, 38031, Italia;Col Rodela;46.4953446;11.7486236
mount_56;Tonadico;Vallon delle Lede, Tonadico, Primiero San Martino di Castrozza, Comunità di Primiero, Provincia di Trento, Trentino-Alto Adige/Südtirol, Italia;Cima La Fradusta;46.2510705;11.8734312
mount_57;Palù del Fersina - Palai en Bersntol;Baldal, Palai en Bersntol - Palù del Fersina, Palù del Fersina - Palai en Bersntol, Comunità Alta Valsugana e Bersntol, Provincia di Trento, Trentino-Alto Adige/Südtirol, Italia;Pala dei Campedei;46.1492461;11.3521195
mount_58;Pergine Valsugana;mulattiera militare, Mas del Ghiga, Pergine Valsugana, Comunità Alta Valsugana e Bersntol, Provincia di Trento, Trentino-Alto Adige/Südtirol, 38042, Italia;Monte Calvo;46.1007524;11.2604791
mount_59;Canazei;Valon del Fos, Canazei, Comun General de Fascia, Provincia di Trento, Trentino-Alto Adige/Südtirol, 38032, Italia;Col Aut;46.5107642;11.81835
mount_60;Canazei,;Capanna Punta Penia, Via Ferrata Marmolada Cresta Ovest, San Giovanni di Fassa - Sèn Jan, Comun General de Fascia, Provincia di Trento, Trentino-Alto Adige/Südtirol, Italia;Punta Penia;46.434526;11.8513263
mount_61;Faver;409, Altavalle, Comunità della Valle di Cembra, Provincia di Trento, Trentino-Alto Adige/Südtirol, 38047, Italia;Cima Castion;46.2181695;11.2335932
mount_62;Torcegno;Panchina, trincea, Torcegno, Comunità Valsugana e Tesino, Provincia di Trento, Trentino-Alto Adige/Südtirol, Italia;Pizzo Alto;46.1054519;11.3757451
mount_63;San Martino di Castrozza;E706, San Martino di Castrozza, Primiero San Martino di Castrozza, Comunità di Primiero, Provincia di Trento, Trentino-Alto Adige/Südtirol, Italia;Cimon della Pala;46.2849069;11.8239713
mount_64;Imer;Strada forestale Colaz, Imer, Comunità di Primiero, Provincia di Trento, Trentino-Alto Adige/Südtirol, Italia;Monte Vederna;46.129354;11.7884068
mount_65;Ziano di Fiemme;Via Italiana, Ziano di Fiemme, Comunità territoriale della Val di Fiemme, Provincia di Trento, Trentino-Alto Adige/Südtirol, Italia;Cauriol Piccolo;46.2351848;11.5891131
mount_66;Strigno,;Sentiero della Memoria, Castel Ivano, Comunità Valsugana e Tesino, Provincia di Trento, Trentino-Alto Adige/Südtirol, 38050, Italia;Cima Primaluna;46.1167711;11.5444263
mount_67;Scurelle;Sentiero della Memoria, Castel Ivano, Comunità Valsugana e Tesino, Provincia di Trento, Trentino-Alto Adige/Südtirol, 38050, Italia;Tombolin di Caldenave;46.1215149;11.5438917
mount_68;Baselga di Piné;Sentiero Baraccamenti Baitol, Baselga di Piné, Comunità Alta Valsugana e Bersntol, Provincia di Trento, Trentino-Alto Adige/Südtirol, Italia;Baitol;46.1606082;11.3795719
mount_69;Telve;Sentiero Baraccamenti Baitol, Telve, Comunità Alta Valsugana e Bersntol, Provincia di Trento, Trentino-Alto Adige/Südtirol, Italia;Schliverai Spitz;46.1568166;11.3658752
mount_70;San Martino di Castrozza;Strada Val Venegia, San Martino di Castrozza, Primiero San Martino di Castrozza, Comunità di Primiero, Provincia di Trento, Trentino-Alto Adige/Südtirol, Italia;Monte Castellaz;46.3073186;11.7952973
mount_71;Pieve Tesino;Strada forestale Cinque Croci, Pieve Tesino, Comunità Valsugana e Tesino, Provincia di Trento, Trentino-Alto Adige/Südtirol, Italia;Col di San Giovanni;46.1800084;11.5463305
mount_72;Telve;Strada Forestale Valpiana - Croce, Cere, Telve, Comunità Valsugana e Tesino, Provincia di Trento, Trentino-Alto Adige/Südtirol, Italia;Monte Setole;46.1539016;11.4898766
mount_73;Siror;Velo della Madonna, Ferrata della Vecia, Siror, Primiero San Martino di Castrozza, Comunità di Primiero, Provincia di Trento, Trentino-Alto Adige/Südtirol, 38054, Italia;Cima della Madonna;46.2323027;11.8461527
mount_74;Torcegno;Sette Laghi, Torcegno, Comunità Valsugana e Tesino, Provincia di Trento, Trentino-Alto Adige/Südtirol, Italia;Hoabonti;46.0937167;11.3739496
mount_75;Torcegno;Crozo negro, Sette Laghi, Torcegno, Comunità Valsugana e Tesino, Provincia di Trento, Trentino-Alto Adige/Südtirol, Italia;Monte Cola;46.0934691;11.3868854
mount_76;San Martino di Castrozza;Forcella Cavallazza, 15, San Martino di Castrozza, Primiero San Martino di Castrozza, Comunità di Primiero, Provincia di Trento, Trentino-Alto Adige/Südtirol, Italia;Cavallazza;46.2787046;11.7767933
mount_77;Vigo;Via dei vescovi Madruzzo, Poggio dei Pini, Cadrobbi, Vigo, Baselga di Piné, Comunità Alta Valsugana e Bersntol, Provincia di Trento, Trentino-Alto Adige/Südtirol, 38042, Italia;Dosso di Vigo;46.1277386;11.2412194
mount_78;Lona-Lases;Paolati - Cogne ovest, Lona-Lases, Comunità della Valle di Cembra, Provincia di Trento, Trentino-Alto Adige/Südtirol, 38043, Italia;Monte Frattoni;46.2004122;11.3609047
mount_79;Pieve Tesino;Laghi di Rocco, Pieve Tesino, Comunità Valsugana e Tesino, Provincia di Trento, Trentino-Alto Adige/Südtirol, Italia;Cima Lagorai;46.2020718;11.5243368
mount_80;Segonzano;Casal, Segonzano, Comunità della Valle di Cembra, Provincia di Trento, Trentino-Alto Adige/Südtirol, 38047, Italia;Venticcia;46.1976116;11.2610203
mount_81;Castello Tesino;Traccia Sentiero Cima Agaro - Magri, Castello Tesino, Comunità Valsugana e Tesino, Provincia di Trento, Trentino-Alto Adige/Südtirol, 38053, Italia;Monte Agaro;46.0952518;11.6556704
mount_82;Canal San Bovo;Traccia Sentiero Lago Pisorno - Agnelessa, Canal San Bovo, Comunità di Primiero, Provincia di Trento, Trentino-Alto Adige/Südtirol, Italia;Cima Scanaiòl;46.2148405;11.7664607
mount_83;Canazei;Gamsband, Canazei, Comun General de Fascia, Provincia di Trento, Trentino-Alto Adige/Südtirol, 38032, Italia;3. Ciampanil dl Sela - 3. Sellaturm - III° Torre del Sella;46.5110867;11.7779629
mount_84;Campitello di Fassa;Col Pelous - Alba, Mazzin, Comun General de Fascia, Provincia di Trento, Trentino-Alto Adige/Südtirol, 38032, Italia;Col Pelous;46.465145;11.7521439
mount_85;Canazei;677, Canazei, Comun General de Fascia, Provincia di Trento, Trentino-Alto Adige/Südtirol, 39048, Italia;Piz Rotic;46.5297611;11.8035543
mount_86;Canazei;Normalweg 1. Sellaturm, Canazei, Comun General de Fascia, Provincia di Trento, Trentino-Alto Adige/Südtirol, 38032, Italia;1. Ciampanil dl Sela - 1. Sellaturm - I° Torre del Sella;46.5093828;11.774633
mount_87;Canazei;Normalweg 1. Sellaturm, Canazei, Comun General de Fascia, Provincia di Trento, Trentino-Alto Adige/Südtirol, 38032, Italia;2. Ciampanil dl Sela - 2. Sellaturm - II° Torre del Sella;46.5099028;11.7759014
mount_88;Canazei;Normalweg 1. Sellaturm, Canazei, Comun General de Fascia, Provincia di Trento, Trentino-Alto Adige/Südtirol, 38032, Italia;Locomotiva - Lokomotive;46.50912;11.772745
mount_89;Canazei;Orsa Maggiore, 646, Canazei, Comun General de Fascia, Provincia di Trento, Trentino-Alto Adige/Südtirol, 38032, Italia;L'Aut;46.4408386;11.7566096
mount_90;Lona-Lases;Passo Mirafiori - Pala delle Buse, Lona-Lases, Comunità della Valle di Cembra, Provincia di Trento, Trentino-Alto Adige/Südtirol, Italia;Pala delle Buse;46.1910349;11.3823127
mount_91;Telve;Sentiero Baraccamenti Baitol, Telve, Comunità Valsugana e Tesino, Provincia di Trento, Trentino-Alto Adige/Südtirol, Italia;Monte Camin;46.1747374;11.3844023
mount_92;San Martino di Castrozza;"Sentiero attrezzato ""Achille Gadler"", San Martino di Castrozza, Primiero San Martino di Castrozza, Comunità di Primiero, Provincia di Trento, Trentino-Alto Adige/Südtirol, Italia";Colbricon Ovest;46.272223;11.7512476
mount_93;Castello-Molina di Fiemme;Strada forestale Masi alti - Coston, Castello-Molina di Fiemme, Comunità territoriale della Val di Fiemme, Provincia di Trento, Trentino-Alto Adige/Südtirol, Italia;Cima Inferno;46.2148419;11.4546558
mount_94;Predazzo;Tresca, GeoTrail del Dos Capèl, Predazzo, Comunità territoriale della Val di Fiemme, Provincia di Trento, Trentino-Alto Adige/Südtirol, Italia;Monte Agnello - Cimòn de Tresca;46.3265403;11.5587785
mount_95;Bieno;Madonnina, Scala del Tombolin, Bieno, Comunità Valsugana e Tesino, Provincia di Trento, Trentino-Alto Adige/Südtirol, 38050, Italia;Cimon di Rava;46.1229185;11.5692768
mount_96;Welschnofen;"Poppekanzel - Pulpito di Cima Pope, Sentiero Forestale ""De la Nores"", San Giovanni di Fassa - Sèn Jan, Comun General de Fascia, Provincia di Trento, Trentino-Alto Adige/Südtirol, 39056, Italia";Signalkopf;46.3897441;11.601483
mount_97;Predazzo;517B, Predazzo, Comunità territoriale della Val di Fiemme, Provincia di Trento, Trentino-Alto Adige/Südtirol, 39056, Italia;Col Cornon;46.3835955;11.5885432
mount_98;Palù del Fersina - Palai en Bersntol;Sentiero alpinistico Fratelli Giuliani, Palù del Fersina - Palai en Bersntol, Comunità Alta Valsugana e Bersntol, Provincia di Trento, Trentino-Alto Adige/Südtirol, Italia;Cima d'Ezze;46.1306345;11.4019971
mount_99;Palù del Fersina - Palai en Bersntol;Sentiero alpinistico Fratelli Giuliani, Palù del Fersina - Palai en Bersntol, Comunità Alta Valsugana e Bersntol, Provincia di Trento, Trentino-Alto Adige/Südtirol, Italia;Sopra Conella;46.1141703;11.3938115
mount_100;Scurelle;Orti, Scurelle, Comunità Valsugana e Tesino, Provincia di Trento, Trentino-Alto Adige/Südtirol, 38050, Italia;Cima Caldenave;46.1258556;11.5558435
mount_101;Cinte Tesino;Ricovero Tenente Cecchin, Sentiero dei Laghi, Cinte Tesino, Comunità Valsugana e Tesino, Provincia di Trento, Trentino-Alto Adige/Südtirol, Italia;Cima Lasteati;46.161021;11.5682732
mount_102;Scurelle;Percorso Trincee Prima Guerra Mondiale, Scurelle, Comunità Valsugana e Tesino, Provincia di Trento, Trentino-Alto Adige/Südtirol, 38050, Italia;Cima Brunella;46.1312205;11.5698721
mount_103;Strigno;Bivacco Argentino, Sentiero della Memoria, Castel Ivano, Comunità Valsugana e Tesino, Provincia di Trento, Trentino-Alto Adige/Südtirol, 38050, Italia;Cima Ravetta;46.1111552;11.5463715
mount_104;Cinte Tesino;Sentiero dei Laghi, Cinte Tesino, Comunità Valsugana e Tesino, Provincia di Trento, Trentino-Alto Adige/Südtirol, Italia;Cima Socede;46.1718667;11.5547229
mount_105;Bieno;Forcella Quarazza, Scala del Tombolin, Bieno, Comunità Valsugana e Tesino, Provincia di Trento, Trentino-Alto Adige/Südtirol, 38050, Italia;Cima Trento;46.1296596;11.5697335
mount_106;Telve;Herta Miller Haus, Strada Forestale Val Cantieri, Cere, Telve, Comunità Valsugana e Tesino, Provincia di Trento, Trentino-Alto Adige/Südtirol, Italia;Cima del Bortolo;46.1596593;11.4738672
mount_107;Castello-Molina di Fiemme;Lastei, Castello-Molina di Fiemme, Comunità territoriale della Val di Fiemme, Provincia di Trento, Trentino-Alto Adige/Südtirol, Italia;Cima delle Buse;46.185741;11.4980873
mount_108;Scurelle;Percorso Trincee Prima Guerra Mondiale, Scurelle, Comunità Valsugana e Tesino, Provincia di Trento, Trentino-Alto Adige/Südtirol, 38050, Italia;Cima delle Buse Todesche;46.1430306;11.5658179
mount_109;Scurelle;Percorso Trincee Prima Guerra Mondiale, Scurelle, Comunità Valsugana e Tesino, Provincia di Trento, Trentino-Alto Adige/Südtirol, 38050, Italia;Cima Orsera - Cimon di Val Orsera;46.1371778;11.5629996
mount_110;Telve;Strada Forestale Tramenaga, Marolo, Telve, Comunità Valsugana e Tesino, Provincia di Trento, Trentino-Alto Adige/Südtirol, Italia;Col Tramenaga;46.1340351;11.4889809
mount_111;Pieve Tesino;Strada forestale Cinque Croci, Pieve Tesino, Comunità Valsugana e Tesino, Provincia di Trento, Trentino-Alto Adige/Südtirol, Italia;Col dei Fiori;46.193196;11.5359742
mount_112;Scurelle;Strada Forestale Cinque Croci 2, Scurelle, Comunità Valsugana e Tesino, Provincia di Trento, Trentino-Alto Adige/Südtirol, Italia;Col della Palazzina;46.177734;11.5366136
mount_113;Scurelle;Alpe Conseria, Scurelle, Comunità Valsugana e Tesino, Provincia di Trento, Trentino-Alto Adige/Südtirol, Italia;\N;46.1536762;11.5455258
mount_114;Scurelle;Sentiero della Memoria, Scurelle, Comunità Valsugana e Tesino, Provincia di Trento, Trentino-Alto Adige/Südtirol, 38050, Italia;Croz di Primalunetta;46.1238028;11.5361529
mount_115;Pieve Tesino;Percorso Trincee Prima Guerra Mondiale, Pieve Tesino, Comunità Valsugana e Tesino, Provincia di Trento, Trentino-Alto Adige/Südtirol, 38050, Italia;Monte Cengello;46.1536955;11.5660211
mount_116;Scurelle;Sentiero della Memoria, Scurelle, Comunità Valsugana e Tesino, Provincia di Trento, Trentino-Alto Adige/Südtirol, 38050, Italia;Monte Cenon;46.1260302;11.5290937
mount_117;Samone;Strada forestale Regaise - Fagarolo, Castel Ivano, Comunità Valsugana e Tesino, Provincia di Trento, Trentino-Alto Adige/Südtirol, 38050, Italia;Monte Cima;46.104282;11.5295959
mount_118;Pieve Tesino;Masgerom, Pieve Tesino, Comunità Valsugana e Tesino, Provincia di Trento, Trentino-Alto Adige/Südtirol, Italia;Monte Montalon;46.1909191;11.5060823
mount_119;Strigno;Sentiero della Memoria, Castel Ivano, Comunità Valsugana e Tesino, Provincia di Trento, Trentino-Alto Adige/Südtirol, 38050, Italia;Monte Tauro;46.1048433;11.5441162
mount_120;Telve;Forcella Pala del Becco, Strada Forestale Valpiana - Croce, Telve, Comunità Valsugana e Tesino, Provincia di Trento, Trentino-Alto Adige/Südtirol, Italia;Pala del Becco;46.1815397;11.4794576
mount_121;Canazei;Via Ferrata dei Finanzieri, Canazei, Comun General de Fascia, Provincia di Trento, Trentino-Alto Adige/Südtirol, 38032, Italia;Monte Colac;46.4410262;11.782724
mount_122;Canal San Bovo;Sentiero per Busa Alta, Canal San Bovo, Comunità di Primiero, Provincia di Trento, Trentino-Alto Adige/Südtirol, Italia;Cima Busa Alta;46.2498788;11.6096295
mount_123;Canazei;646, Canazei, Comun General de Fascia, Provincia di Trento, Trentino-Alto Adige/Südtirol, 38032, Italia;Sas Porcel;46.435281;11.7579329
mount_124;Canazei;Via ferrata delle trincee, Canazei, Comun General de Fascia, Provincia di Trento, Trentino-Alto Adige/Südtirol, Italia;Mesolina;46.4650544;11.8869791
mount_125;Caldonazzo;Strada del Careta, Maso Giamai, Caldonazzo, Comunità Alta Valsugana e Bersntol, Provincia di Trento, Trentino-Alto Adige/Südtirol, 38052, Italia;Tamazol;45.9708781;11.2592308
mount_126;Moena;Strada forestale Strada del Van, Moena, Comun General de Fascia, Provincia di Trento, Trentino-Alto Adige/Südtirol, 38035, Italia;Piz Meda;46.3789381;11.690552
mount_127;Transacqua;Bedolé, Strada forestale Cosaipi, Transacqua, Primiero San Martino di Castrozza, Comunità di Primiero, Provincia di Trento, Trentino-Alto Adige/Südtirol, 38054, Italia;Bedolé;46.1837619;11.8029481
mount_128;Imer;Strada forestale Buscapiana, Ronchi, Imer, Comunità di Primiero, Provincia di Trento, Trentino-Alto Adige/Südtirol, Italia;Cima Redasega;46.1642942;11.7806541
mount_129;Bedollo;Strada di Malga Stramaiolo, Bedollo, Comunità Alta Valsugana e Bersntol, Provincia di Trento, Trentino-Alto Adige/Südtirol, 38043, Italia;Cima Pontara;46.1472075;11.3338857
mount_130;Telve;Baracca ricostruita Grande Guerra, Strada forestale Vatrighetta - Cagnon, Telve, Comunità Valsugana e Tesino, Provincia di Trento, Trentino-Alto Adige/Südtirol, Italia;Cima di Palù;46.143583;11.386078
mount_131;Fierozzo;Traccia per Prati Imperiali, Fierozzo - Vlarotz, Comunità Alta Valsugana e Bersntol, Provincia di Trento, Trentino-Alto Adige/Südtirol, Italia;Monte Gronlait;46.0928879;11.3588461
mount_132;Fierozzo;Traccia per Prati Imperiali, Fierozzo - Vlarotz, Comunità Alta Valsugana e Bersntol, Provincia di Trento, Trentino-Alto Adige/Südtirol, Italia;Hoamut;46.0968033;11.3586452
mount_133;Fierozzo;Traccia per Prati Imperiali, Fierozzo - Vlarotz, Comunità Alta Valsugana e Bersntol, Provincia di Trento, Trentino-Alto Adige/Südtirol, Italia;Mut;46.1004514;11.3538447
mount_134;Laghi;SP138, Terragnolo, Comunità della Vallagarina, Provincia di Trento, Trentino-Alto Adige/Südtirol, Italia;Coston dei Laghi;45.8405862;11.2188887
mount_135;Siror;Stazione Funivia di Rosetta, Strada forestale Val di Roda, Siror, Primiero San Martino di Castrozza, Comunità di Primiero, Provincia di Trento, Trentino-Alto Adige/Südtirol, Italia;Cima della Rosetta;46.2627327;11.8312066
mount_136;Borgo Valsugana;traccia non visibile, Borgo Valsugana, Comunità Valsugana e Tesino, Provincia di Trento, Trentino-Alto Adige/Südtirol, Italia;Monte Trentin;45.9891866;11.4574938
mount_137;Folgaria;orto botanico - base tuono, Folgaria, Magnifica Comunità degli Altipiani Cimbri, Provincia di Trento, Trentino-Alto Adige/Südtirol, Italia;Monte Maronia;45.8705678;11.2124703
mount_138;Siror;"714; 715, Ferrata della Vecia, Siror, Primiero San Martino di Castrozza, Comunità di Primiero, Provincia di Trento, Trentino-Alto Adige/Südtirol, 38054, Italia";Campanile Pradidali;46.24435;11.8451299
mount_139;Siror;"714; 715, Ferrata della Vecia, Siror, Primiero San Martino di Castrozza, Comunità di Primiero, Provincia di Trento, Trentino-Alto Adige/Südtirol, 38054, Italia";Cima di Ball;46.2429769;11.8446253
mount_140;Siror;Prati Ronzi, Siror, Primiero San Martino di Castrozza, Comunità di Primiero, Provincia di Trento, Trentino-Alto Adige/Südtirol, 38054, Italia;Cima di Val di Roda;46.2463073;11.8398668
mount_141;Siror;Strada forestale Val di Roda, Siror, Primiero San Martino di Castrozza, Comunità di Primiero, Provincia di Trento, Trentino-Alto Adige/Südtirol, Italia;Col dei Bechi;46.2554215;11.8364381
mount_142;Siror;Bivacco Guide Alpine di San Martino, Ferrata della Vecia, Siror, Primiero San Martino di Castrozza, Comunità di Primiero, Provincia di Trento, Trentino-Alto Adige/Südtirol, 38054, Italia;Pala di San Martino;46.2537463;11.8503179
mount_143;Tonadico;Pedemonte, Tonadico, Primiero San Martino di Castrozza, Comunità di Primiero, Provincia di Trento, Trentino-Alto Adige/Südtirol, 38054, Italia;Sass Maòr;46.2326015;11.8487277
mount_144;Lona-Lases;Pale dal Sas, Valfloriana, Comunità territoriale della Val di Fiemme, Provincia di Trento, Trentino-Alto Adige/Südtirol, Italia;Monte Fregasoga;46.1851424;11.3812603
mount_145;Canazei;Valon Bianch, Canazei, Comun General de Fascia, Provincia di Trento, Trentino-Alto Adige/Südtirol, 38032, Italia;Piz Miara;46.5236057;11.7954081
mount_146;Vigo di Fassa;Baita Marino Pederiva, Abstieg vom Masarè-Klettersteig, San Giovanni di Fassa - Sèn Jan, Comun General de Fascia, Provincia di Trento, Trentino-Alto Adige/Südtirol, 38039, Italia;Col de Ciampac;46.4199435;11.6320386
mount_147;Predazzo;Cima di Cece, Predazzo, Comunità territoriale della Val di Fiemme, Provincia di Trento, Trentino-Alto Adige/Südtirol, Italia;Cima di Cece;46.2607604;11.6839946
mount_148;Siror;Strada forestale Doch - Forcella Calaita, Siror, Primiero San Martino di Castrozza, Comunità di Primiero, Provincia di Trento, Trentino-Alto Adige/Südtirol, 38054, Italia;Col Santo;46.2074138;11.7989967
mount_149;Siror;Primiero Dolomiti Marathon, Siror, Primiero San Martino di Castrozza, Comunità di Primiero, Provincia di Trento, Trentino-Alto Adige/Südtirol, 38054, Italia;Spiz del Doch;46.2001123;11.7984769
mount_150;Siror;Strada Forestale Frate Doch - Canazè, Siror, Primiero San Martino di Castrozza, Comunità di Primiero, Provincia di Trento, Trentino-Alto Adige/Südtirol, 38054, Italia;\N;46.1896644;11.8012272
mount_151;Centa San Nicolò;Frisanchi, Altopiano della Vigolana, Comunità Alta Valsugana e Bersntol, Provincia di Trento, Trentino-Alto Adige/Südtirol, 38049, Italia;Dos Alt;45.9712868;11.2189937
mount_152;Calceranica al Lago;Via degli Altipiani, Maso Michelini, Calceranica al Lago, Comunità Alta Valsugana e Bersntol, Provincia di Trento, Trentino-Alto Adige/Südtirol, 38049, Italia;Sommi;45.9883896;11.2435183
mount_153;Pozza di Fassa;Kaiserjägersteig Col Ombert, San Giovanni di Fassa - Sèn Jan, Comun General de Fascia, Provincia di Trento, Trentino-Alto Adige/Südtirol, Italia;Col Ombert;46.4183753;11.7984793
mount_154;Transacqua;Strada Forestale Giasinozza, Transacqua, Primiero San Martino di Castrozza, Comunità di Primiero, Provincia di Trento, Trentino-Alto Adige/Südtirol, Italia;Cima Palughet;46.1818225;11.9116243
mount_155;Canazei;Serauta, Canazei, Comun General de Fascia, Provincia di Trento, Trentino-Alto Adige/Südtirol, Italia;Quota 3153;46.433827;11.8734113
mount_156;Siror;Bivacco Guide Alpine di San Martino, Ferrata della Vecia, Siror, Primiero San Martino di Castrozza, Comunità di Primiero, Provincia di Trento, Trentino-Alto Adige/Südtirol, 38054, Italia;Cima Immink;46.2515644;11.8504281
mount_157;Siror;"714; 715, Ferrata della Vecia, Siror, Primiero San Martino di Castrozza, Comunità di Primiero, Provincia di Trento, Trentino-Alto Adige/Südtirol, 38054, Italia";Cima Pradidali;46.2484306;11.8497027
mount_158;Tonadico;Sentiero Vani Alti, Tonadico, Primiero San Martino di Castrozza, Comunità di Primiero, Provincia di Trento, Trentino-Alto Adige/Südtirol, Italia;Sass d'Ortiga;46.237333;11.9160665
mount_159;Tonadico;Sentiero Attrezzato Fiamme Gialle, Tonadico, Primiero San Martino di Castrozza, Comunità di Primiero, Provincia di Trento, Trentino-Alto Adige/Südtirol, Italia;Croda Granda;46.2487483;11.9290873
mount_160;Tonadico;Vallon delle Lede, Tonadico, Primiero San Martino di Castrozza, Comunità di Primiero, Provincia di Trento, Trentino-Alto Adige/Südtirol, Italia;Sasso delle Lede;46.2392501;11.8735956
mount_161;Tonadico;Pedemonte, Tonadico, Primiero San Martino di Castrozza, Comunità di Primiero, Provincia di Trento, Trentino-Alto Adige/Südtirol, 38054, Italia;Cima Canali;46.2439504;11.8636961
mount_162;San Martino di Castrozza;E706, San Martino di Castrozza, Primiero San Martino di Castrozza, Comunità di Primiero, Provincia di Trento, Trentino-Alto Adige/Südtirol, Italia;Cima Corona;46.2731502;11.8367461
mount_163;Siror;Cadinot, Siror, Primiero San Martino di Castrozza, Comunità di Primiero, Provincia di Trento, Trentino-Alto Adige/Südtirol, 38054, Italia;Cimerlo;46.2241618;11.8485892
mount_164;Transacqua;Croce del Padela, Strada forestale Roncon, Transacqua, Primiero San Martino di Castrozza, Comunità di Primiero, Provincia di Trento, Trentino-Alto Adige/Südtirol, 38054, Italia;Croce di Padela;46.1658692;11.86704
mount_165;Pozza di Fassa;San Giovanni di Fassa - Sèn Jan, Comun General de Fascia, Provincia di Trento, Trentino-Alto Adige/Südtirol, 38036, Italia;Cima del Vajolet - Vajoletspitze;46.4720495;11.6314676
mount_166;Sèn Jan di Fassa;Strada forestale Pian da le Trapole, San Giovanni di Fassa - Sèn Jan, Comun General de Fascia, Provincia di Trento, Trentino-Alto Adige/Südtirol, 38036, Italia;Sasso delle Dodici;46.4080754;11.7007536
mount_167;Imer;Strada forestale Buscapiana, Ronchi, Imer, Comunità di Primiero, Provincia di Trento, Trentino-Alto Adige/Südtirol, Italia;Cima Arinàs;46.1585271;11.7700803
mount_168;Canal San Bovo;per cima Paradisi, Canal San Bovo, Comunità di Primiero, Provincia di Trento, Trentino-Alto Adige/Südtirol, Italia;Cima dei Paradisi;46.2299924;11.6628301
mount_169;Siror;Velo della Madonna, Ferrata della Vecia, Siror, Primiero San Martino di Castrozza, Comunità di Primiero, Provincia di Trento, Trentino-Alto Adige/Südtirol, 38054, Italia;Cima della Stanga;46.2286584;11.8472174
mount_170;Imer;Via Nova, Ponte dei Busi, Imer, Comunità di Primiero, Provincia di Trento, Trentino-Alto Adige/Südtirol, Italia;Pecolet;46.1470163;11.7735853
mount_171;Siror;"715; 739, Ferrata della Vecia, Siror, Primiero San Martino di Castrozza, Comunità di Primiero, Provincia di Trento, Trentino-Alto Adige/Südtirol, 38054, Italia";Torre Pradidali;46.2475332;11.853226
mount_172;Ruffrè-Mendola;Mendola - Mendel, Ruffré-Mendola, Comunità della Val di Non, Provincia di Trento, Trentino-Alto Adige/Südtirol, 38011, Italia;Kleiner Penegal - Piccolo Penegal;46.424912;11.207447
mount_173;Palù del Fersina - Palai en Bersntol;Busa del Carl, Palù del Fersina - Palai en Bersntol, Comunità Alta Valsugana e Bersntol, Provincia di Trento, Trentino-Alto Adige/Südtirol, Italia;Monte Conca;46.14704;11.38443
mount_174;Mezzano;Forcella Folga, Traccia Sentiero Lago Pisorno - Agnelessa, Mezzano, Comunità di Primiero, Provincia di Trento, Trentino-Alto Adige/Südtirol, Italia;Cima Folga;46.1984584;11.7546848
mount_175;Mezzano;Traccia Sentiero Lago Pisorno - Agnelessa, Mezzano, Comunità di Primiero, Provincia di Trento, Trentino-Alto Adige/Südtirol, Italia;Cima d'Arzòn;46.2065463;11.7603182
mount_176;Pozza di Fassa;Pala del Gheiger, Sentiero forestale per Lagusel, Sauch, San Giovanni di Fassa - Sèn Jan, Comun General de Fascia, Provincia di Trento, Trentino-Alto Adige/Südtirol, 38036, Italia;Monte Giumellino;46.4324437;11.7301241
mount_177;Pozza di Fassa;Sentiero forestale per Lagusel, Sauch, San Giovanni di Fassa - Sèn Jan, Comun General de Fascia, Provincia di Trento, Trentino-Alto Adige/Südtirol, 38036, Italia;Sas d'Adam;46.4359061;11.7422826
mount_178;Welschnofen;"Poppekanzel - Pulpito di Cima Pope, Sentiero Forestale ""De la Nores"", San Giovanni di Fassa - Sèn Jan, Comun General de Fascia, Provincia di Trento, Trentino-Alto Adige/Südtirol, 39056, Italia";Cima Pope - Poppekanzel;46.3880876;11.5999018
mount_179;Olle;San Lorenzo, Croce, Stalletta, Olle, Borgo Valsugana, Comunità Valsugana e Tesino, Provincia di Trento, Trentino-Alto Adige/Südtirol, 38051, Italia;Rocchetta;46.0429303;11.4530026
mount_180;Olle;chiesa di San Lorenzo, Strada forestale San Lorenzo, Pràe, Fastro, Olle, Borgo Valsugana, Comunità Valsugana e Tesino, Provincia di Trento, Trentino-Alto Adige/Südtirol, 38051, Italia;San Lorenzo;46.0253596;11.4393899
mount_181;Castelnuovo;Strada forestale Busa longa, Castelnuovo, Comunità Valsugana e Tesino, Provincia di Trento, Trentino-Alto Adige/Südtirol, 38051, Italia;Monte Civeron;46.0356318;11.4860218
mount_182;Sèn Jan di Fassa;Rifugio El Zedron, Sentiero forestale per Lagusel, Sauch, San Giovanni di Fassa - Sèn Jan, Comun General de Fascia, Provincia di Trento, Trentino-Alto Adige/Südtirol, 38036, Italia;Col de Valvacin;46.4341947;11.7358878
mount_183;Canazei;Sasso di Rocca, 646, Canazei, Comun General de Fascia, Provincia di Trento, Trentino-Alto Adige/Südtirol, 38032, Italia;Sas Bianch de Roseal;46.4315778;11.7703335
mount_184;Canazei;Ciamp de Mez, Canazei, Comun General de Fascia, Provincia di Trento, Trentino-Alto Adige/Südtirol, 38032, Italia;Sas Neigher;46.434191;11.7802112
mount_185;Pozza di Fassa;Strada di Rusci, San Giovanni di Fassa - Sèn Jan, Comun General de Fascia, Provincia di Trento, Trentino-Alto Adige/Südtirol, Italia;Sas bianch;46.4293685;11.780533
mount_186;Canazei;646, Canazei, Comun General de Fascia, Provincia di Trento, Trentino-Alto Adige/Südtirol, 38032, Italia;Sas de Roces;46.4311841;11.7764095
mount_187;Pozza di Fassa;Strada forestale Pian da le Trapole, San Giovanni di Fassa - Sèn Jan, Comun General de Fascia, Provincia di Trento, Trentino-Alto Adige/Südtirol, 38036, Italia;Punta Vallaccia;46.3948826;11.7080947
mount_188;Imer;"Strada forestale Pian de le Vederne, Località ""Le Casere"", Imer, Comunità di Primiero, Provincia di Trento, Trentino-Alto Adige/Südtirol, Italia";Col Camoz;46.1284606;11.8074852
mount_189;Transacqua;Strada Forestale Giasinozza, Giasinozza, Transacqua, Primiero San Martino di Castrozza, Comunità di Primiero, Provincia di Trento, Trentino-Alto Adige/Südtirol, Italia;Col Guion;46.1607089;11.8649352
mount_190;Transacqua;Strada forestale Pretecasa - Stadel, Transacqua, Primiero San Martino di Castrozza, Comunità di Primiero, Provincia di Trento, Trentino-Alto Adige/Südtirol, 38054, Italia;Colle Cenguei;46.1787056;11.8620822
mount_191;Transacqua;Strada forestale Roncon, Transacqua, Primiero San Martino di Castrozza, Comunità di Primiero, Provincia di Trento, Trentino-Alto Adige/Südtirol, 38054, Italia;Colle Stiozze;46.1789028;11.8683247
mount_192;Transacqua;Pisa Bòi, Strada forestale Molinazza, Niosa, Transacqua, Primiero San Martino di Castrozza, Comunità di Primiero, Provincia di Trento, Trentino-Alto Adige/Südtirol, 38054, Italia;Sanguarna;46.1782524;11.8506573
mount_193;Transacqua;Croce del Padela, Strada forestale Roncon, Transacqua, Primiero San Martino di Castrozza, Comunità di Primiero, Provincia di Trento, Trentino-Alto Adige/Südtirol, 38054, Italia;Sasso Padella;46.1647465;11.8643702
mount_194;Mezzano;Strada forestale Val di Roda, Mezzano, Comunità di Primiero, Provincia di Trento, Trentino-Alto Adige/Südtirol, Italia;Agheré;46.1250785;11.85924
mount_195;Mezzano;Strada Piadochin, Case Fonteghi, Mezzano, Comunità di Primiero, Provincia di Trento, Trentino-Alto Adige/Südtirol, Italia;Cima Piadochin;46.1365109;11.8495723
mount_196;Transacqua;Val Cesure, Transacqua, Primiero San Martino di Castrozza, Comunità di Primiero, Provincia di Trento, Trentino-Alto Adige/Südtirol, Italia;Cima Spizòti;46.1488995;11.892291
mount_197;Transacqua;Val Sbrendòle, Transacqua, Primiero San Martino di Castrozza, Comunità di Primiero, Provincia di Trento, Trentino-Alto Adige/Südtirol, Italia;Cima Spizòti;46.1503256;11.8913566
mount_198;Imer;Strada forestale Col Mares, Imer, Comunità di Primiero, Provincia di Trento, Trentino-Alto Adige/Südtirol, Italia;Col Mares;46.1203755;11.8117839
mount_199;Transacqua;Col di S. Piero, Strada forestale Neva, Malga Neva Seconda, Transacqua, Primiero San Martino di Castrozza, Comunità di Primiero, Provincia di Trento, Trentino-Alto Adige/Südtirol, Italia;Col San Pietro;46.1504895;11.9009939
mount_200;Mezzano;Strada forestale Boal Canalini - Val dei Ponti, Mezzano, Comunità di Primiero, Provincia di Trento, Trentino-Alto Adige/Südtirol, Italia;Col della Parrocchia;46.1233575;11.8399161
mount_201;Mezzano;Strada forestale Costabella, Segadure, Mezzano, Comunità di Primiero, Provincia di Trento, Trentino-Alto Adige/Südtirol, Italia;Colfierech;46.1468809;11.8797632
mount_202;Mezzano;Cordogné, Poit, Mezzano, Comunità di Primiero, Provincia di Trento, Trentino-Alto Adige/Südtirol, Italia;Cordognè;46.1433497;11.8362445
mount_203;Transacqua;Val del Mat, Transacqua, Primiero San Martino di Castrozza, Comunità di Primiero, Provincia di Trento, Trentino-Alto Adige/Südtirol, Italia;Costa di Cogn;46.165522;11.8996456
mount_204;Transacqua;Strada forestale Neva, Malga Neva Seconda, Transacqua, Primiero San Martino di Castrozza, Comunità di Primiero, Provincia di Trento, Trentino-Alto Adige/Südtirol, Italia;Monte Neva;46.1561816;11.9093502
mount_205;Siror;Val Male, Siror, Primiero San Martino di Castrozza, Comunità di Primiero, Provincia di Trento, Trentino-Alto Adige/Südtirol, 38054, Italia;Sas del Cogol;46.2159524;11.8247298
mount_206;Tonadico;Sentiero Passo Regade, Tonadico, Primiero San Martino di Castrozza, Comunità di Primiero, Provincia di Trento, Trentino-Alto Adige/Südtirol, Italia;Cima Feltraio;46.2125058;11.9013499
mount_207;Tonadico;Sentiero Vani Alti, Tonadico, Primiero San Martino di Castrozza, Comunità di Primiero, Provincia di Trento, Trentino-Alto Adige/Südtirol, Italia;Cima Sant'Anna;46.2405623;11.9134047
mount_208;Tonadico;Pian delle Lede, Tonadico, Primiero San Martino di Castrozza, Comunità di Primiero, Provincia di Trento, Trentino-Alto Adige/Südtirol, Italia;Cima Sforcelloni;46.2297778;11.9130351
mount_209;San Martino di Castrozza;Conca, Strada forestale Tognola, Malga Tognòla di Siròr, San Martino di Castrozza, Primiero San Martino di Castrozza, Comunità di Primiero, Provincia di Trento, Trentino-Alto Adige/Südtirol, Italia;Cima Tognòla;46.2314201;11.7710853
mount_210;San Martino di Castrozza;Malga Valcigolera, San Martino di Castrozza, Primiero San Martino di Castrozza, Comunità di Primiero, Provincia di Trento, Trentino-Alto Adige/Südtirol, Italia;Cima Val Cigolera;46.2590011;11.7434328
mount_211;Tonadico;Pedemonte, Tonadico, Primiero San Martino di Castrozza, Comunità di Primiero, Provincia di Trento, Trentino-Alto Adige/Südtirol, 38054, Italia;Cima Wilma;46.2464475;11.8649815
mount_212;Tonadico;Sentiero Passo Regade, Tonadico, Primiero San Martino di Castrozza, Comunità di Primiero, Provincia di Trento, Trentino-Alto Adige/Südtirol, Italia;Cima d'Oltro;46.2207565;11.9068508
mount_213;Tonadico;Vallon delle Lede, Tonadico, Primiero San Martino di Castrozza, Comunità di Primiero, Provincia di Trento, Trentino-Alto Adige/Südtirol, Italia;Cima d'Ostio;46.2337853;11.8791881
mount_214;Tonadico;Buse Alte, Tonadico, Primiero San Martino di Castrozza, Comunità di Primiero, Provincia di Trento, Trentino-Alto Adige/Südtirol, Italia;Cima di Lastéi;46.2477428;11.8917202
mount_215;Tonadico;Vallon delle Lede, Tonadico, Primiero San Martino di Castrozza, Comunità di Primiero, Provincia di Trento, Trentino-Alto Adige/Südtirol, Italia;Cima di Sèdole;46.2349103;11.8840293
mount_216;Tonadico;Sentiero Vani Alti, Tonadico, Primiero San Martino di Castrozza, Comunità di Primiero, Provincia di Trento, Trentino-Alto Adige/Südtirol, Italia;Cime Vani Alti;46.2438976;11.9208561
mount_217;Tonadico;Sentiero Attrezzato Fiamme Gialle, Tonadico, Primiero San Martino di Castrozza, Comunità di Primiero, Provincia di Trento, Trentino-Alto Adige/Südtirol, Italia;Cime del Coro;46.2507768;11.9145338
mount_218;San Martino di Castrozza;"Sentiero attrezzato ""Achille Gadler"", San Martino di Castrozza, Primiero San Martino di Castrozza, Comunità di Primiero, Provincia di Trento, Trentino-Alto Adige/Südtirol, Italia";\N;46.2654506;11.7311097
mount_219;Tonadico;SS347, Padreterno, Tonadico, Primiero San Martino di Castrozza, Comunità di Primiero, Provincia di Trento, Trentino-Alto Adige/Südtirol, Italia;Col Molinai;46.1970686;11.9084468
mount_220;Imer;Strada forestale Vallorchere, Imer, Comunità di Primiero, Provincia di Trento, Trentino-Alto Adige/Südtirol, Italia;Col di Muri;46.1134723;11.7820331
mount_221;San Martino di Castrozza;Parco naturale Paneveggio - Pale di San Martino, San Martino di Castrozza, Primiero San Martino di Castrozza, Comunità di Primiero, Provincia di Trento, Trentino-Alto Adige/Südtirol, 38054, Italia;Colbricòn Piccolo;46.2771904;11.7458507
mount_222;Transacqua;Strada forestale Lavinaia, Toè, Transacqua, Primiero San Martino di Castrozza, Comunità di Primiero, Provincia di Trento, Trentino-Alto Adige/Südtirol, Italia;Colspiz;46.1833244;11.8908212
mount_223;San Martino di Castrozza;Strada Val Venegia, San Martino di Castrozza, Primiero San Martino di Castrozza, Comunità di Primiero, Provincia di Trento, Trentino-Alto Adige/Südtirol, Italia;Costazza;46.3013681;11.8034879
mount_224;Siror;Strada forestale Val di Roda, Siror, Primiero San Martino di Castrozza, Comunità di Primiero, Provincia di Trento, Trentino-Alto Adige/Südtirol, Italia;Cusiglio;46.2597782;11.8296168
mount_225;Transacqua;Transacqua, Primiero San Martino di Castrozza, Comunità di Primiero, Provincia di Trento, Trentino-Alto Adige/Südtirol, 38054, Italia;Dalàibol;46.2011865;11.8946695
mount_226;Tonadico;Sentiero Passo Regade, Tonadico, Primiero San Martino di Castrozza, Comunità di Primiero, Provincia di Trento, Trentino-Alto Adige/Südtirol, Italia;Le Rocchette;46.2168215;11.9045548
mount_227;Tonadico;Pian delle Lede, Tonadico, Primiero San Martino di Castrozza, Comunità di Primiero, Provincia di Trento, Trentino-Alto Adige/Südtirol, Italia;Pala dei Colombi;46.2427956;11.8958879
mount_228;Tonadico;Pian delle Lede, Tonadico, Primiero San Martino di Castrozza, Comunità di Primiero, Provincia di Trento, Trentino-Alto Adige/Südtirol, Italia;Pala del Rifugio;46.2378821;11.9095542
mount_229;Tonadico;Strada forestale Fraton Alto, Tonadico, Primiero San Martino di Castrozza, Comunità di Primiero, Provincia di Trento, Trentino-Alto Adige/Südtirol, Italia;Pale del Garfol;46.1825464;11.9224158
mount_230;San Martino di Castrozza;337, San Martino di Castrozza, Primiero San Martino di Castrozza, Comunità di Primiero, Provincia di Trento, Trentino-Alto Adige/Südtirol, 38054, Italia;Punta Cés;46.2682316;11.7556107
mount_231;Siror;Siror, Primiero San Martino di Castrozza, Comunità di Primiero, Provincia di Trento, Trentino-Alto Adige/Südtirol, 38054, Italia;Punta Figlio della Rosetta;46.2602805;11.828587
mount_232;San Martino di Castrozza;Strada Val Venegia, San Martino di Castrozza, Primiero San Martino di Castrozza, Comunità di Primiero, Provincia di Trento, Trentino-Alto Adige/Südtirol, Italia;Punta Rolle;46.2938788;11.801805
mount_233;Tonadico;Pian delle Lede, Tonadico, Primiero San Martino di Castrozza, Comunità di Primiero, Provincia di Trento, Trentino-Alto Adige/Südtirol, Italia;Punta della Madonna;46.231675;11.9122487
mount_234;Tonadico;Sentiero Passo Regade, Tonadico, Primiero San Martino di Castrozza, Comunità di Primiero, Provincia di Trento, Trentino-Alto Adige/Südtirol, Italia;Tacca Bianca;46.2110724;11.8933605
mount_235;San Martino di Castrozza;Paradiso, 15, San Martino di Castrozza, Primiero San Martino di Castrozza, Comunità di Primiero, Provincia di Trento, Trentino-Alto Adige/Südtirol, Italia;Tognazza;46.2879833;11.7865908
mount_236;Canal San Bovo;Bus Di Sotto, Canal San Bovo, Comunità di Primiero, Provincia di Trento, Trentino-Alto Adige/Südtirol, Italia;Tognòla;46.2334155;11.7263169
mount_237;San Martino di Castrozza;Valcigolera, Strada forestale Valcigolera, Malga Valcigolera, San Martino di Castrozza, Primiero San Martino di Castrozza, Comunità di Primiero, Provincia di Trento, Trentino-Alto Adige/Südtirol, Italia;Tognòla;46.2512687;11.7535236
mount_238;Canazei;Selva De Mulon, Canazei, Comun General de Fascia, Provincia di Trento, Trentino-Alto Adige/Südtirol, Italia;Gran Vernel;46.4423985;11.8321343
mount_239;Pozza di Fassa;Val Rosalia, San Giovanni di Fassa - Sèn Jan, Comun General de Fascia, Provincia di Trento, Trentino-Alto Adige/Südtirol, Italia;Pìcol Vernel;46.439598;11.8341331
mount_240;Castello Tesino;Strada Provinciale 246 di Celado, Sottomolizza, Castello Tesino, Comunità Valsugana e Tesino, Provincia di Trento, Trentino-Alto Adige/Südtirol, 38053, Italia;Col della Cimogna;46.0189579;11.6641593
mount_241;Pozza di Fassa;541, San Giovanni di Fassa - Sèn Jan, Comun General de Fascia, Provincia di Trento, Trentino-Alto Adige/Südtirol, Italia;Ostturm - Torre Est;46.461527;11.6277192
mount_242;Tiers;541, San Giovanni di Fassa - Sèn Jan, Comun General de Fascia, Provincia di Trento, Trentino-Alto Adige/Südtirol, Italia;Winklerturm - Torre Winkler;46.4608877;11.6259109
mount_243;Tiers;541, San Giovanni di Fassa - Sèn Jan, Comun General de Fascia, Provincia di Trento, Trentino-Alto Adige/Südtirol, Italia;Stabelerturm - Torre Stabeler;46.4609653;11.6252243
mount_244;Vigo;Castel Belvedere, Piazzola legname, Grill, Vigo, Baselga di Piné, Comunità Alta Valsugana e Bersntol, Provincia di Trento, Trentino-Alto Adige/Südtirol, 38042, Italia;Dos de la Mot;46.1118091;11.2381683
mount_245;Rizzolaga;Percorso a monte, Cagnotti, Rizzolaga, Baselga di Piné, Comunità Alta Valsugana e Bersntol, Provincia di Trento, Trentino-Alto Adige/Südtirol, 38042, Italia;Dosso del lago;46.1359191;11.2605843
mount_246;Baselga di Piné;Costalta NE, Baselga di Piné, Comunità Alta Valsugana e Bersntol, Provincia di Trento, Trentino-Alto Adige/Südtirol, 38042, Italia;\N;46.1383743;11.2962069
mount_247;Ivano-Fracena;Strada forestale Cimone, Ivano-Fracena, Castel Ivano, Comunità Valsugana e Tesino, Provincia di Trento, Trentino-Alto Adige/Südtirol, 38059, Italia;Monte Lefre;46.0594287;11.5489095
mount_248;Scurelle;Val Di Caldenave, Scurelle, Comunità Valsugana e Tesino, Provincia di Trento, Trentino-Alto Adige/Südtirol, Italia;Cima Delle Tavarade;46.1365;11.5351
mount_249;Telve;Strada Forestale Valpiana - Croce, Cere, Telve, Comunità Valsugana e Tesino, Provincia di Trento, Trentino-Alto Adige/Südtirol, Italia;Tombolo Di Montaletto;46.1554;11.5019
mount_250;Castello Tesino;per Cima Corma, Castello Tesino, Comunità Valsugana e Tesino, Provincia di Trento, Trentino-Alto Adige/Südtirol, Italia;Cima Corma;46.1858278;11.5953556
mount_251;Cavalese;Sentiero per il Cimon de le Buse de l'Oro, Cavalese, Comunità territoriale della Val di Fiemme, Provincia di Trento, Trentino-Alto Adige/Südtirol, Italia;Cimon Di Busa Della Neve;46.2035055;11.5216308
mount_252;Pieve Tesino;Strada forestale Cinque Croci, Pieve Tesino, Comunità Valsugana e Tesino, Provincia di Trento, Trentino-Alto Adige/Südtirol, Italia;Col Degli Uccelli;46.1897793;11.5559161
mount_253;Castello Tesino;Buse Belle, Castello Tesino, Comunità Valsugana e Tesino, Provincia di Trento, Trentino-Alto Adige/Südtirol, Italia;Col del vento;46.1851244;11.6126169
mount_254;Castello-Molina di Fiemme;Pian Della Maddalena, Castello-Molina di Fiemme, Comunità territoriale della Val di Fiemme, Provincia di Trento, Trentino-Alto Adige/Südtirol, Italia;Mugon;46.1921;11.4888
mount_255;Pieve Tesino;Forcella Tellina, Trodo dei Aseni, Pieve Tesino, Comunità Valsugana e Tesino, Provincia di Trento, Trentino-Alto Adige/Südtirol, Italia;Punta Socede;46.1667926;11.5870007
mount_256;Telve;Strada Provinciale del Passo del Manghen, Telve, Comunità Valsugana e Tesino, Provincia di Trento, Trentino-Alto Adige/Südtirol, Italia;Cima Di Valsolero;46.1676585;11.4492027
mount_257;Folgaria;Osservatorio Austroungarico Monte Rust, Via Roma, Chiesa, Lavarone, Magnifica Comunità degli Altipiani Cimbri, Provincia di Trento, Trentino-Alto Adige/Südtirol, 38046, Italia;Monte Rust;45.9383814;11.2446995
mount_258;Predazzo;Sentiero per Moregna - Giovanni Fifol, Predazzo, Comunità territoriale della Val di Fiemme, Provincia di Trento, Trentino-Alto Adige/Südtirol, Italia;Coltorondo;46.2557232;11.638678
mount_259;Baselga di Piné;Mulattiera militare, Fioré, Baselga di Piné, Comunità Alta Valsugana e Bersntol, Provincia di Trento, Trentino-Alto Adige/Südtirol, 38042, Italia;Dos dei Pini;46.1171378;11.2761491
mount_260;Canazei;1° tornante, Penìa, Canazei, Comun General de Fascia, Provincia di Trento, Trentino-Alto Adige/Südtirol, 38032, Italia;Bocia De L' Ors;46.4465;11.8048
mount_261;Soraga di Fassa;P02, Soraga di Fassa, Comun General de Fascia, Provincia di Trento, Trentino-Alto Adige/Südtirol, Italia;Cima dell'Uomo;46.4062271;11.808922
mount_262;Canazei;1° tornante, Penìa, Canazei, Comun General de Fascia, Provincia di Trento, Trentino-Alto Adige/Südtirol, 38032, Italia;Coi de Lèstes;46.4475;11.8039
mount_263;Canazei;Ciamorciaa, Canazei, Comun General de Fascia, Provincia di Trento, Trentino-Alto Adige/Südtirol, Italia;Col Dal Baranchie;46.4571;11.8483
mount_264;Canazei;Military Kitchen, SS641, Canazei, Comun General de Fascia, Provincia di Trento, Trentino-Alto Adige/Südtirol, Italia;Col De Bousc;46.4531748;11.8598399
mount_265;Canazei;Ciamp de Mez, Canazei, Comun General de Fascia, Provincia di Trento, Trentino-Alto Adige/Südtirol, 38032, Italia;Col Del Paluf;46.428;11.8014
mount_266;Canazei;Sot Vernel, Canazei, Comun General de Fascia, Provincia di Trento, Trentino-Alto Adige/Südtirol, 38032, Italia;La Spires;46.4449;11.8126
mount_267;Sèn Jan di Fassa;Bivacco Marco Dal Bianco, Via Ferrata Marmolada Cresta Ovest, San Giovanni di Fassa - Sèn Jan, Comun General de Fascia, Provincia di Trento, Trentino-Alto Adige/Südtirol, Italia;Ombreta Orientale;46.4243255;11.8464784
mount_268;Canazei;Sot Vernel, Canazei, Comun General de Fascia, Provincia di Trento, Trentino-Alto Adige/Südtirol, 38032, Italia;Pèla de Vernel;46.4459189;11.8157314
mount_269;Pozza di Fassa;Ciamp De La Selva, San Giovanni di Fassa - Sèn Jan, Comun General de Fascia, Provincia di Trento, Trentino-Alto Adige/Südtirol, Italia;Ponta De Cornates;46.4428;11.8237
mount_270;Soraga di Fassa;Soraga di Fassa, Comun General de Fascia, Provincia di Trento, Trentino-Alto Adige/Südtirol, 38030, Italia;Ponta del Ciadin;46.4058;11.8043
mount_271;Canazei;Capanna Punta Penia, Via Ferrata Marmolada Cresta Ovest, San Giovanni di Fassa - Sèn Jan, Comun General de Fascia, Provincia di Trento, Trentino-Alto Adige/Südtirol, Italia;Punta Rocca;46.4343771;11.8564677
mount_272;Pozza di Fassa;P02, San Giovanni di Fassa - Sèn Jan, Comun General de Fascia, Provincia di Trento, Trentino-Alto Adige/Südtirol, Italia;Ponte Cadine;46.4113;11.8122
mount_273;Canazei;Selva De Mulon, Canazei, Comun General de Fascia, Provincia di Trento, Trentino-Alto Adige/Südtirol, Italia;Roda De Mulon;46.4485;11.8355
mount_274;Soraga di Fassa;P02, Soraga di Fassa, Comun General de Fascia, Provincia di Trento, Trentino-Alto Adige/Südtirol, Italia;Sas da la Tas-cia;46.4043075;11.8135468
mount_275;Canazei;SS641, Penìa, Canazei, Comun General de Fascia, Provincia di Trento, Trentino-Alto Adige/Südtirol, 38032, Italia;Sas Dal Pegorer;46.4519;11.8111
mount_276;Canazei;Ciamorciaa, Canazei, Comun General de Fascia, Provincia di Trento, Trentino-Alto Adige/Südtirol, Italia;Sas De La Ciaures;46.4491113;11.8438649
mount_277;Pozza di Fassa;Traccia Sassovernale cresta S/SW, San Giovanni di Fassa - Sèn Jan, Comun General de Fascia, Provincia di Trento, Trentino-Alto Adige/Südtirol, Italia;Sasso Vernale;46.4189191;11.8403559
mount_278;Pozza di Fassa;Le Bernardae, San Giovanni di Fassa - Sèn Jan, Comun General de Fascia, Provincia di Trento, Trentino-Alto Adige/Südtirol, Italia;Vernadais;46.425;11.8011
mount_279;Torcegno;Sentiero alpinistico Fratelli Giuliani, Torcegno, Comunità Valsugana e Tesino, Provincia di Trento, Trentino-Alto Adige/Südtirol, Italia;Sasso Rotto;46.1253509;11.3995306
mount_280;Palù del Fersina - Palai en Bersntol;Sentiero alpinistico Fratelli Giuliani, Palù del Fersina - Palai en Bersntol, Comunità Alta Valsugana e Bersntol, Provincia di Trento, Trentino-Alto Adige/Südtirol, Italia;Sasso Rosso;46.12133;11.3996317
mount_281;Palù del Fersina - Palai en Bersntol;Sentiero alpinistico Fratelli Giuliani, Palù del Fersina - Palai en Bersntol, Comunità Alta Valsugana e Bersntol, Provincia di Trento, Trentino-Alto Adige/Südtirol, Italia;Cima di Sette Selle;46.1279858;11.3986979
mount_282;Telve;Baracca ricostruita Grande Guerra, Strada forestale Vatrighetta - Cagnon, Telve, Comunità Valsugana e Tesino, Provincia di Trento, Trentino-Alto Adige/Südtirol, Italia;Monte Slimber;46.1362251;11.390845
mount_283;Palù del Fersina - Palai en Bersntol;Rifugio Erdemolo, Maso Lenzi, Palù del Fersina - Palai en Bersntol, Comunità Alta Valsugana e Bersntol, Provincia di Trento, Trentino-Alto Adige/Südtirol, Italia;Monte Hoamonder;46.1267528;11.3907015
mount_284;Sant'Orsola Terme;"Strada Forestale ""Costalta"", Sant'Orsola Terme, Comunità Alta Valsugana e Bersntol, Provincia di Trento, Trentino-Alto Adige/Südtirol, 38043, Italia";Cadinel alt;46.1293644;11.288517
mount_285;Baselga di Piné;Sostitutivo 404, Baselga di Piné, Comunità Alta Valsugana e Bersntol, Provincia di Trento, Trentino-Alto Adige/Südtirol, 38042, Italia;Cadinel bas;46.1262206;11.2865143
mount_286;Centrale;Strada di Malga Stramaiolo, Regnana, Centrale, Bedollo, Comunità Alta Valsugana e Bersntol, Provincia di Trento, Trentino-Alto Adige/Südtirol, 38043, Italia;Campidei;46.1628595;11.3291281
mount_287;Palù del Fersina - Palai en Bersntol;Rifugio Erdemolo, Maso Lenzi, Palù del Fersina - Palai en Bersntol, Comunità Alta Valsugana e Bersntol, Provincia di Trento, Trentino-Alto Adige/Südtirol, Italia;Stocher;46.1207161;11.3706209
mount_288;Castello-Molina di Fiemme;Strada Provinciale 31 del Manghen, Castello-Molina di Fiemme, Comunità territoriale della Val di Fiemme, Provincia di Trento, Trentino-Alto Adige/Südtirol, Italia;Costa Onchieli;46.186833;11.4428679
mount_289;Castello-Molina di Fiemme;Strada Provinciale 31 del Manghen, Castello-Molina di Fiemme, Comunità territoriale della Val di Fiemme, Provincia di Trento, Trentino-Alto Adige/Südtirol, Italia;Monte Manghen;46.1753075;11.4435374
mount_290;Cavalese;al lago del Forame, Cavalese, Comunità territoriale della Val di Fiemme, Provincia di Trento, Trentino-Alto Adige/Südtirol, Italia;Monte Tuschere;46.1905547;11.4744475
mount_291;Castello-Molina di Fiemme;Iscrizione romana, Strada forestale Stue basse - Camini, Castello-Molina di Fiemme, Comunità territoriale della Val di Fiemme, Provincia di Trento, Trentino-Alto Adige/Südtirol, Italia;Pergol;46.1891873;11.4615828
mount_292;Ziano di Fiemme;Sentiero attrezzato Attilio Sieff, Ziano di Fiemme, Comunità territoriale della Val di Fiemme, Provincia di Trento, Trentino-Alto Adige/Südtirol, 38038, Italia;Punta Polse;46.2924375;11.5587841
mount_293;Asiago;Lapidi in memoria di giovani partigiani (I Piccoli Maestri), Strada forestale Brustolaè, Bislonghi, Castel Ivano, Comunità Valsugana e Tesino, Provincia di Trento, Trentino-Alto Adige/Südtirol, 38059, Italia;Cima Incudine;46.0120088;11.5487399
mount_294;Villa Agnedo;Croce in ricordo del partigiano Siro Loser, Strada forestale Brustolaè, Bislonghi, Castel Ivano, Comunità Valsugana e Tesino, Provincia di Trento, Trentino-Alto Adige/Südtirol, 38059, Italia;Punta Molina;46.0141385;11.5435951
mount_295;Ospedaletto;Lapide in memoria di Rigoni Rinaldo (Moretto), Via per Petretto, Roncade, Ospedaletto, Comunità Valsugana e Tesino, Provincia di Trento, Trentino-Alto Adige/Südtirol, 38059, Italia;Cima Isidoro;46.011974;11.5537821
mount_296;Villa Agnedo;Strada forestale Brustolaè, Bislonghi, Castel Ivano, Comunità Valsugana e Tesino, Provincia di Trento, Trentino-Alto Adige/Südtirol, 38059, Italia;Torino della Fossetta;46.0140044;11.5395879
mount_297;Borgo Valsugana;Borgo Valsugana, Comunità Valsugana e Tesino, Provincia di Trento, Trentino-Alto Adige/Südtirol, 38051, Italia;Cima Laste;45.9818638;11.4074106
mount_298;Ziano di Fiemme;Busa del Castel, Ziano di Fiemme, Comunità territoriale della Val di Fiemme, Provincia di Trento, Trentino-Alto Adige/Südtirol, Italia;Cima De Copola;46.2219212;11.559428
mount_299;Tesero;Tesero, Comunità territoriale della Val di Fiemme, Provincia di Trento, Trentino-Alto Adige/Südtirol, 38038, Italia;Cimon de le Sute;46.2109;11.5334
mount_300;Grigno;Aquila Vaia, Strada forestale Laghetti, Grigno, Comunità Valsugana e Tesino, Provincia di Trento, Trentino-Alto Adige/Südtirol, Italia;Monte Cucco;45.9795705;11.5939392
mount_301;Grigno;Strada forestale Gasperini, Grigno, Comunità Valsugana e Tesino, Provincia di Trento, Trentino-Alto Adige/Südtirol, 38055, Italia;Colle dei Meneghini;45.9710032;11.6435309
mount_302;Grigno;Strada forestale Val d'Antenne, Grigno, Comunità Valsugana e Tesino, Provincia di Trento, Trentino-Alto Adige/Südtirol, 38055, Italia;Colle Val D'Antenne;45.9804017;11.6384481
mount_303;Sagron;Spiazzon, Sagron, Sagron Mis, Comunità di Primiero, Provincia di Trento, Trentino-Alto Adige/Südtirol, Italia;Sasso Delle Undici;46.1725897;11.9439362
mount_304;Daiano;502, Ville di Fiemme, Comunità territoriale della Val di Fiemme, Provincia di Trento, Trentino-Alto Adige/Südtirol, 38033, Italia;Il Palone;46.3330842;11.4493094
mount_305;Miola;Pontara, Cadrobbi, Miola, Baselga di Piné, Comunità Alta Valsugana e Bersntol, Provincia di Trento, Trentino-Alto Adige/Südtirol, 38042, Italia;Dos del Massalon;46.1233337;11.246722
mount_306;Miola;Via del Cadrobol, Bugno, Palustela, Miola, Baselga di Piné, Comunità Alta Valsugana e Bersntol, Provincia di Trento, Trentino-Alto Adige/Südtirol, 38042, Italia;Dos del Sas;46.1202516;11.2516323
mount_307;Palù del Fersina - Palai en Bersntol;Ippovia del Trentino orientale, Palù del Fersina - Palai en Bersntol, Comunità Alta Valsugana e Bersntol, Provincia di Trento, Trentino-Alto Adige/Südtirol, 38043, Italia;Crozzon;46.1392497;11.3296052
mount_308;Sant'Orsola Terme;SP224, Sant'Orsola Terme, Comunità Alta Valsugana e Bersntol, Provincia di Trento, Trentino-Alto Adige/Südtirol, 38043, Italia;Sass de Sant'Orsola;46.1316914;11.3212806
mount_309;Faida;"Sas fendù, Strada forestale ""Sas Bianch"", Mas del Plancher, Faida, Baselga di Piné, Comunità Alta Valsugana e Bersntol, Provincia di Trento, Trentino-Alto Adige/Südtirol, 38042, Italia";Dos dei Fonghi;46.1047734;11.2679476
mount_310;Sant'Orsola Terme;"Strada forestale ""Sporcela"", Sant'Orsola Terme, Comunità Alta Valsugana e Bersntol, Provincia di Trento, Trentino-Alto Adige/Südtirol, 38043, Italia";Col de Sporcela;46.1251313;11.2951346
mount_311;Lona-Lases;Locca-Vasoni, Lona-Lases, Comunità della Valle di Cembra, Provincia di Trento, Trentino-Alto Adige/Südtirol, 38048, Italia;Cima del Casaret;46.1895051;11.3529932
mount_312;Roncegno Terme;Valle della Ilba, Roncegno Terme, Comunità Valsugana e Tesino, Provincia di Trento, Trentino-Alto Adige/Südtirol, Italia;Col dei Omeneti;46.0895465;11.3750185
mount_313;Telve di Sopra;Orna, Casolera-Porchera, Telve di Sopra, Comunità Valsugana e Tesino, Provincia di Trento, Trentino-Alto Adige/Südtirol, Italia;Monte Ciste;46.1134455;11.4462769
mount_314;Campolongo;Piazzola - Marić, Campolongo, Baselga di Piné, Comunità Alta Valsugana e Bersntol, Provincia di Trento, Trentino-Alto Adige/Südtirol, 38043, Italia;Dos de la Piazzola;46.1405935;11.2842637
mount_315;Viarago;Strada de Val de Barch, Viarago, Pergine Valsugana, Comunità Alta Valsugana e Bersntol, Provincia di Trento, Trentino-Alto Adige/Südtirol, 38042, Italia;Dosso del Pratond;46.0913298;11.256345
mount_316;Rizzolaga;"Strada forestale ""Pontare Longhe - Le Pale"", Al Sant, Rizzolaga, Baselga di Piné, Comunità Alta Valsugana e Bersntol, Provincia di Trento, Trentino-Alto Adige/Südtirol, 38047, Italia";Cime Alte;46.1505731;11.2521925
mount_317;Brusago;Via San Giovanni Bosco, Checa, Brusago, Bedollo, Comunità Alta Valsugana e Bersntol, Provincia di Trento, Trentino-Alto Adige/Südtirol, 38043, Italia;Gać;46.1799217;11.3092621
mount_318;Bedollo;Passo del Campivel, Strada di Malga Stramaiolo, Bedollo, Comunità Alta Valsugana e Bersntol, Provincia di Trento, Trentino-Alto Adige/Südtirol, 38043, Italia;Cimat;46.1555361;11.3432557
mount_319;Roncegno Terme;Sentiero Prima Guerra Mondiale, Frassilongo - Garait, Comunità Alta Valsugana e Bersntol, Provincia di Trento, Trentino-Alto Adige/Südtirol, Italia;La Fontanella;46.0653677;11.3425234
mount_320;Tezze Valsugana;Le Fontanelle, Tezze Valsugana, Grigno, Comunità Valsugana e Tesino, Provincia di Trento, Trentino-Alto Adige/Südtirol, 38055, Italia;Col delle Mandre;45.9860604;11.683548
mount_321;Castello Tesino;Strada Provinciale 246 di Celado, Sottomolizza, Castello Tesino, Comunità Valsugana e Tesino, Provincia di Trento, Trentino-Alto Adige/Südtirol, 38053, Italia;Col dei Baili;46.042888;11.6487705
mount_322;Castello Tesino;Castello Tesino, Comunità Valsugana e Tesino, Provincia di Trento, Trentino-Alto Adige/Südtirol, 38053, Italia;Col di Gamba;46.0384676;11.6569142
mount_323;Castello Tesino;Castello Tesino, Comunità Valsugana e Tesino, Provincia di Trento, Trentino-Alto Adige/Südtirol, 38053, Italia;Col di Volta;46.0439766;11.6517735
mount_324;Castello Tesino;Strada dell'antenna, Castello Tesino, Comunità Valsugana e Tesino, Provincia di Trento, Trentino-Alto Adige/Südtirol, 38053, Italia;Monte Pasolin;46.0405332;11.6442832
mount_325;Grigno;Strada del Morello, Grigno, Comunità Valsugana e Tesino, Provincia di Trento, Trentino-Alto Adige/Südtirol, 38055, Italia;Col Cantiero;46.023222;11.6439258
mount_326;Castello Tesino;Strada della Baia, Castello Tesino, Comunità Valsugana e Tesino, Provincia di Trento, Trentino-Alto Adige/Südtirol, 38053, Italia;Col della Baia;46.0472979;11.6717483
mount_327;Castello Tesino;Strada Provinciale 246 di Celado, Sottomolizza, Castello Tesino, Comunità Valsugana e Tesino, Provincia di Trento, Trentino-Alto Adige/Südtirol, 38053, Italia;Monte Valnappe;46.0320187;11.6476173
mount_328;Canazei;Rifugio Maria, 627, Canazei, Comun General de Fascia, Provincia di Trento, Trentino-Alto Adige/Südtirol, 38032, Italia;Sas de Pordoi;46.500733;11.8079947
mount_329;Pieve Tesino;non segnato, Pieve Tesino, Comunità Valsugana e Tesino, Provincia di Trento, Trentino-Alto Adige/Südtirol, Italia;Campagnasa;46.150999;11.6065493
mount_330;Pieve Tesino;non segnato, Pieve Tesino, Comunità Valsugana e Tesino, Provincia di Trento, Trentino-Alto Adige/Südtirol, Italia;il Passetto;46.1607935;11.6104024
mount_331;Castello Tesino;Forcella Viosa o Sternozzena, Strada forestale Viosa, Castello Tesino, Comunità Valsugana e Tesino, Provincia di Trento, Trentino-Alto Adige/Südtirol, Italia;\N;46.1358531;11.6683742
mount_332;Castello Tesino;Palon dela Cavallara, Strada forestale Viosa, Castello Tesino, Comunità Valsugana e Tesino, Provincia di Trento, Trentino-Alto Adige/Südtirol, Italia;Palòn della Cavallara;46.1323278;11.6581202
mount_333;Castello Tesino;punti di postazione, SP79, Castello Tesino, Comunità Valsugana e Tesino, Provincia di Trento, Trentino-Alto Adige/Südtirol, 38053, Italia;Col della Boia;46.125268;11.6652852
mount_334;Castello Tesino;Castello Tesino, Comunità Valsugana e Tesino, Provincia di Trento, Trentino-Alto Adige/Südtirol, 38053, Italia;\N;46.1321834;11.6561491
mount_335;Cavalese;LO4, Cavalese, Comunità territoriale della Val di Fiemme, Provincia di Trento, Trentino-Alto Adige/Südtirol, Italia;Castel di Bombasel;46.2230301;11.5069046
mount_336;Valfloriana;Pradi de la Fior, Valfloriana, Comunità territoriale della Val di Fiemme, Provincia di Trento, Trentino-Alto Adige/Südtirol, Italia;Monte Brustoloni;46.213351;11.4009773
mount_337;Telve;Sentiero Baraccamenti Baitol, Telve, Comunità Valsugana e Tesino, Provincia di Trento, Trentino-Alto Adige/Südtirol, Italia;Doss dei Zirmi;46.1676687;11.3735716
mount_338;Bedollo;Passo del Campivel, Strada di Malga Stramaiolo, Bedollo, Comunità Alta Valsugana e Bersntol, Provincia di Trento, Trentino-Alto Adige/Südtirol, 38043, Italia;\N;46.1601981;11.3386511
mount_339;Campitello di Fassa;Via Ferrata Laurenzi, Campitello di Fassa, Comun General de Fascia, Provincia di Trento, Trentino-Alto Adige/Südtirol, Italia;Nordwestlicher Molignon - Molignon di Fuori;46.4876807;11.6436026
mount_340;Mazzin;Via Ferrata Laurenzi, Mazzin, Comun General de Fascia, Provincia di Trento, Trentino-Alto Adige/Südtirol, 38030, Italia;Croda dei Cirmei - Antermoiakogel;46.4817729;11.6479529
mount_341;Mazzin;Via Ferrata Laurenzi, Mazzin, Comun General de Fascia, Provincia di Trento, Trentino-Alto Adige/Südtirol, 38030, Italia;Molignon di Dentro;46.4830443;11.6505064
mount_342;Tiers;Via Ferrata Laurenzi, Mazzin, Comun General de Fascia, Provincia di Trento, Trentino-Alto Adige/Südtirol, Italia;Mittlere Grasleitenspitze - Cima del Principe;46.4868528;11.6372182
mount_343;Pozza di Fassa;541, San Giovanni di Fassa - Sèn Jan, Comun General de Fascia, Provincia di Trento, Trentino-Alto Adige/Südtirol, Italia;Hauptturm - Torre Principale;46.4616829;11.6270194
mount_344;Tonadico;Normale cima Mastorna Orientale, Tonadico, Primiero San Martino di Castrozza, Comunità di Primiero, Provincia di Trento, Trentino-Alto Adige/Südtirol, Italia;Cima Mastorna Orientale;46.2515512;11.8972716
mount_345;Ziano di Fiemme;Trinceroni del Monte Cauriol, Via Austriaca, Ziano di Fiemme, Comunità territoriale della Val di Fiemme, Provincia di Trento, Trentino-Alto Adige/Südtirol, Italia;Monte Cauriol;46.2353094;11.5964133
mount_346;Levico Terme;Strada Forestale Cima Vezzena, Levico Terme, Comunità Alta Valsugana e Bersntol, Provincia di Trento, Trentino-Alto Adige/Südtirol, 38056, Italia;Il Camin;45.9765185;11.3522589
mount_347;Levico Terme;Baita Cangi, Levico Terme, Comunità Alta Valsugana e Bersntol, Provincia di Trento, Trentino-Alto Adige/Südtirol, 38056, Italia;Monte Naspo;45.9776289;11.3214022
mount_348;Valfloriana;Passo Mirafiori - Pala delle Buse, Lona-Lases, Comunità della Valle di Cembra, Provincia di Trento, Trentino-Alto Adige/Südtirol, Italia;Pala della Madonna;46.2031454;11.3923268
mount_349;Laghi;Monte Maggio, SP138, Terragnolo, Comunità della Vallagarina, Provincia di Trento, Trentino-Alto Adige/Südtirol, Italia;Monte Maggio;45.849049;11.221881
mount_350;San Martino di Castrozza;"Sentiero attrezzato ""Achille Gadler"", San Martino di Castrozza, Primiero San Martino di Castrozza, Comunità di Primiero, Provincia di Trento, Trentino-Alto Adige/Südtirol, Italia";Colbricon Est;46.2738562;11.7534637
mount_351;Pera;Col dal Pisol, Pera, San Giovanni di Fassa - Sèn Jan, Comun General de Fascia, Provincia di Trento, Trentino-Alto Adige/Südtirol, 38036, Italia;Sas de Pere da Fech;46.4401201;11.7109197
mount_352;Campitello di Fassa;Campitello di Fassa - Ciampedel, Campitello di Fassa, Comun General de Fascia, Provincia di Trento, Trentino-Alto Adige/Südtirol, 38031, Italia;Piza Innerkofler - Innerkoflerturm - Plan de Sass;46.5104008;11.7308878
mount_353;Torcegno;Strada forestale Col San Pietro, Torcegno, Comunità Valsugana e Tesino, Provincia di Trento, Trentino-Alto Adige/Südtirol, 38051, Italia;Colle San pietro;46.0687691;11.4639263
mount_354;Sant'Orsola Terme;Sentiero della Cros de Mala, Masi dei Stefani, Sant'Orsola Terme, Comunità Alta Valsugana e Bersntol, Provincia di Trento, Trentino-Alto Adige/Südtirol, 38042, Italia;La Brada;46.1075433;11.2721507
mount_355;Pieve Tesino;Aia Dell'Orso, Pieve Tesino, Comunità Valsugana e Tesino, Provincia di Trento, Trentino-Alto Adige/Südtirol, Italia;Col del Latte;46.2039052;11.5656921
mount_356;Castello Tesino;Cima Diavoli, Castello Tesino, Comunità Valsugana e Tesino, Provincia di Trento, Trentino-Alto Adige/Südtirol, Italia;Cima Diavoli;46.1782406;11.6077611
mount_357;Ziano di Fiemme;Sentiero per Busa Alta, Ziano di Fiemme, Comunità territoriale della Val di Fiemme, Provincia di Trento, Trentino-Alto Adige/Südtirol, Italia;Canzenagol;46.2547361;11.6139082
mount_358;Pieve Tesino;Percorso Trincee Prima Guerra Mondiale, Pieve Tesino, Comunità Valsugana e Tesino, Provincia di Trento, Trentino-Alto Adige/Südtirol, 38050, Italia;Tombola Nera;46.1452626;11.5704541
mount_359;Faida;"strada forestale ""Mas dei Rossi"", Cà de l'Angiol, Faida, Baselga di Piné, Comunità Alta Valsugana e Bersntol, Provincia di Trento, Trentino-Alto Adige/Südtirol, 38042, Italia";Dos dei Rossi;46.1144038;11.2654054
mount_360;Baselga di Piné;Strada del Croz de le Casele, Fovo alto, Baselga di Piné, Comunità Alta Valsugana e Bersntol, Provincia di Trento, Trentino-Alto Adige/Südtirol, 38042, Italia;Croz de le Casele;46.1315259;11.2723197
mount_361;Telve;Sentiero Baraccamenti Baitol, Telve, Comunità Valsugana e Tesino, Provincia di Trento, Trentino-Alto Adige/Südtirol, Italia;Pala de la Busona;46.1811022;11.3813403
mount_362;Bedollo;Busa dei Campedei, Bedollo, Comunità Alta Valsugana e Bersntol, Provincia di Trento, Trentino-Alto Adige/Südtirol, 38043, Italia;Pala di Stramaiolo - Mitreck;46.1533527;11.357655
mount_363;Predazzo;GeoTrail del Dos Capèl, Predazzo, Comunità territoriale della Val di Fiemme, Provincia di Trento, Trentino-Alto Adige/Südtirol, Italia;Dos Capèl;46.3355842;11.5603238
mount_364;Viarago;Maso Fenugola, Viarago, Pergine Valsugana, Comunità Alta Valsugana e Bersntol, Provincia di Trento, Trentino-Alto Adige/Südtirol, 38042, Italia;Dos de Vedesena;46.0841514;11.2538518
mount_365;Viarago;Strada dei Revèrsi, Riposo, Viarago, Pergine Valsugana, Comunità Alta Valsugana e Bersntol, Provincia di Trento, Trentino-Alto Adige/Südtirol, 38042, Italia;Dos de Cagnon;46.0895592;11.2483522
mount_366;Ospedaletto;Strada forestale Val Bronzale, Ospedaletto, Comunità Valsugana e Tesino, Provincia di Trento, Trentino-Alto Adige/Südtirol, 38050, Italia;Col dei Malandrini;46.044713;11.5710964
mount_367;Villa Agnedo;Via Roma, Castel Ivano, Comunità Valsugana e Tesino, Provincia di Trento, Trentino-Alto Adige/Südtirol, 38059, Italia;Col Fortin;46.0469005;11.5436457
mount_368;Ospedaletto;Via per Petretto, Roncade, Ospedaletto, Comunità Valsugana e Tesino, Provincia di Trento, Trentino-Alto Adige/Südtirol, 38059, Italia;Sasso Corvo;46.0293927;11.5554752
mount_369;Mezzano;passaggio molto esposto, Strada forestale Pinteri, Mezzano, Comunità di Primiero, Provincia di Trento, Trentino-Alto Adige/Südtirol, Italia;Sasso di Scarnia;46.1211338;11.8935198
mount_370;Predazzo;339 - 349, Sentiero per Moregna - Giovanni Fifol, Predazzo, Comunità territoriale della Val di Fiemme, Provincia di Trento, Trentino-Alto Adige/Südtirol, Italia;Cadinon;46.2636683;11.6211795
mount_371;Borgo Valsugana;Strada forestale Busa del Mochene, Valle di Sella, Borgo Valsugana, Comunità Valsugana e Tesino, Provincia di Trento, Trentino-Alto Adige/Südtirol, Italia;Sasso Alto;46.0153237;11.404808
mount_372;Borgo Valsugana;Strada forestale Val Vis - Cera - Busa dei Groi, Borgo Valsugana, Comunità Valsugana e Tesino, Provincia di Trento, Trentino-Alto Adige/Südtirol, 38051, Italia;L'Armentera;46.0222786;11.4274968
mount_373;Roncegno Terme;Puisle, Roncegno Terme, Comunità Valsugana e Tesino, Provincia di Trento, Trentino-Alto Adige/Südtirol, Italia;Colle della Stanga;46.0185136;11.4151573
mount_374;Bieno;Scala del Tombolin, Bieno, Comunità Valsugana e Tesino, Provincia di Trento, Trentino-Alto Adige/Südtirol, 38050, Italia;Monte Castelletto;46.1111588;11.5689105
mount_375;Predazzo;Croce dela Caorina, Alta Via di Viezena, Predazzo, Comunità territoriale della Val di Fiemme, Provincia di Trento, Trentino-Alto Adige/Südtirol, 38035, Italia;Le Pezze - Caorina;46.3333086;11.67488
mount_376;Moena;Al lago Gronton, Moena, Comun General de Fascia, Provincia di Trento, Trentino-Alto Adige/Südtirol, 38035, Italia;Cima Lastè;46.3475969;11.7218234
mount_377;Predazzo;Sentiero per Moregna - Giovanni Fifol, Predazzo, Comunità territoriale della Val di Fiemme, Provincia di Trento, Trentino-Alto Adige/Südtirol, Italia;Cima di Valmaggiore;46.2565859;11.6579627
mount_378;Predazzo;Sentiero per Moregna - Giovanni Fifol, Predazzo, Comunità territoriale della Val di Fiemme, Provincia di Trento, Trentino-Alto Adige/Südtirol, Italia;Dos Calighèr;46.2634638;11.6536394
mount_379;Predazzo;"E349 - Sentiero attrezzato ""Achille Gadler"", Predazzo, Comunità territoriale della Val di Fiemme, Provincia di Trento, Trentino-Alto Adige/Südtirol, Italia";Cima di Valbona;46.2659713;11.6939671
mount_380;Predazzo;"E349 - Sentiero attrezzato ""Achille Gadler"", Predazzo, Comunità territoriale della Val di Fiemme, Provincia di Trento, Trentino-Alto Adige/Südtirol, Italia";Cima Valon;46.2614664;11.7051617
mount_381;Predazzo;"E349 - Sentiero attrezzato ""Achille Gadler"", Predazzo, Comunità territoriale della Val di Fiemme, Provincia di Trento, Trentino-Alto Adige/Südtirol, Italia";Campanile di Cece;46.2569271;11.6764166
mount_382;Canal San Bovo;Bus Di Sotto, Canal San Bovo, Comunità di Primiero, Provincia di Trento, Trentino-Alto Adige/Südtirol, Italia;Cima Miesnotta;46.2540231;11.7065917
mount_383;Montagnaga;Via del Masét, Maset, Montagnaga, Baselga di Piné, Comunità Alta Valsugana e Bersntol, Provincia di Trento, Trentino-Alto Adige/Südtirol, 38042, Italia;Dosso di Sant'Anna;46.0988021;11.2345637
mount_384;Montagnaga;"Strada forestale ""Bisel-Lem-Puel"", Puel, Montagnaga, Baselga di Piné, Comunità Alta Valsugana e Bersntol, Provincia di Trento, Trentino-Alto Adige/Südtirol, 38042, Italia";Dosso di Puel;46.0949009;11.2284458
mount_385;Cavalese;al lago del Forame, Cavalese, Comunità territoriale della Val di Fiemme, Provincia di Trento, Trentino-Alto Adige/Südtirol, Italia;Cimon di Busa Grana;46.2077897;11.482938
mount_386;Cavalese;Sentiero per il Cimon de le Buse de l'Oro, Cavalese, Comunità territoriale della Val di Fiemme, Provincia di Trento, Trentino-Alto Adige/Südtirol, Italia;Cimon della Roa;46.2112622;11.5134748
mount_387;Ziano di Fiemme;nuova variante della mulattiera di Sadole causa interruzione vecchia mulattiera, Ziano di Fiemme, Comunità territoriale della Val di Fiemme, Provincia di Trento, Trentino-Alto Adige/Südtirol, Italia;Castel Aie;46.2403592;11.577302
mount_388;Panchià;Strada forestale Itene, Panchià, Comunità territoriale della Val di Fiemme, Provincia di Trento, Trentino-Alto Adige/Südtirol, Italia;Formentone;46.2374628;11.5670853
mount_389;Panchià;Bivacco Nada Teatin, Strada forestale Itene, Panchià, Comunità territoriale della Val di Fiemme, Provincia di Trento, Trentino-Alto Adige/Südtirol, Italia;Il Frate;46.2322876;11.5650183
mount_390;Tesero;Tesero, Comunità territoriale della Val di Fiemme, Provincia di Trento, Trentino-Alto Adige/Südtirol, 38038, Italia;Cima Formion;46.2265933;11.5377862
mount_391;Imer;Strada forestale Colaz, Imer, Comunità di Primiero, Provincia di Trento, Trentino-Alto Adige/Südtirol, Italia;Col dela Stangada;46.1248212;11.7874353
mount_392;Imer;Strada forestale Agnerola, Imer, Comunità di Primiero, Provincia di Trento, Trentino-Alto Adige/Südtirol, Italia;Spiz a Fagòt;46.1167468;11.8032667
mount_393;Telve;Strada forestale Serra, Musiera di Sopra Vinante, Telve, Comunità Valsugana e Tesino, Provincia di Trento, Trentino-Alto Adige/Südtirol, Italia;Cima di Castel Cucco;46.1070572;11.4664169
mount_394;Torcegno;Malga Sette Selle, Torcegno, Comunità Valsugana e Tesino, Provincia di Trento, Trentino-Alto Adige/Südtirol, Italia;Cima Tempiaro;46.1151483;11.407158
mount_395;Palù del Fersina - Palai en Bersntol;Sentiero alpinistico Fratelli Giuliani, Palù del Fersina - Palai en Bersntol, Comunità Valsugana e Tesino, Provincia di Trento, Trentino-Alto Adige/Südtirol, Italia;Cime di Saleri;46.124539;11.4103204
mount_396;Telve di Sopra;Malga Valmeneghina, Telve di Sopra, Comunità Valsugana e Tesino, Provincia di Trento, Trentino-Alto Adige/Südtirol, Italia;Cima Mendana;46.1223801;11.4266211
mount_397;Telve di Sopra;Strada forestale Serra, Musiera di Sopra Vinante, Telve di Sopra, Comunità Valsugana e Tesino, Provincia di Trento, Trentino-Alto Adige/Südtirol, Italia;Cima Valboagna;46.1016739;11.4689937
mount_398;Telve di Sopra;Strada forestale Serra, Musiera di Sopra Vinante, Telve di Sopra, Comunità Valsugana e Tesino, Provincia di Trento, Trentino-Alto Adige/Südtirol, Italia;Monte Salubio;46.1044114;11.47078
mount_399;Telve;Strada forestale Serra, Musiera di Sopra Vinante, Telve, Comunità Valsugana e Tesino, Provincia di Trento, Trentino-Alto Adige/Südtirol, 38051, Italia;Col Caponere;46.0936055;11.4732155
mount_400;Panchià;Baito ex Mandre Muro, Panchià, Comunità territoriale della Val di Fiemme, Provincia di Trento, Trentino-Alto Adige/Südtirol, Italia;Cimon di Cadinello;46.23094;11.5406314
mount_401;Mazzin;Passo Dona, Via Ferrata Laurenzi, Mazzin, Comun General de Fascia, Provincia di Trento, Trentino-Alto Adige/Südtirol, 38030, Italia;Mantel;46.4738663;11.6711047
mount_402;San Martino di Castrozza;"Sentiero attrezzato ""Achille Gadler"", San Martino di Castrozza, Primiero San Martino di Castrozza, Comunità di Primiero, Provincia di Trento, Trentino-Alto Adige/Südtirol, Italia";Cime di Bragagnolo;46.2648477;11.7270894
mount_403;San Martino di Castrozza;"Sentiero attrezzato ""Achille Gadler"", San Martino di Castrozza, Primiero San Martino di Castrozza, Comunità di Primiero, Provincia di Trento, Trentino-Alto Adige/Südtirol, Italia";Cima di Ceremana;46.2647315;11.737824
mount_404;Predazzo;"Sentiero attrezzato ""Achille Gadler"", Predazzo, Comunità territoriale della Val di Fiemme, Provincia di Trento, Trentino-Alto Adige/Südtirol, Italia";Costòn dei Slavaci;46.2617847;11.7168581
mount_405;Telve;Strada Forestale Beccaria, Telve, Comunità Valsugana e Tesino, Provincia di Trento, Trentino-Alto Adige/Südtirol, Italia;\N;46.1762906;11.4718696
mount_406;Telve;Strada Provinciale del Passo del Manghen, Telve, Comunità Valsugana e Tesino, Provincia di Trento, Trentino-Alto Adige/Südtirol, Italia;\N;46.1773793;11.46429
mount_407;Predazzo;Sentiero Don Battistin, Predazzo, Comunità territoriale della Val di Fiemme, Provincia di Trento, Trentino-Alto Adige/Südtirol, Italia;Cima di Sella;46.2693583;11.6720254
mount_408;Canazei;Galleria Sora Colmer, Canazei, Comun General de Fascia, Provincia di Trento, Trentino-Alto Adige/Südtirol, Italia;Sass Ciapel;46.4768091;11.8403205
mount_409;Villa Agnedo;Sentiero per bivacchi dell'Aia e Colazzo, Castel Ivano, Comunità Valsugana e Tesino, Provincia di Trento, Trentino-Alto Adige/Südtirol, 38050, Italia;Il Colazzo;46.0216795;11.5145064
mount_410;Canzolino;Belvedere Alto, Via Domenica Targa, Guarda, Canzolino, Pergine Valsugana, Comunità Alta Valsugana e Bersntol, Provincia di Trento, Trentino-Alto Adige/Südtirol, 38042, Italia;Belvedere;46.0898264;11.234489
mount_411;Telve;Malga Cagnon di Sotto, Telve, Comunità Valsugana e Tesino, Provincia di Trento, Trentino-Alto Adige/Südtirol, Italia;Cima Cagnon;46.1379334;11.4055522
mount_412;Telve;Baito Caseròte, Strada forestale Vatrighetta - Cagnon, Telve, Comunità Valsugana e Tesino, Provincia di Trento, Trentino-Alto Adige/Südtirol, Italia;Col di Boi;46.1458143;11.4130723
mount_413;Telve;Villa Longo, Telve, Comunità Valsugana e Tesino, Provincia di Trento, Trentino-Alto Adige/Südtirol, Italia;Col di Fregio;46.1324975;11.4436004
mount_414;Telve;Sentiero alto per c. Pastronezze da malga Ezze, Telve, Comunità Valsugana e Tesino, Provincia di Trento, Trentino-Alto Adige/Südtirol, Italia;Monte Pastronezze;46.1358924;11.4378589
mount_415;Canal San Bovo;Laghetti di Coltorondo, Canal San Bovo, Comunità di Primiero, Provincia di Trento, Trentino-Alto Adige/Südtirol, Italia;Monte Tabio;46.251011;11.6827621
mount_416;Montesover;Locca-Vasoni, Montesover, Sover, Comunità della Valle di Cembra, Provincia di Trento, Trentino-Alto Adige/Südtirol, 38048, Italia;Dos de Camorè;46.2067185;11.3419982
mount_417;Cavareno;Panorama Weg, Cavareno, Comunità della Val di Non, Provincia di Trento, Trentino-Alto Adige/Südtirol, 38011, Italia;Glockenbühel - Monte Campana;46.3970557;11.2147887
mount_418;Cavareno;Panorama Weg, Cavareno, Comunità della Val di Non, Provincia di Trento, Trentino-Alto Adige/Südtirol, 38011, Italia;\N;46.3923058;11.2112545
mount_419;Mezzano;Forcella Folga, Traccia Sentiero Lago Pisorno - Agnelessa, Mezzano, Comunità di Primiero, Provincia di Trento, Trentino-Alto Adige/Südtirol, Italia;Col Mongo;46.1961841;11.7606565
mount_420;Mezzano;Boal dele Stele, Mezzano, Comunità di Primiero, Provincia di Trento, Trentino-Alto Adige/Südtirol, Italia;Palon di Folga;46.1929891;11.765999
mount_421;Mezzano;Malga Valsorda, Mezzano, Comunità di Primiero, Provincia di Trento, Trentino-Alto Adige/Südtirol, Italia;Cima Valsorda;46.1997107;11.7361929
mount_422;Mezzano;Malga Valsorda, Mezzano, Comunità di Primiero, Provincia di Trento, Trentino-Alto Adige/Südtirol, Italia;Cima Cuneletti;46.2046385;11.7359697
mount_423;Mazzin;DOLO Myths Run, Mazzin, Comun General de Fascia, Provincia di Trento, Trentino-Alto Adige/Südtirol, 38032, Italia;Crepa Neigra;46.4532674;11.7641369
mount_424;Canazei;DOLO Myths Run, Mazzin, Comun General de Fascia, Provincia di Trento, Trentino-Alto Adige/Südtirol, 38032, Italia;Spiz de Soforcela;46.4562288;11.7629015
mount_425;Mazzin;Medel, Mazzin, Comun General de Fascia, Provincia di Trento, Trentino-Alto Adige/Südtirol, 38031, Italia;Col Bel;46.4479308;11.7359342
mount_426;Faida;Via del Covel, Prada, Faida, Baselga di Piné, Comunità Alta Valsugana e Bersntol, Provincia di Trento, Trentino-Alto Adige/Südtirol, 38042, Italia;Dos del sabion;46.1109012;11.2469767
mount_427;Pergine Valsugana;Strada Divisi, Pergine Valsugana, Comunità Alta Valsugana e Bersntol, Provincia di Trento, Trentino-Alto Adige/Südtirol, 38042, Italia;\N;46.0992522;11.2665256
mount_428;Faida;"strada forestale ""Terra Rossa"", Faida, Baselga di Piné, Comunità Alta Valsugana e Bersntol, Provincia di Trento, Trentino-Alto Adige/Südtirol, 38042, Italia";Dos de la Perina;46.1041017;11.2655219
mount_429;Pieve Tesino;Baita di Monte Silana, Strada forestale Silana, Bosco Santa Maria, Pieve Tesino, Comunità Valsugana e Tesino, Provincia di Trento, Trentino-Alto Adige/Südtirol, 38053, Italia;Monte Silana;46.0812809;11.6032375
mount_430;Predazzo;"E349 - Sentiero attrezzato ""Achille Gadler"", Predazzo, Comunità territoriale della Val di Fiemme, Provincia di Trento, Trentino-Alto Adige/Südtirol, Italia";Palòn di Cece;46.2576658;11.6790989
mount_431;Moena;Punta Alochet (Cresta De Le Sele) - Lech de la Campagnola, Moena, Comun General de Fascia, Provincia di Trento, Trentino-Alto Adige/Südtirol, 38035, Italia;Punta dele Selle;46.3949547;11.7584856
mount_432;Moena;Punta Alochet (Cresta De Le Sele) - Lech de la Campagnola, Moena, Comun General de Fascia, Provincia di Trento, Trentino-Alto Adige/Südtirol, 38035, Italia;Punta Alochet;46.3900719;11.7507259
mount_433;Moena;Ricoleta, Moena, Comun General de Fascia, Provincia di Trento, Trentino-Alto Adige/Südtirol, 38035, Italia;Cima Malinverno;46.387374;11.7248648
mount_434;Moena;Ricoleta, Moena, Comun General de Fascia, Provincia di Trento, Trentino-Alto Adige/Südtirol, 38035, Italia;Spiz de Tariciogn;46.3858782;11.7400972
mount_435;Fornace;Pian del Gac - campo di aeromodellismo, Via Val dei Sari, Zetri, Fornace, Comunità Alta Valsugana e Bersntol, Provincia di Trento, Trentino-Alto Adige/Südtirol, 38041, Italia;Monte Gorsa;46.1386071;11.2101956
mount_436;Muncion;Muncion, San Giovanni di Fassa - Sèn Jan, Comun General de Fascia, Provincia di Trento, Trentino-Alto Adige/Südtirol, 38036, Italia;Torre Rizzi;46.4565025;11.6708483
mount_437;Muncion;Ronch, Muncion, San Giovanni di Fassa - Sèn Jan, Comun General de Fascia, Provincia di Trento, Trentino-Alto Adige/Südtirol, 38036, Italia;Aut da Muncion;46.4559343;11.6754324
mount_438;Mazzin;Pian da le Gialine, Mazzin, Comun General de Fascia, Provincia di Trento, Trentino-Alto Adige/Südtirol, 38030, Italia;Polenton;46.4673328;11.6679028
mount_439;Mazzin;Via Ferrata Laurenzi, Mazzin, Comun General de Fascia, Provincia di Trento, Trentino-Alto Adige/Südtirol, Italia;Sas de Dona;46.4790067;11.6671095
mount_440;Campitello di Fassa;Sentiero Forestale Prà Molin, Mazzin, Comun General de Fascia, Provincia di Trento, Trentino-Alto Adige/Südtirol, 38031, Italia;Ponjin;46.480579;11.7075883
mount_441;Mazzin - Mazin;Capitello, Sentiero forestale Scofa, Mazzin - Mazin, Mazzin, Comun General de Fascia, Provincia di Trento, Trentino-Alto Adige/Südtirol, 38030, Italia;Dò Ciuril;46.4700512;11.6910955
mount_442;Mazzin;Socresta, Mazzin, Comun General de Fascia, Provincia di Trento, Trentino-Alto Adige/Südtirol, 38030, Italia;\N;46.4771658;11.6915742
mount_443;Mazzin;Via Ferrata Laurenzi, Mazzin, Comun General de Fascia, Provincia di Trento, Trentino-Alto Adige/Südtirol, Italia;Croda del Lago;46.4811588;11.6604555
mount_444;Pozza di Fassa;Via Ferrata Laurenzi, Mazzin, Comun General de Fascia, Provincia di Trento, Trentino-Alto Adige/Südtirol, Italia;Crepes de Lausa;46.468315;11.660185
mount_445;Muncion;Muncion, San Giovanni di Fassa - Sèn Jan, Comun General de Fascia, Provincia di Trento, Trentino-Alto Adige/Südtirol, 38036, Italia;Piz dal Sciarpel;46.4594499;11.6652177
mount_446;Muncion;Muncion, San Giovanni di Fassa - Sèn Jan, Comun General de Fascia, Provincia di Trento, Trentino-Alto Adige/Südtirol, 38036, Italia;Gran Cront;46.4535233;11.6514576
mount_447;Caoria;Caoria, Canal San Bovo, Comunità di Primiero, Provincia di Trento, Trentino-Alto Adige/Südtirol, Italia;Cima Spiadon;46.1833357;11.6497369
mount_448;Castello Tesino;Castello Tesino, Comunità Valsugana e Tesino, Provincia di Trento, Trentino-Alto Adige/Südtirol, 38053, Italia;Col della Croce;46.1649167;11.6381811
mount_449;Castello Tesino;Castello Tesino, Comunità Valsugana e Tesino, Provincia di Trento, Trentino-Alto Adige/Südtirol, 38053, Italia;Conte Moro;46.1637101;11.6500087
mount_450;Castello Tesino;Castello Tesino, Comunità Valsugana e Tesino, Provincia di Trento, Trentino-Alto Adige/Südtirol, 38053, Italia;Monte Tolvà;46.1435926;11.6447594
mount_451;Castello Tesino;Castello Tesino, Comunità Valsugana e Tesino, Provincia di Trento, Trentino-Alto Adige/Südtirol, 38053, Italia;Cima Orena;46.1370525;11.6451945
mount_452;Castello Tesino;Strada forestale Orena, Castello Tesino, Comunità Valsugana e Tesino, Provincia di Trento, Trentino-Alto Adige/Südtirol, Italia;Monte Timoncello;46.1244612;11.6447917
mount_453;Castello Tesino;Castello Tesino, Comunità Valsugana e Tesino, Provincia di Trento, Trentino-Alto Adige/Südtirol, 38053, Italia;Col del Rigon;46.1405996;11.6730611
mount_454;Castello Tesino;Castello Tesino, Comunità Valsugana e Tesino, Provincia di Trento, Trentino-Alto Adige/Südtirol, 38053, Italia;M. Calmandrino;46.1458626;11.6729109
mount_455;Caoria;Località Cesure, Caoria Sperandii, Caoria, Canal San Bovo, Comunità di Primiero, Provincia di Trento, Trentino-Alto Adige/Südtirol, 38050, Italia;Cima di Mezzogiorno;46.1768434;11.67361
mount_456;Castello Tesino;Castello Tesino, Comunità Valsugana e Tesino, Provincia di Trento, Trentino-Alto Adige/Südtirol, 38053, Italia;Il Contessat;46.1583172;11.6380281
mount_457;Castello Tesino;Memoriale Don Italo Girardi, Strada forestale Tolvà - Regana, Castello Tesino, Comunità Valsugana e Tesino, Provincia di Trento, Trentino-Alto Adige/Südtirol, Italia;La Contessa;46.1545676;11.6401174
mount_458;Cinte Tesino;SP79, Cinte Tesino, Comunità Valsugana e Tesino, Provincia di Trento, Trentino-Alto Adige/Südtirol, Italia;Pizzo degli Uccelli;46.1243486;11.6885617
mount_459;Castello Tesino;Castello Tesino, Comunità Valsugana e Tesino, Provincia di Trento, Trentino-Alto Adige/Südtirol, 38053, Italia;Colle di Coston;46.1343949;11.6762919
mount_460;Canal San Bovo;Traccia Sentiero Lago Pisorno - Agnelessa, Canal San Bovo, Comunità di Primiero, Provincia di Trento, Trentino-Alto Adige/Südtirol, Italia;Agnelessa;46.2130599;11.7750025
mount_461;Imer;9, Malga Scanaiòl, Imer, Comunità di Primiero, Provincia di Trento, Trentino-Alto Adige/Südtirol, 38054, Italia;Cima Tognazza;46.2284479;11.7703636
mount_462;Cinte Tesino;Strada forestale Valcorbelle, Cinte Tesino, Comunità Valsugana e Tesino, Provincia di Trento, Trentino-Alto Adige/Südtirol, Italia;Col della Remitta;46.1186488;11.712476
mount_463;Caoria;Caoria, Canal San Bovo, Comunità di Primiero, Provincia di Trento, Trentino-Alto Adige/Südtirol, Italia;Aia Tonda;46.1702025;11.6613752
mount_464;Canal San Bovo;Strada forestale Val Dorda - Val de Neora, Zortea, Canal San Bovo, Comunità di Primiero, Provincia di Trento, Trentino-Alto Adige/Südtirol, Italia;Coston;46.1841;11.7562594
mount_465;Villa Agnedo;Strada forestale Prà delle Roe, Brustolae, Le Busette, Castel Ivano, Comunità Valsugana e Tesino, Provincia di Trento, Trentino-Alto Adige/Südtirol, 38059, Italia;Sasso Gambarile;46.0334475;11.5300864
mount_466;Telve;Volta del Corno, Telve, Comunità Valsugana e Tesino, Provincia di Trento, Trentino-Alto Adige/Südtirol, Italia;Col Scandolera;46.1085343;11.4904154
mount_467;Tomaselli;Castelrotto, Scalette, Sièga, L'oro, Tomaselli, Castel Ivano, Comunità Valsugana e Tesino, Provincia di Trento, Trentino-Alto Adige/Südtirol, 38059, Italia;Col dei Trenti;46.0669388;11.5265244
mount_468;Telve;Sentiero Baraccamenti Baitol, Telve, Comunità Alta Valsugana e Bersntol, Provincia di Trento, Trentino-Alto Adige/Südtirol, Italia;Pala di Cagnon;46.1574467;11.3718135
mount_469;Bedollo;Busa dei Campedei, Bedollo, Comunità Alta Valsugana e Bersntol, Provincia di Trento, Trentino-Alto Adige/Südtirol, 38043, Italia;Schvorzlommer;46.1534722;11.3611557
mount_470;Palù del Fersina - Palai en Bersntol;Valle degli orti, Palù del Fersina - Palai en Bersntol, Comunità Alta Valsugana e Bersntol, Provincia di Trento, Trentino-Alto Adige/Südtirol, Italia;Cima Terra Bianca;46.1161011;11.3896896
mount_471;Torcegno;trincea, Torcegno, Comunità Valsugana e Tesino, Provincia di Trento, Trentino-Alto Adige/Südtirol, Italia;Monte del Lago;46.1085357;11.3834441
mount_472;Bieno;Scala del Tombolin, Bieno, Comunità Valsugana e Tesino, Provincia di Trento, Trentino-Alto Adige/Südtirol, 38050, Italia;Cima del Frate;46.1163165;11.5716411
mount_473;Cavalese;Stalla vecchia, Cavalese, Comunità territoriale della Val di Fiemme, Provincia di Trento, Trentino-Alto Adige/Südtirol, Italia;Cimon del Terzo;46.2061964;11.490719
mount_474;Cavalese;al lago del Forame, Cavalese, Comunità territoriale della Val di Fiemme, Provincia di Trento, Trentino-Alto Adige/Südtirol, Italia;Cimon di Busa Bèla;46.2060561;11.4755817
mount_475;Cavalese;al lago del Forame, Cavalese, Comunità territoriale della Val di Fiemme, Provincia di Trento, Trentino-Alto Adige/Südtirol, Italia;Cimonat;46.2123392;11.4864159
mount_476;Vignola;La Gadainera, Stal, Vignola, Vignola Falesina, Comunità Alta Valsugana e Bersntol, Provincia di Trento, Trentino-Alto Adige/Südtirol, 38056, Italia;Monte Orno;46.0573558;11.2815401
mount_477;Vignola;Strada Provinciale 12 di Vignola e Panarotta, La Gadainera, Stal, Vignola, Vignola Falesina, Comunità Alta Valsugana e Bersntol, Provincia di Trento, Trentino-Alto Adige/Südtirol, 38056, Italia;Sèmperspitz;46.0498472;11.3073456
mount_478;Valfloriana;Buson di Fornasa, Valfloriana, Comunità territoriale della Val di Fiemme, Provincia di Trento, Trentino-Alto Adige/Südtirol, Italia;\N;46.1733671;11.3970762
mount_479;Lusérn - Luserna;Nå in tritt von Sambinélo - Sentiero dell'immaginario, Lusérn - Luserna, Magnifica Comunità degli Altipiani Cimbri, Provincia di Trento, Trentino-Alto Adige/Südtirol, 38040, Italia;Cima Norre;45.9086014;11.3462833
mount_480;Faida;Cava di Quarzo, Mas del Bertoldi, Faida, Baselga di Piné, Comunità Alta Valsugana e Bersntol, Provincia di Trento, Trentino-Alto Adige/Südtirol, 38042, Italia;Dos Alt;46.1003371;11.2476136
mount_481;Telve;Malga Cagnon di Sotto, Telve, Comunità Valsugana e Tesino, Provincia di Trento, Trentino-Alto Adige/Südtirol, Italia;Pala de l'Aiona;46.1634757;11.4130569
mount_482;Telve;Passo Mangheneto, Strada Provinciale del Passo del Manghen, Telve, Comunità Valsugana e Tesino, Provincia di Trento, Trentino-Alto Adige/Südtirol, Italia;Manghenéti;46.1710156;11.4294624
mount_483;Castello-Molina di Fiemme;Castello-Molina di Fiemme, Comunità territoriale della Val di Fiemme, Provincia di Trento, Trentino-Alto Adige/Südtirol, 38030, Italia;\N;46.1641134;11.4162561
mount_484;Telve;Baracchetta militare 1918, Strada forestale Vatrighetta - Cagnon, Telve, Comunità Valsugana e Tesino, Provincia di Trento, Trentino-Alto Adige/Südtirol, Italia;Cima Bolénga;46.1626197;11.4054848
mount_485;Castello-Molina di Fiemme;Strada Provinciale 31 del Manghen, Castello-Molina di Fiemme, Comunità territoriale della Val di Fiemme, Provincia di Trento, Trentino-Alto Adige/Südtirol, Italia;\N;46.1819031;11.4498249
mount_486;Tesero;Tesero, Comunità territoriale della Val di Fiemme, Provincia di Trento, Trentino-Alto Adige/Südtirol, 38038, Italia;Lasteolo sud;46.2151225;11.5435245
mount_487;Palù del Fersina - Palai en Bersntol;Ippovia del Trentino orientale, Palù del Fersina - Palai en Bersntol, Comunità Alta Valsugana e Bersntol, Provincia di Trento, Trentino-Alto Adige/Südtirol, 38043, Italia;Tèrmen;46.1401583;11.3313608
mount_488;Canazei;Val Lasties, Canazei, Comun General de Fascia, Provincia di Trento, Trentino-Alto Adige/Südtirol, 38032, Italia;\N;46.5199476;11.8173126
mount_489;Pieve Tesino;Pieve Tesino, Comunità Valsugana e Tesino, Provincia di Trento, Trentino-Alto Adige/Südtirol, 38050, Italia;Cima Segura;46.1364156;11.5810347
mount_490;Pieve Tesino;Ponte forra Sorgazza (inagibile), Pieve Tesino, Comunità Valsugana e Tesino, Provincia di Trento, Trentino-Alto Adige/Südtirol, Italia;Cima Costa Brunella;46.1275072;11.5836664
mount_491;Bieno;Scala del Tombolin, Bieno, Comunità Valsugana e Tesino, Provincia di Trento, Trentino-Alto Adige/Südtirol, 38050, Italia;Tombolin di Rava;46.1194549;11.5637066
mount_492;Pieve Tesino;Dogo di Quarazza, Pieve Tesino, Comunità Valsugana e Tesino, Provincia di Trento, Trentino-Alto Adige/Südtirol, Italia;M. Fierollo;46.1072354;11.5895619
mount_493;Pieve Tesino;Spiado, Pieve Tesino, Comunità Valsugana e Tesino, Provincia di Trento, Trentino-Alto Adige/Südtirol, 38053, Italia;M. Spiado;46.1040219;11.5890255
mount_494;Ziano di Fiemme;Sentiero per Busa Alta, Ziano di Fiemme, Comunità territoriale della Val di Fiemme, Provincia di Trento, Trentino-Alto Adige/Südtirol, Italia;Busa Alta Italiana;46.2460726;11.607665
mount_495;Canal San Bovo;Sentiero per Moregna - Giovanni Fifol, Canal San Bovo, Comunità di Primiero, Provincia di Trento, Trentino-Alto Adige/Südtirol, Italia;Cima Moregna;46.2597894;11.6405552
mount_496;Valfloriana;Catarinello, Valfloriana, Comunità territoriale della Val di Fiemme, Provincia di Trento, Trentino-Alto Adige/Südtirol, Italia;\N;46.2375854;11.4097613
mount_497;Valfloriana;Strada forestale Casaiola, Valfloriana, Comunità territoriale della Val di Fiemme, Provincia di Trento, Trentino-Alto Adige/Südtirol, Italia;Dosso della Sella;46.2172936;11.3805971
mount_498;Valfloriana;Strada forestale Casaiola, Valfloriana, Comunità territoriale della Val di Fiemme, Provincia di Trento, Trentino-Alto Adige/Südtirol, Italia;Dos da le Laste;46.2279026;11.3846309
mount_499;Faida;Via del Sas Bianch, Cà dei Beti, Faida, Baselga di Piné, Comunità Alta Valsugana e Bersntol, Provincia di Trento, Trentino-Alto Adige/Südtirol, 38042, Italia;Dos de l'Oselera;46.1161826;11.2597304
mount_500;Telve di Sopra;Crozi d'Ezze, Telve di Sopra, Comunità Valsugana e Tesino, Provincia di Trento, Trentino-Alto Adige/Südtirol, Italia;Crozi d'Ezze;46.1365291;11.4107156
mount_501;Telve;Passo Cadin, Path from Passo Cadino to Malga Fornasa Alta, Valfloriana, Comunità territoriale della Val di Fiemme, Provincia di Trento, Trentino-Alto Adige/Südtirol, Italia;Crozzi Brusadi;46.1601699;11.4006719
mount_502;Telve;Strada Forestale Pastronezze, Telve, Comunità Valsugana e Tesino, Provincia di Trento, Trentino-Alto Adige/Südtirol, Italia;Col di Fregio;46.1322983;11.4556638
mount_503;Telve di Sopra;Cippo 14 WWF, Sentiero alto per c. Pastronezze da malga Ezze, Telve di Sopra, Comunità Valsugana e Tesino, Provincia di Trento, Trentino-Alto Adige/Südtirol, Italia;Tornion de l'Agnelessa;46.1383967;11.4206327
mount_504;Telve di Sopra;Suerta, Telve di Sopra, Comunità Valsugana e Tesino, Provincia di Trento, Trentino-Alto Adige/Südtirol, Italia;\N;46.1167175;11.4355508
mount_505;Torcegno;Torcegno, Comunità Valsugana e Tesino, Provincia di Trento, Trentino-Alto Adige/Südtirol, Italia;Monte Carli;46.1072641;11.4212248
mount_506;Ronchi Valsugana;Busa di Casa Pinello, ippovia, Ronchi Valsugana, Comunità Valsugana e Tesino, Provincia di Trento, Trentino-Alto Adige/Südtirol, Italia;Col del Chelder;46.0916602;11.3923045
mount_507;Cinte Tesino;Strada forestale Stoi, Cinte Tesino, Comunità Valsugana e Tesino, Provincia di Trento, Trentino-Alto Adige/Südtirol, 38053, Italia;Col delle Bagole;46.0439602;11.5909214
mount_508;Cinte Tesino;Strada forestale Col delle Bagole, Prati di Monte Mezza, Cinte Tesino, Comunità Valsugana e Tesino, Provincia di Trento, Trentino-Alto Adige/Südtirol, 38053, Italia;Pale della Caldiera;46.0354397;11.5943755
mount_509;Cinte Tesino;Strada forestale Prà della Castellana, Cinte Tesino, Comunità Valsugana e Tesino, Provincia di Trento, Trentino-Alto Adige/Südtirol, 38053, Italia;Cima la Presa;46.0543212;11.5845202
mount_510;Cinte Tesino;Strada forestale Stoi, Cinte Tesino, Comunità Valsugana e Tesino, Provincia di Trento, Trentino-Alto Adige/Südtirol, 38053, Italia;Monte Cismon;46.0396956;11.5894946
mount_511;Cavalese;Sentiero per il Cimon de le Buse de l'Oro, Cavalese, Comunità territoriale della Val di Fiemme, Provincia di Trento, Trentino-Alto Adige/Südtirol, Italia;Cimon delle Buse de l'Oro;46.2084875;11.518968
mount_512;Scurelle;Strada forestale Aia del buso - Nassare, Scurelle, Comunità Valsugana e Tesino, Provincia di Trento, Trentino-Alto Adige/Südtirol, Italia;Croz de Conseria;46.1508214;11.5505343
mount_513;Montagnaga;Valt, Montagnaga, Baselga di Piné, Comunità Alta Valsugana e Bersntol, Provincia di Trento, Trentino-Alto Adige/Südtirol, 38042, Italia;Dos del Tes;46.1074683;11.2323403
mount_514;Levico Terme;Forte Busa Granda, Strada Provinciale per Vetriolo - SP11, Vetriolo Terme, Levico Terme, Comunità Alta Valsugana e Bersntol, Provincia di Trento, Trentino-Alto Adige/Südtirol, 38056, Italia;Busa Grande;46.0356251;11.2983125
mount_515;Scurelle;Percorso Trincee Prima Guerra Mondiale, Scurelle, Comunità Valsugana e Tesino, Provincia di Trento, Trentino-Alto Adige/Südtirol, 38050, Italia;Monte Consèria;46.1495415;11.5545432
mount_516;Tesero;Strada forestale Pieve Alte, Tesero, Comunità territoriale della Val di Fiemme, Provincia di Trento, Trentino-Alto Adige/Südtirol, 38038, Italia;Monte Prestavel;46.3347386;11.4980547
mount_517;Varena;Ville di Fiemme, Comunità territoriale della Val di Fiemme, Provincia di Trento, Trentino-Alto Adige/Südtirol, 38099, Italia;\N;46.3527363;11.5192247
mount_518;Ronchi Valsugana;Strada panoramica della Valsugana, Canai, Ronchi Valsugana, Comunità Valsugana e Tesino, Provincia di Trento, Trentino-Alto Adige/Südtirol, 38051, Italia;Colle San Marco;46.0735785;11.4410763
mount_519;Moena;Alpenhütte, Sentiero forestale do Peniola, Moena, Comun General de Fascia, Provincia di Trento, Trentino-Alto Adige/Südtirol, 38035, Italia;C. da Ciamp;46.3774843;11.6200799
mount_520;Moena;Alpenhütte, Sentiero forestale do Peniola, Moena, Comun General de Fascia, Provincia di Trento, Trentino-Alto Adige/Südtirol, 38035, Italia;M. Toac;46.3778679;11.6111968
mount_521;Vigo di Fassa;San Giovanni di Fassa - Sèn Jan, Comun General de Fascia, Provincia di Trento, Trentino-Alto Adige/Südtirol, 38036, Italia;El Gronton;46.3822889;11.6059784
mount_522;Moena;517B, San Giovanni di Fassa - Sèn Jan, Comun General de Fascia, Provincia di Trento, Trentino-Alto Adige/Südtirol, 39056, Italia;Cava del Bol;46.3796757;11.5965396
mount_523;Moena;Bait dal Col, Strada forestale di Valsorda, Moena, Comun General de Fascia, Provincia di Trento, Trentino-Alto Adige/Südtirol, Italia;El Col;46.3715683;11.6086071
mount_524;Moena;Peniola / Penia, Moena, Comun General de Fascia, Provincia di Trento, Trentino-Alto Adige/Südtirol, 38035, Italia;Sa Coi;46.3693581;11.6224156
mount_525;Moena;Peniola / Penia, Moena, Comun General de Fascia, Provincia di Trento, Trentino-Alto Adige/Südtirol, 38035, Italia;La Sèla;46.3668665;11.6236028
mount_526;Moena;Valbona, Moena, Comun General de Fascia, Provincia di Trento, Trentino-Alto Adige/Südtirol, 38035, Italia;Col de Poza;46.3499261;11.6747858
mount_527;Predazzo;Alta Via di Viezena, Predazzo, Comunità territoriale della Val di Fiemme, Provincia di Trento, Trentino-Alto Adige/Südtirol, 38035, Italia;\N;46.3436666;11.662941
mount_528;Pozza di Fassa;San Giovanni di Fassa - Sèn Jan, Comun General de Fascia, Provincia di Trento, Trentino-Alto Adige/Südtirol, 38036, Italia;Pala di Crapela;46.4003964;11.7509159
mount_529;Pozza di Fassa;Sentiero forestale per Lagusel, Sauch, San Giovanni di Fassa - Sèn Jan, Comun General de Fascia, Provincia di Trento, Trentino-Alto Adige/Südtirol, Italia;Sas dal Pief;46.4065942;11.7549012
mount_530;Pozza di Fassa;San Giovanni di Fassa - Sèn Jan, Comun General de Fascia, Provincia di Trento, Trentino-Alto Adige/Südtirol, 38036, Italia;Punta de l'Ort;46.4048069;11.7557984
mount_531;Pozza di Fassa;Sela de la Palacia, Strada di Rusci, San Giovanni di Fassa - Sèn Jan, Comun General de Fascia, Provincia di Trento, Trentino-Alto Adige/Südtirol, Italia;Sas da Pecol;46.4078732;11.7638915
mount_532;Moena;Passo Le Selle, Punta Alochet (Cresta De Le Sele) - Lech de la Campagnola, Moena, Comun General de Fascia, Provincia di Trento, Trentino-Alto Adige/Südtirol, 38035, Italia;Picol Laste;46.3999522;11.7639849
mount_533;Moena;Ricovero Austriaco, Punta Alochet (Cresta De Le Sele) - Lech de la Campagnola, Moena, Comun General de Fascia, Provincia di Trento, Trentino-Alto Adige/Südtirol, 38035, Italia;Gran Laste;46.4015398;11.7684374
mount_534;Moena;Ricoveri austriaci, Punta Alochet (Cresta De Le Sele) - Lech de la Campagnola, Moena, Comun General de Fascia, Provincia di Trento, Trentino-Alto Adige/Südtirol, 38035, Italia;Cima de Campagnacia;46.4011588;11.7739818
mount_535;Moena;Banch de la Campagnacia, Strada di Rusci, San Giovanni di Fassa - Sèn Jan, Comun General de Fascia, Provincia di Trento, Trentino-Alto Adige/Südtirol, Italia;Col de Costabela;46.4038582;11.7791753
mount_536;Pozza di Fassa;Banch de la Campagnacia, Strada di Rusci, San Giovanni di Fassa - Sèn Jan, Comun General de Fascia, Provincia di Trento, Trentino-Alto Adige/Südtirol, Italia;Sas da Laste;46.4060364;11.7802153
mount_537;Moena;Moena, Comun General de Fascia, Provincia di Trento, Trentino-Alto Adige/Südtirol, 38035, Italia;Punta de le Valate;46.405328;11.7976777
mount_538;Soraga di Fassa;Cima Uomo, P02, Soraga di Fassa, Comun General de Fascia, Provincia di Trento, Trentino-Alto Adige/Südtirol, Italia;Om Gran;46.4036798;11.7998218
mount_539;Soraga di Fassa;Cima Uomo, P02, Soraga di Fassa, Comun General de Fascia, Provincia di Trento, Trentino-Alto Adige/Südtirol, Italia;L'Om Picol;46.3982788;11.7994141
mount_540;Soraga di Fassa;I sentieri dell'amicizia, Sentiero alternativo per il passo Cirelle, Fuciade, Soraga di Fassa, Comun General de Fascia, Provincia di Trento, Trentino-Alto Adige/Südtirol, Italia;Palon de Jigolé;46.4084854;11.8275513
mount_541;Predazzo;Cros del Feudo, 50, Predazzo, Comunità territoriale della Val di Fiemme, Provincia di Trento, Trentino-Alto Adige/Südtirol, 38037, Italia;Cima Feudo;46.3579325;11.5699125
mount_542;Predazzo;Cros del Feudo, 50, Predazzo, Comunità territoriale della Val di Fiemme, Provincia di Trento, Trentino-Alto Adige/Südtirol, 38037, Italia;Piz dei Mus Primo;46.3594984;11.5737608
mount_543;Predazzo;50, Predazzo, Comunità territoriale della Val di Fiemme, Provincia di Trento, Trentino-Alto Adige/Südtirol, 38037, Italia;Piz dei Mus Secondo;46.3599813;11.5791044
mount_544;Predazzo;50, Predazzo, Comunità territoriale della Val di Fiemme, Provincia di Trento, Trentino-Alto Adige/Südtirol, 38037, Italia;\N;46.3552147;11.5841542
mount_545;Predazzo;Bivacco Latemar Attilio Sieff, Via Ferrata dei Campanili del Latemar, Predazzo, Comunità territoriale della Val di Fiemme, Provincia di Trento, Trentino-Alto Adige/Südtirol, 39056, Italia;Zan de Montagna;46.3696206;11.5681694
mount_546;Predazzo;Campo Scuola Gardonè, Sentiero del Pastore Distratto, Predazzo, Comunità territoriale della Val di Fiemme, Provincia di Trento, Trentino-Alto Adige/Südtirol, 38037, Italia;\N;46.3439759;11.5734401
mount_547;Predazzo;50, Predazzo, Comunità territoriale della Val di Fiemme, Provincia di Trento, Trentino-Alto Adige/Südtirol, 38037, Italia;Torre dei Muss;46.3607875;11.5830956
mount_548;Predazzo;Via Ferrata dei Campanili del Latemar, Predazzo, Comunità territoriale della Val di Fiemme, Provincia di Trento, Trentino-Alto Adige/Südtirol, 39056, Italia;Cima di Valsorda;46.3643984;11.5587063
mount_549;Predazzo;Via Ferrata dei Campanili del Latemar, Predazzo, Comunità territoriale della Val di Fiemme, Provincia di Trento, Trentino-Alto Adige/Südtirol, 39056, Italia;Eggentaler Horn - Corno d'Ega;46.3719114;11.5567916
mount_550;Predazzo;Via Ferrata dei Campanili del Latemar, Predazzo, Comunità territoriale della Val di Fiemme, Provincia di Trento, Trentino-Alto Adige/Südtirol, 39056, Italia;Cima del Forcellone - Erzlahnspitze;46.3787665;11.5622885
mount_551;Tesero;Baito La Bassa, 62, Tesero, Comunità territoriale della Val di Fiemme, Provincia di Trento, Trentino-Alto Adige/Südtirol, 38038, Italia;Censi;46.3261258;11.5372761
mount_552;Tesero;Armentagiola, Tesero, Comunità territoriale della Val di Fiemme, Provincia di Trento, Trentino-Alto Adige/Südtirol, 38038, Italia;Doss dei Branchi;46.3203954;11.5283209
mount_553;Predazzo;515B, Predazzo, Comunità territoriale della Val di Fiemme, Provincia di Trento, Trentino-Alto Adige/Südtirol, 38037, Italia;Pelenzana;46.3180175;11.5669676
mount_554;Ziano di Fiemme;Baito de le Pisancae, Sentiero attrezzato Attilio Sieff, Ziano di Fiemme, Comunità territoriale della Val di Fiemme, Provincia di Trento, Trentino-Alto Adige/Südtirol, 38038, Italia;Pisancae;46.306425;11.5586717
mount_555;Moena;Ciadinon, Moena, Comun General de Fascia, Provincia di Trento, Trentino-Alto Adige/Südtirol, 38035, Italia;Grontonel;46.3607219;11.7272709
mount_556;Moena;Fango, Moena, Comun General de Fascia, Provincia di Trento, Trentino-Alto Adige/Südtirol, 38035, Italia;Camel;46.3640178;11.7389141
mount_557;Moena;Ciamp de Ors, Moena, Comun General de Fascia, Provincia di Trento, Trentino-Alto Adige/Südtirol, 38035, Italia;Pamberg;46.3653121;11.7483005
mount_558;Canazei;Valon Bianch, Canazei, Comun General de Fascia, Provincia di Trento, Trentino-Alto Adige/Südtirol, 38032, Italia;Piz Gralba;46.5210068;11.792511
mount_559;Canazei;Valon Bianch, Canazei, Comun General de Fascia, Provincia di Trento, Trentino-Alto Adige/Südtirol, 38032, Italia;Piz Beguz;46.5277578;11.800367
mount_560;Canazei;Valon Bianch, Canazei, Comun General de Fascia, Provincia di Trento, Trentino-Alto Adige/Südtirol, 38032, Italia;Torre di Roces;46.5153532;11.8053089
mount_561;Canazei;Valon Bianch, Canazei, Comun General de Fascia, Provincia di Trento, Trentino-Alto Adige/Südtirol, 38032, Italia;Torre di Siela;46.5144082;11.7986356
mount_562;Canazei;Valon del Fos, Canazei, Comun General de Fascia, Provincia di Trento, Trentino-Alto Adige/Südtirol, 38032, Italia;P. ta de Joel;46.5017131;11.8230407
mount_563;Mezzano;Traccia Sentiero Lago Pisorno - Agnelessa, Mezzano, Comunità di Primiero, Provincia di Trento, Trentino-Alto Adige/Südtirol, Italia;Cima di Grugola;46.2006408;11.7586464
mount_564;Panchià;A Corona Alta, Panchià, Comunità territoriale della Val di Fiemme, Provincia di Trento, Trentino-Alto Adige/Südtirol, Italia;Corona Alta;46.2417244;11.5349502
mount_565;Molina di Fiemme;Strada forestale Feudo Rucadin, Stramentizzo, Molina di Fiemme, Castello-Molina di Fiemme, Comunità territoriale della Val di Fiemme, Provincia di Trento, Trentino-Alto Adige/Südtirol, 38099, Italia;Rucadin;46.2565504;11.4106744
mount_566;Mazzin;Fraina, Mazzin, Comun General de Fascia, Provincia di Trento, Trentino-Alto Adige/Südtirol, 38031, Italia;Taic;46.4524887;11.7473467
mount_567;Montagnaga;Pista ciclopedonale Montagnaga - Ferrari, Bernardi, Montagnaga, Baselga di Piné, Comunità Alta Valsugana e Bersntol, Provincia di Trento, Trentino-Alto Adige/Südtirol, 38042, Italia;Leien;46.1033898;11.2304201
mount_568;Montagnaga;Via dei Bernardi, Bernardi, Montagnaga, Baselga di Piné, Comunità Alta Valsugana e Bersntol, Provincia di Trento, Trentino-Alto Adige/Südtirol, 38042, Italia;Dos de le Morf;46.1027903;11.235109
mount_569;Montagnaga;"Strada forestale ""Bisel-Lem-Puel"", Puel, Montagnaga, Baselga di Piné, Comunità Alta Valsugana e Bersntol, Provincia di Trento, Trentino-Alto Adige/Südtirol, 38042, Italia";Dosso Alto;46.0970548;11.2233462
mount_570;Montagnaga;Pista ciclopedonale Montagnaga - Ferrari, Valt, Montagnaga, Baselga di Piné, Comunità Alta Valsugana e Bersntol, Provincia di Trento, Trentino-Alto Adige/Südtirol, 38042, Italia;Postel;46.1091857;11.2243643
mount_571;Vigo;Scagnel dei strachi, Via della Palustèla, Poggio dei Pini, Ferrari, Vigo, Baselga di Piné, Comunità Alta Valsugana e Bersntol, Provincia di Trento, Trentino-Alto Adige/Südtirol, 38042, Italia;Dossedel;46.1246264;11.2361569
mount_572;Predazzo;Sentiero per Moregna - Giovanni Fifol, Predazzo, Comunità territoriale della Val di Fiemme, Provincia di Trento, Trentino-Alto Adige/Südtirol, Italia;Cima di Valbona;46.2559238;11.6496235
mount_573;Ziano di Fiemme;nuova variante della mulattiera di Sadole causa interruzione vecchia mulattiera, Ziano di Fiemme, Comunità territoriale della Val di Fiemme, Provincia di Trento, Trentino-Alto Adige/Südtirol, Italia;Mandriccione;46.251208;11.5884607
mount_574;Ziano di Fiemme;nuova variante della mulattiera di Sadole causa interruzione vecchia mulattiera, Ziano di Fiemme, Comunità territoriale della Val di Fiemme, Provincia di Trento, Trentino-Alto Adige/Südtirol, Italia;Beco dei Slavaci;46.2543037;11.5898777
mount_575;Ziano di Fiemme;nuova variante della mulattiera di Sadole causa interruzione vecchia mulattiera, Ziano di Fiemme, Comunità territoriale della Val di Fiemme, Provincia di Trento, Trentino-Alto Adige/Südtirol, Italia;Camin;46.248853;11.5867337
mount_576;Miola;Strada di Bedolpian, Ricaldo, Miola, Baselga di Piné, Comunità Alta Valsugana e Bersntol, Provincia di Trento, Trentino-Alto Adige/Südtirol, 38042, Italia;Dos Alt;46.1420674;11.2490494
mount_577;Rizzolaga;Val de Nao, Sternigo, Rizzolaga, Baselga di Piné, Comunità Alta Valsugana e Bersntol, Provincia di Trento, Trentino-Alto Adige/Südtirol, 38042, Italia;\N;46.1489458;11.2387232
mount_578;Sant'Orsola Terme;"Strada forestale ""Sporcela"", Sant'Orsola Terme, Comunità Alta Valsugana e Bersntol, Provincia di Trento, Trentino-Alto Adige/Südtirol, 38043, Italia";\N;46.1372059;11.3061439
mount_579;Viarago;Mezadoi, Viarago, Pergine Valsugana, Comunità Alta Valsugana e Bersntol, Provincia di Trento, Trentino-Alto Adige/Südtirol, 38042, Italia;Dos de la Predolcia;46.0859062;11.2641646
mount_580;Vigo;Pista ciclopedonale Montagnaga - Ferrari, Poggio dei Pini, Ferrari, Vigo, Baselga di Piné, Comunità Alta Valsugana e Bersntol, Provincia di Trento, Trentino-Alto Adige/Südtirol, 38042, Italia;Dos Alt;46.1192871;11.2319904
mount_581;San Martino di Castrozza;"Sentiero attrezzato ""Achille Gadler"", San Martino di Castrozza, Primiero San Martino di Castrozza, Comunità di Primiero, Provincia di Trento, Trentino-Alto Adige/Südtirol, Italia";C. Stradòn;46.2841153;11.74977
mount_582;San Martino di Castrozza;Val Cremana, San Martino di Castrozza, Primiero San Martino di Castrozza, Comunità di Primiero, Provincia di Trento, Trentino-Alto Adige/Südtirol, Italia;Bragaröl;46.2794043;11.7220088
mount_583;Predazzo;Predazzo, Comunità territoriale della Val di Fiemme, Provincia di Trento, Trentino-Alto Adige/Südtirol, 38037, Italia;Castel;46.2793926;11.686541
mount_584;Montagnaga;"Strada forestale ""Bisel-Lem-Puel"", Puel, Montagnaga, Baselga di Piné, Comunità Alta Valsugana e Bersntol, Provincia di Trento, Trentino-Alto Adige/Südtirol, 38042, Italia";Dos de Lem;46.0961278;11.2270789
mount_585;Montagnaga;Caola, Puel, Montagnaga, Baselga di Piné, Comunità Alta Valsugana e Bersntol, Provincia di Trento, Trentino-Alto Adige/Südtirol, 38042, Italia;Croz de le Grole;46.0934807;11.2272627
mount_586;Ziano di Fiemme;nuova variante della mulattiera di Sadole causa interruzione vecchia mulattiera, Ziano di Fiemme, Comunità territoriale della Val di Fiemme, Provincia di Trento, Trentino-Alto Adige/Südtirol, Italia;\N;46.2417938;11.5813704
mount_587;Ziano di Fiemme;nuova variante della mulattiera di Sadole causa interruzione vecchia mulattiera, Ziano di Fiemme, Comunità territoriale della Val di Fiemme, Provincia di Trento, Trentino-Alto Adige/Südtirol, Italia;\N;46.2480801;11.5857448
mount_588;Ziano di Fiemme;nuova variante della mulattiera di Sadole causa interruzione vecchia mulattiera, Ziano di Fiemme, Comunità territoriale della Val di Fiemme, Provincia di Trento, Trentino-Alto Adige/Südtirol, Italia;\N;46.2476155;11.5848099
mount_589;Ziano di Fiemme;nuova variante della mulattiera di Sadole causa interruzione vecchia mulattiera, Ziano di Fiemme, Comunità territoriale della Val di Fiemme, Provincia di Trento, Trentino-Alto Adige/Südtirol, Italia;\N;46.2447628;11.5833231
mount_590;Predazzo;Busa dei Slavaci, Predazzo, Comunità territoriale della Val di Fiemme, Provincia di Trento, Trentino-Alto Adige/Südtirol, Italia;Dos de le Nòre;46.2670854;11.6422305
mount_591;Cavalese;LO4, Cavalese, Comunità territoriale della Val di Fiemme, Provincia di Trento, Trentino-Alto Adige/Südtirol, Italia;Corde de Bombasèl;46.2258724;11.5115559
mount_592;Panchià;Baito ex Mandre Muro, Panchià, Comunità territoriale della Val di Fiemme, Provincia di Trento, Trentino-Alto Adige/Südtirol, Italia;Sass della Bara;46.2291565;11.5567016
mount_593;Rizzolaga;"Strada forestale ""Pontare Longhe - Le Pale"", Al Sant, Rizzolaga, Baselga di Piné, Comunità Alta Valsugana e Bersntol, Provincia di Trento, Trentino-Alto Adige/Südtirol, 38047, Italia";Ceramonte;46.1623813;11.2710605
mount_594;Ziano di Fiemme;Ziano di Fiemme, Comunità territoriale della Val di Fiemme, Provincia di Trento, Trentino-Alto Adige/Südtirol, 38030, Italia;I Becari;46.2688686;11.617978
mount_595;Muncion;Muncion, San Giovanni di Fassa - Sèn Jan, Comun General de Fascia, Provincia di Trento, Trentino-Alto Adige/Südtirol, 38036, Italia;Cogol de Larsec;46.4611961;11.6541602
mount_596;Pozza di Fassa;Sentiero delle Scalette, San Giovanni di Fassa - Sèn Jan, Comun General de Fascia, Provincia di Trento, Trentino-Alto Adige/Südtirol, 38036, Italia;Pala de Lalacia;46.4544908;11.6613278
mount_597;Vigo di Fassa;Vial de la Feide - Sentiero delle Pecore, San Giovanni di Fassa - Sèn Jan, Comun General de Fascia, Provincia di Trento, Trentino-Alto Adige/Südtirol, 38036, Italia;I Mugoni;46.433672;11.6268008
mount_598;Vigo di Fassa;Vial de la Feide - Sentiero delle Pecore, San Giovanni di Fassa - Sèn Jan, Comun General de Fascia, Provincia di Trento, Trentino-Alto Adige/Südtirol, 38036, Italia;Le Zigolade;46.4325646;11.6346545
mount_599;Vigo di Fassa;Vial de la Feide - Sentiero delle Pecore, San Giovanni di Fassa - Sèn Jan, Comun General de Fascia, Provincia di Trento, Trentino-Alto Adige/Südtirol, 38039, Italia;Pale Rabbiose;46.4319844;11.6411395
mount_600;Baselga di Piné;Senter dei schiràti, Baselga di Piné, Comunità Alta Valsugana e Bersntol, Provincia di Trento, Trentino-Alto Adige/Südtirol, 38043, Italia;La Corda;46.1743388;11.355881
mount_601;Montagnaga;Via del Masét, Maset, Montagnaga, Baselga di Piné, Comunità Alta Valsugana e Bersntol, Provincia di Trento, Trentino-Alto Adige/Südtirol, 38042, Italia;Dos de l'Oselera;46.0980171;11.2326216
mount_602;Panchià;Strada forestale Itene, Panchià, Comunità territoriale della Val di Fiemme, Provincia di Trento, Trentino-Alto Adige/Südtirol, Italia;\N;46.2325413;11.5728045
mount_603;Moena;"Mostra fotografica ""Guerra alla Guerra"", Variante 609, San Giovanni di Fassa - Sèn Jan, Comun General de Fascia, Provincia di Trento, Trentino-Alto Adige/Südtirol, Italia";Castello di Costabella;46.4034414;11.7879596
mount_604;Tonadico;Sentiero Vani Alti, Tonadico, Primiero San Martino di Castrozza, Comunità di Primiero, Provincia di Trento, Trentino-Alto Adige/Südtirol, Italia;Sass da Camp;46.2435761;11.9243635
mount_605;Moena;Banch de la Campagnacia, Strada di Rusci, San Giovanni di Fassa - Sèn Jan, Comun General de Fascia, Provincia di Trento, Trentino-Alto Adige/Südtirol, Italia;Cima di Costabella;46.4040014;11.7792887
mount_606;Torcegno;trincea, Torcegno, Comunità Valsugana e Tesino, Provincia di Trento, Trentino-Alto Adige/Südtirol, Italia;Cima Cavè;46.11156;11.38523
mount_607;Castello Tesino;Forcella Viosa o Sternozzena, Strada forestale Viosa, Castello Tesino, Comunità Valsugana e Tesino, Provincia di Trento, Trentino-Alto Adige/Südtirol, Italia;Cima Spiaz;46.1358531;11.6683742
mount_608;Tesero;Campiolato, Tesero, Comunità territoriale della Val di Fiemme, Provincia di Trento, Trentino-Alto Adige/Südtirol, Italia;\N;46.2323089;11.5200605
mount_609;Cavalese;Baito Bombasel, LO4, Cavalese, Comunità territoriale della Val di Fiemme, Provincia di Trento, Trentino-Alto Adige/Südtirol, Italia;\N;46.2286126;11.5147177
mount_610;Baselga di Piné;"Strada forestale ""Mandrete"", Fovo alto, Baselga di Piné, Comunità Alta Valsugana e Bersntol, Provincia di Trento, Trentino-Alto Adige/Südtirol, 38042, Italia";\N;46.1238504;11.2814909
mount_611;Ischia;Zava, Ischia, Pergine Valsugana, Comunità Alta Valsugana e Bersntol, Provincia di Trento, Trentino-Alto Adige/Südtirol, 38057, Italia;Monte Zava;46.0455087;11.2512801
mount_612;Zivignago;Via al Castello, Fontanabotte, Zivignago, Pergine Valsugana, Comunità Alta Valsugana e Bersntol, Provincia di Trento, Trentino-Alto Adige/Südtirol, 38057, Italia;Colle del Castello;46.0585743;11.2491209
mount_613;Zivignago;Fontanabotte, Zivignago, Pergine Valsugana, Comunità Alta Valsugana e Bersntol, Provincia di Trento, Trentino-Alto Adige/Südtirol, 38057, Italia;Doss del Tegaz;46.0556964;11.2449113
mount_614;Pergine Valsugana;Parcheggio Parco, Via per la Panarotta, Assizzi, Pergine Valsugana, Comunità Alta Valsugana e Bersntol, Provincia di Trento, Trentino-Alto Adige/Südtirol, 38057, Italia;Dòs de Valàr;46.0540405;11.2568142
mount_615;Moena;Bait Toal Mason, SS346, Moena, Comun General de Fascia, Provincia di Trento, Trentino-Alto Adige/Südtirol, 38035, Italia;Lom;46.3769866;11.7167976
mount_616;Telve;Passo Scalet, Sentiero Baraccamenti Baitol, Telve, Comunità Valsugana e Tesino, Provincia di Trento, Trentino-Alto Adige/Südtirol, Italia;Col del Craiz;46.1673207;11.3883
mount_617;Bedollo;Busa dei Campedei, Bedollo, Comunità Alta Valsugana e Bersntol, Provincia di Trento, Trentino-Alto Adige/Südtirol, 38043, Italia;Oltnmonn;46.1515477;11.3553743
mount_618;Baselga di Piné;Croce austriaca, Sentiero Baraccamenti Baitol, Baselga di Piné, Comunità Alta Valsugana e Bersntol, Provincia di Trento, Trentino-Alto Adige/Südtirol, Italia;\N;46.1628953;11.3761099
mount_619;Baselga di Piné;Croce austriaca, Sentiero Baraccamenti Baitol, Baselga di Piné, Comunità Alta Valsugana e Bersntol, Provincia di Trento, Trentino-Alto Adige/Südtirol, Italia;\N;46.1585376;11.37557
mount_620;Telve;Sentiero Baraccamenti Baitol, Telve, Comunità Valsugana e Tesino, Provincia di Trento, Trentino-Alto Adige/Südtirol, Italia;\N;46.162796;11.3828989
mount_621;Castelnuovo;Strada forestale Busa longa, Castelnuovo, Comunità Valsugana e Tesino, Provincia di Trento, Trentino-Alto Adige/Südtirol, 38051, Italia;\N;46.0348303;11.4877967
mount_622;Torcegno;trincea, Torcegno, Comunità Valsugana e Tesino, Provincia di Trento, Trentino-Alto Adige/Südtirol, Italia;Cima delle Lepri;46.1136;11.38537
mount_623;Pergine Valsugana;Senter de Vall'orca, Molino Sassi Grandi, Pergine Valsugana, Comunità Alta Valsugana e Bersntol, Provincia di Trento, Trentino-Alto Adige/Südtirol, 38042, Italia;Dos dei Maregi;46.0982963;11.2479526
mount_624;Varena;Sentiero Claudio Scarian, Ville di Fiemme, Comunità territoriale della Val di Fiemme, Provincia di Trento, Trentino-Alto Adige/Südtirol, 38033, Italia;Pozzi;46.3283371;11.4678334
mount_625;Baselga di Piné;per baito Spinel, Baselga di Piné, Comunità Alta Valsugana e Bersntol, Provincia di Trento, Trentino-Alto Adige/Südtirol, 38043, Italia;\N;46.1804298;11.346816
mount_626;Bedollo;Sass delle Parole, Strada forestale Socina, Bedollo, Comunità Alta Valsugana e Bersntol, Provincia di Trento, Trentino-Alto Adige/Südtirol, 38043, Italia;Piz Comboni;46.1879155;11.3084422
mount_627;Telve;Sentiero Baraccamenti Baitol, Telve, Comunità Valsugana e Tesino, Provincia di Trento, Trentino-Alto Adige/Südtirol, Italia;\N;46.1743919;11.385428
mount_628;Lona-Lases;Passo Mirafiori - Pala delle Buse, Lona-Lases, Comunità della Valle di Cembra, Provincia di Trento, Trentino-Alto Adige/Südtirol, Italia;\N;46.1916337;11.3788926
mount_629;Moena;Postazione italiana, E628, Moena, Comun General de Fascia, Provincia di Trento, Trentino-Alto Adige/Südtirol, 38035, Italia;Col de le Palue;46.3674894;11.7624856
mount_630;Moena;cima Iuribrutto, Moena, Comun General de Fascia, Provincia di Trento, Trentino-Alto Adige/Südtirol, Italia;\N;46.3638838;11.7821153
mount_631;Canal San Bovo;Bivacco Forcella Coldosè, Sentiero per Moregna - Giovanni Fifol, Canal San Bovo, Comunità di Primiero, Provincia di Trento, Trentino-Alto Adige/Südtirol, Italia;\N;46.2611909;11.6213796
mount_632;Predazzo;Sentiero per Moregna - Giovanni Fifol, Predazzo, Comunità territoriale della Val di Fiemme, Provincia di Trento, Trentino-Alto Adige/Südtirol, Italia;Cima Puchtateinz;46.2578925;11.6302893
mount_633;Moena;La trincea 2425m, Al lago Gronton, Moena, Comun General de Fascia, Provincia di Trento, Trentino-Alto Adige/Südtirol, 38035, Italia;Cima di Lusia - Cimon de Lujia;46.3462454;11.7291805
mount_634;Palù del Fersina - Palai en Bersntol;Al passo Polpen, Jerger - Tolleri, Palai en Bersntol - Palù del Fersina, Palù del Fersina - Palai en Bersntol, Comunità Alta Valsugana e Bersntol, Provincia di Trento, Trentino-Alto Adige/Südtirol, 38043, Italia;Cimon di Pontara;46.148525;11.3473613
mount_635;Mezzano;passaggio molto esposto, Strada forestale Pinteri, Mezzano, Comunità di Primiero, Provincia di Trento, Trentino-Alto Adige/Südtirol, Italia;Monte Zoccare Alto;46.1294804;11.8976135
mount_636;Pozza di Fassa;Sentiero delle Scalette, San Giovanni di Fassa - Sèn Jan, Comun General de Fascia, Provincia di Trento, Trentino-Alto Adige/Südtirol, 38036, Italia;Guglia del Rifugio;46.4500126;11.6449097
mount_637;Pozza di Fassa;541, San Giovanni di Fassa - Sèn Jan, Comun General de Fascia, Provincia di Trento, Trentino-Alto Adige/Südtirol, Italia;Vajoletnadel - Torre Estrema;46.4630728;11.6282639
mount_638;Telve;Passo Fregasoga, Sentiero Baraccamenti Baitol, Telve, Comunità Valsugana e Tesino, Provincia di Trento, Trentino-Alto Adige/Südtirol, Italia;Crozi de la Busona;46.1802085;11.3814389
mount_639;Centrale;Strada dei Tamagi, Gabana, Centrale, Bedollo, Comunità Alta Valsugana e Bersntol, Provincia di Trento, Trentino-Alto Adige/Südtirol, 38043, Italia;Dos dei Redi;46.1568861;11.3020884
mount_640;Frassilongo;Sentiero Prima Guerra Mondiale, Frassilongo - Garait, Comunità Alta Valsugana e Bersntol, Provincia di Trento, Trentino-Alto Adige/Südtirol, Italia;Jechl;46.0772584;11.3435799
mount_641;Roncegno;Sentiero Prima Guerra Mondiale, Frassilongo - Garait, Comunità Alta Valsugana e Bersntol, Provincia di Trento, Trentino-Alto Adige/Südtirol, Italia;Prennputz;46.062512;11.3424051
mount_642;Pozza di Fassa;Bivacco Marco Dal Bianco, Via Ferrata Marmolada Cresta Ovest, San Giovanni di Fassa - Sèn Jan, Comun General de Fascia, Provincia di Trento, Trentino-Alto Adige/Südtirol, Italia;Ombreta di Mezzo;46.4264956;11.8419504
mount_643;Pozza di Fassa;Traccia Sassovernale cresta S/SW, San Giovanni di Fassa - Sèn Jan, Comun General de Fascia, Provincia di Trento, Trentino-Alto Adige/Südtirol, Italia;Ombreta Occidentale;46.4267793;11.8341616
mount_644;Soraga di Fassa;P02, Soraga di Fassa, Comun General de Fascia, Provincia di Trento, Trentino-Alto Adige/Südtirol, Italia;Cima Cadine;46.4108745;11.8171836
mount_645;Lusérn - Luserna;Ponte Rotto, Lusérn - Luserna, Magnifica Comunità degli Altipiani Cimbri, Provincia di Trento, Trentino-Alto Adige/Südtirol, Italia;Monte Costesin;45.9419242;11.3573235
mount_646;Scurelle;Percorso Trincee Prima Guerra Mondiale, Scurelle, Comunità Valsugana e Tesino, Provincia di Trento, Trentino-Alto Adige/Südtirol, 38050, Italia;\N;46.134215;11.5732429
mount_647;Scurelle;Percorso Trincee Prima Guerra Mondiale, Scurelle, Comunità Valsugana e Tesino, Provincia di Trento, Trentino-Alto Adige/Südtirol, 38050, Italia;\N;46.1355045;11.5753957
mount_648;Scurelle;Percorso Trincee Prima Guerra Mondiale, Scurelle, Comunità Valsugana e Tesino, Provincia di Trento, Trentino-Alto Adige/Südtirol, 38050, Italia;\N;46.1332396;11.5726397
mount_649;Lavarone;Frazione Slaghenaufi, Slaghenaufi, Lavarone, Magnifica Comunità degli Altipiani Cimbri, Provincia di Trento, Trentino-Alto Adige/Südtirol, 38046, Italia;Monte Cimon;45.9654493;11.2667211
mount_650;Miola;"Strada forestale ""Val dei Bergagni"", Parciocca, Miola, Baselga di Piné, Comunità Alta Valsugana e Bersntol, Provincia di Trento, Trentino-Alto Adige/Südtirol, 38042, Italia";Dos de la Parciocca;46.1279907;11.2656381
mount_651;Sover;Pont de la Rio, Sover, Comunità della Valle di Cembra, Provincia di Trento, Trentino-Alto Adige/Südtirol, 38092, Italia;Castelét;46.220415;11.3037624
mount_652;Vignola;Strada Provinciale 12 di Vignola e Panarotta, La Gadainera, Stal, Vignola, Vignola Falesina, Comunità Alta Valsugana e Bersntol, Provincia di Trento, Trentino-Alto Adige/Südtirol, 38056, Italia;Semper Spitz;46.0512949;11.2941352
mount_653;Telve;Sentiero Baraccamenti Baitol, Telve, Comunità Valsugana e Tesino, Provincia di Trento, Trentino-Alto Adige/Südtirol, Italia;Campanile del Baitol;46.1618941;11.3819426
mount_654;Palù del Fersina - Palai en Bersntol;Sentiero alpinistico Fratelli Giuliani, Palù del Fersina - Palai en Bersntol, Comunità Alta Valsugana e Bersntol, Provincia di Trento, Trentino-Alto Adige/Südtirol, Italia;Cima Colombara;46.132452;11.4028512
mount_655;Pieve Tesino;non segnato, Pieve Tesino, Comunità Valsugana e Tesino, Provincia di Trento, Trentino-Alto Adige/Südtirol, Italia;Sasso Largo;46.1588034;11.6065407
mount_656;Sant'Orsola Terme;Collegamento mulattiera militare sen cai 404, Fovo alto, Sant'Orsola Terme, Comunità Alta Valsugana e Bersntol, Provincia di Trento, Trentino-Alto Adige/Südtirol, 38042, Italia;\N;46.1219965;11.2807162
mount_657;Canazei;Rifugio Capanna al Ghiacciaio, 31, Via Ferrata Marmolada Cresta Ovest, Canazei, Comun General de Fascia, Provincia di Trento, Trentino-Alto Adige/Südtirol, 38032, Italia;Sas da les doudesc;46.446453;11.865257
mount_658;Canazei;Serauta, Canazei, Comun General de Fascia, Provincia di Trento, Trentino-Alto Adige/Südtirol, Italia;Sas da les Undesc;46.4450163;11.8737969
mount_659;Canazei;La Mandres, Canazei, Comun General de Fascia, Provincia di Trento, Trentino-Alto Adige/Südtirol, Italia;\N;46.4477062;11.8751977
mount_660;Canazei;Serauta, Canazei, Comun General de Fascia, Provincia di Trento, Trentino-Alto Adige/Südtirol, Italia;\N;46.4466816;11.8746066
mount_661;Canazei;Rifugio Capanna al Ghiacciaio, 31, Via Ferrata Marmolada Cresta Ovest, Canazei, Comun General de Fascia, Provincia di Trento, Trentino-Alto Adige/Südtirol, 38032, Italia;\N;46.4481929;11.8649238
mount_662;Vigo di Fassa;Strada forestale Pian da le Trapole, San Giovanni di Fassa - Sèn Jan, Comun General de Fascia, Provincia di Trento, Trentino-Alto Adige/Südtirol, 38036, Italia;Sas Aut;46.4035085;11.702393
mount_663;Pozza di Fassa;Strada forestale Pian da le Trapole, San Giovanni di Fassa - Sèn Jan, Comun General de Fascia, Provincia di Trento, Trentino-Alto Adige/Südtirol, 38036, Italia;Sas da la Luna;46.3993883;11.7050311
mount_664;Mazzin;Socresta, Mazzin, Comun General de Fascia, Provincia di Trento, Trentino-Alto Adige/Südtirol, 38030, Italia;\N;46.4745695;11.6910988
mount_665;Pozza di Fassa;San Giovanni di Fassa - Sèn Jan, Comun General de Fascia, Provincia di Trento, Trentino-Alto Adige/Südtirol, 38036, Italia;Le Pope;46.4599569;11.6403843
mount_666;Baselga di Piné;"Strada forestale ""Fovo Alto 2"", Fovo alto, Baselga di Piné, Comunità Alta Valsugana e Bersntol, Provincia di Trento, Trentino-Alto Adige/Südtirol, 38042, Italia";I Dossi;46.1264522;11.2738416
mount_667;Vigo di Fassa;Rotwand-Klettersteig - Via Ferrata Roda di Vaèl, San Giovanni di Fassa - Sèn Jan, Comun General de Fascia, Provincia di Trento, Trentino-Alto Adige/Südtirol, 39056, Italia;Torre Finestra;46.4231835;11.6230209
mount_668;Vigo di Fassa;Rotwand-Klettersteig - Via Ferrata Roda di Vaèl, San Giovanni di Fassa - Sèn Jan, Comun General de Fascia, Provincia di Trento, Trentino-Alto Adige/Südtirol, 39056, Italia;Roda del Diavolo;46.4218066;11.6210552
mount_669;Vigo di Fassa;San Giovanni di Fassa - Sèn Jan, Comun General de Fascia, Provincia di Trento, Trentino-Alto Adige/Südtirol, 38036, Italia;Curaton;46.4421071;11.6343616
mount_670;Castello Tesino;traccia per Passo diavoli, Castello Tesino, Comunità Valsugana e Tesino, Provincia di Trento, Trentino-Alto Adige/Südtirol, Italia;Cima della Banca;46.171557;11.6121375
mount_671;Pieve Tesino;Masgerom, Pieve Tesino, Comunità Valsugana e Tesino, Provincia di Trento, Trentino-Alto Adige/Südtirol, Italia;Montalon;46.1909887;11.5081144
mount_672;Miola;"Acqua del Marizat, Strada Forestale ""Costalta"", Parciocca, Miola, Baselga di Piné, Comunità Alta Valsugana e Bersntol, Provincia di Trento, Trentino-Alto Adige/Südtirol, 38042, Italia";Tombola;46.130069;11.2656425
mount_673;Castello Tesino;Sentiero del Monte Picosta, Castello Tesino, Comunità Valsugana e Tesino, Provincia di Trento, Trentino-Alto Adige/Südtirol, 38053, Italia;Monte Picosta;46.0544755;11.667783
mount_674;Predazzo;"E349 - Sentiero attrezzato ""Achille Gadler"", Predazzo, Comunità territoriale della Val di Fiemme, Provincia di Trento, Trentino-Alto Adige/Südtirol, Italia";Cima Valonàt;46.2624369;11.695895
mount_675;Predazzo;"E349 - Sentiero attrezzato ""Achille Gadler"", Predazzo, Comunità territoriale della Val di Fiemme, Provincia di Trento, Trentino-Alto Adige/Südtirol, Italia";Sentinella del Valonat;46.2623435;11.6926175
mount_676;Predazzo;"E349 - Sentiero attrezzato ""Achille Gadler"", Predazzo, Comunità territoriale della Val di Fiemme, Provincia di Trento, Trentino-Alto Adige/Südtirol, Italia";Pilastro Est di Cece;46.2621127;11.688026
mount_677;Miola;"Strada Forestale ""Costalta"", Parciocca, Miola, Baselga di Piné, Comunità Alta Valsugana e Bersntol, Provincia di Trento, Trentino-Alto Adige/Südtirol, 38042, Italia";Dos del Nel;46.1315365;11.2672478
mount_678;Canazei;Via Ferrata delle Trincee, Canazei, Comun General de Fascia, Provincia di Trento, Trentino-Alto Adige/Südtirol, Italia;Mesola;46.4725488;11.8755471
mount_679;Mazzin;Via Ferrata Laurenzi, Mazzin, Comun General de Fascia, Provincia di Trento, Trentino-Alto Adige/Südtirol, Italia;Testone del Rifugio;46.4783562;11.6647202
mount_680;San Martino di Castrozza;Strada Val Venegia, San Martino di Castrozza, Primiero San Martino di Castrozza, Comunità di Primiero, Provincia di Trento, Trentino-Alto Adige/Südtirol, Italia;Cima di Val Grande;46.3007442;11.8341938
mount_681;Pergine Valsugana;Via Maso Monte Calvo, Mas del Ghiga, Pergine Valsugana, Comunità Alta Valsugana e Bersntol, Provincia di Trento, Trentino-Alto Adige/Südtirol, 38042, Italia;Dos del Dorigo;46.0952889;11.2588325
mount_682;San Martino di Castrozza;Forcella Cavallazza, 15, San Martino di Castrozza, Primiero San Martino di Castrozza, Comunità di Primiero, Provincia di Trento, Trentino-Alto Adige/Südtirol, Italia;Cavallazza Piccola;46.280314;11.7828903
mount_683;Predazzo;Via Ferrata dei Campanili del Latemar, Predazzo, Comunità territoriale della Val di Fiemme, Provincia di Trento, Trentino-Alto Adige/Südtirol, 39056, Italia;Muttergottes;46.3840265;11.5635315
mount_684;Predazzo;50, Predazzo, Comunità territoriale della Val di Fiemme, Provincia di Trento, Trentino-Alto Adige/Südtirol, 38037, Italia;Migòn de le Père;46.3477972;11.5821085
mount_685;Moena;Al lago Gronton, Moena, Comun General de Fascia, Provincia di Trento, Trentino-Alto Adige/Südtirol, 38035, Italia;Cima de le Mandre;46.3476439;11.7173395
mount_686;Predazzo;Alta Via di Viezena, Predazzo, Comunità territoriale della Val di Fiemme, Provincia di Trento, Trentino-Alto Adige/Südtirol, 38035, Italia;Le Cune;46.3443144;11.6902369
mount_687;Canazei;Valon del Fos, Canazei, Comun General de Fascia, Provincia di Trento, Trentino-Alto Adige/Südtirol, 38032, Italia;Torre Roma;46.4991018;11.8202641
mount_688;Canazei;Valon del Fos, Canazei, Comun General de Fascia, Provincia di Trento, Trentino-Alto Adige/Südtirol, 38032, Italia;Sass de Forcia Occidentale;46.5005716;11.8124624
mount_689;Canazei;Valon del Fos, Canazei, Comun General de Fascia, Provincia di Trento, Trentino-Alto Adige/Südtirol, 38032, Italia;Sass de Forcia di Mezzo;46.5002017;11.8173479
mount_690;Canazei;Valon del Fos, Canazei, Comun General de Fascia, Provincia di Trento, Trentino-Alto Adige/Südtirol, 38032, Italia;Sass de Forcia Orientale;46.5014536;11.8217159
mount_691;Moena;Sentiero militare del Grontòn, Moena, Comun General de Fascia, Provincia di Trento, Trentino-Alto Adige/Südtirol, 38035, Italia;Spiz del Gronton;46.3536328;11.7437232
mount_692;Moena;Ciadin Bel, Moena, Comun General de Fascia, Provincia di Trento, Trentino-Alto Adige/Südtirol, 38035, Italia;Sas da la Crousc;46.3857236;11.694761
mount_693;Lases;Strada Provinciale 71 Fersina - Avisio, Sottolona, Lases, Lona-Lases, Comunità della Valle di Cembra, Provincia di Trento, Trentino-Alto Adige/Südtirol, 38040, Italia;Casteleri;46.1554119;11.2263907
mount_694;Lases;Strada Val Freda, Lases, Lona-Lases, Comunità della Valle di Cembra, Provincia di Trento, Trentino-Alto Adige/Südtirol, 38040, Italia;Castel;46.143784;11.2258889
mount_695;Brusago;Roge, Brusago, Bedollo, Comunità Alta Valsugana e Bersntol, Provincia di Trento, Trentino-Alto Adige/Südtirol, 38043, Italia;Dos dei Lovi;46.1822121;11.3331581
mount_696;Rizzolaga;Sinter de le Salare, Rizzolaga, Baselga di Piné, Comunità Alta Valsugana e Bersntol, Provincia di Trento, Trentino-Alto Adige/Südtirol, 38042, Italia;Dos de le Salare;46.1344623;11.2778269
mount_697;Faida;"Strada forestale ""Sas Bianch"", Mas del Plancher, Faida, Baselga di Piné, Comunità Alta Valsugana e Bersntol, Provincia di Trento, Trentino-Alto Adige/Südtirol, 38042, Italia";Sas Bianch;46.11148;11.2660186
mount_698;Vigo;Via delle Mèie, Bugno, Mas del Plancher, Vigo, Baselga di Piné, Comunità Alta Valsugana e Bersntol, Provincia di Trento, Trentino-Alto Adige/Südtirol, 38042, Italia;Dos dei Ronchi;46.1180671;11.2435949
mount_699;Faida;Cava di Quarzo, Mas del Bertoldi, Faida, Baselga di Piné, Comunità Alta Valsugana e Bersntol, Provincia di Trento, Trentino-Alto Adige/Südtirol, 38042, Italia;Dos Entrà i Crozzi;46.1023851;11.2491481
mount_700;Tesero;SP215, Tesero, Comunità territoriale della Val di Fiemme, Provincia di Trento, Trentino-Alto Adige/Südtirol, 39050, Italia;Cima Valbona;46.3610568;11.5586057
mount_701;Varena;Ripetitore, Bancoline - Cucal, Ville di Fiemme, Comunità territoriale della Val di Fiemme, Provincia di Trento, Trentino-Alto Adige/Südtirol, 38033, Italia;Cucal;46.3097826;11.485938
mount_702;San Martino di Castrozza;"Sentiero attrezzato ""Achille Gadler"", San Martino di Castrozza, Primiero San Martino di Castrozza, Comunità di Primiero, Provincia di Trento, Trentino-Alto Adige/Südtirol, Italia";\N;46.2678255;11.7425194
mount_703;Predazzo;"Sentiero attrezzato ""Achille Gadler"", Predazzo, Comunità territoriale della Val di Fiemme, Provincia di Trento, Trentino-Alto Adige/Südtirol, Italia";\N;46.2605079;11.713427
mount_704;Predazzo;"Sentiero attrezzato ""Achille Gadler"", Predazzo, Comunità territoriale della Val di Fiemme, Provincia di Trento, Trentino-Alto Adige/Südtirol, Italia";\N;46.2609588;11.7164685
mount_705;Siror;Strada forestale Val di Roda, Siror, Primiero San Martino di Castrozza, Comunità di Primiero, Provincia di Trento, Trentino-Alto Adige/Südtirol, Italia;Torre Bettega;46.2497816;11.838105
mount_706;Centrale;Via Ronchi, Steffenetti, Centrale, Bedollo, Comunità Alta Valsugana e Bersntol, Provincia di Trento, Trentino-Alto Adige/Südtirol, 38043, Italia;Cros del Cuc;46.1755789;11.306388
mount_707;Predazzo;Predazzo, Comunità territoriale della Val di Fiemme, Provincia di Trento, Trentino-Alto Adige/Südtirol, 38037, Italia;\N;46.2730735;11.7100494
mount_708;Predazzo;"Sentiero attrezzato ""Achille Gadler"", Predazzo, Comunità territoriale della Val di Fiemme, Provincia di Trento, Trentino-Alto Adige/Südtirol, Italia";\N;46.2708136;11.7114935
mount_709;Moena;Strada forestale Rì de la Bastia, Moena, Comun General de Fascia, Provincia di Trento, Trentino-Alto Adige/Südtirol, 38035, Italia;Doss Colvere;46.3595458;11.6987042
mount_710;Vigo di Fassa;Aufstieg zum Rotwand-Klettersteig, San Giovanni di Fassa - Sèn Jan, Comun General de Fascia, Provincia di Trento, Trentino-Alto Adige/Südtirol, 38039, Italia;Torre Edoarda;46.423637;11.6231221
mount_711;Folgaria;Folgaria, Magnifica Comunità degli Altipiani Cimbri, Provincia di Trento, Trentino-Alto Adige/Südtirol, 38064, Italia;\N;45.852845;11.2329543
mount_712;Folgaria;SP138, Terragnolo, Comunità della Vallagarina, Provincia di Trento, Trentino-Alto Adige/Südtirol, Italia;\N;45.8490223;11.2273975
mount_713;Castello Tesino;Strada forestale Val Fontane, Castello Tesino, Comunità Valsugana e Tesino, Provincia di Trento, Trentino-Alto Adige/Südtirol, 38053, Italia;Monte Gorgantile;46.1074684;11.6662872
mount_714;Roncegno Terme;Strada forestale Visle, Borgo Valsugana, Comunità Valsugana e Tesino, Provincia di Trento, Trentino-Alto Adige/Südtirol, 38051, Italia;Puisle;46.0320363;11.4212086
mount_715;Tonadico;Passo delle Regade, Sentiero Passo Regade, Tonadico, Primiero San Martino di Castrozza, Comunità di Primiero, Provincia di Trento, Trentino-Alto Adige/Südtirol, Italia;Cima Regade;46.2088287;11.896926
mount_716;Pozza di Fassa;Sentiero delle Scalette, San Giovanni di Fassa - Sèn Jan, Comun General de Fascia, Provincia di Trento, Trentino-Alto Adige/Südtirol, 38036, Italia;Crepa de Socorda;46.4485656;11.6512316
mount_717;Pozza di Fassa;Sentiero delle Scalette, San Giovanni di Fassa - Sèn Jan, Comun General de Fascia, Provincia di Trento, Trentino-Alto Adige/Südtirol, 38036, Italia;Becco dell'Acquila;46.4495506;11.6478628
mount_718;Pozza di Fassa;Sentiero delle Scalette, San Giovanni di Fassa - Sèn Jan, Comun General de Fascia, Provincia di Trento, Trentino-Alto Adige/Südtirol, 38036, Italia;Campanile Gardeccia;46.4500366;11.6464627
mount_719;Muncion;Muncion, San Giovanni di Fassa - Sèn Jan, Comun General de Fascia, Provincia di Trento, Trentino-Alto Adige/Südtirol, 38036, Italia;Spiz delle Roe di Ciampie;46.4563158;11.6690791
mount_720;Pozza di Fassa;Sentiero delle Scalette, San Giovanni di Fassa - Sèn Jan, Comun General de Fascia, Provincia di Trento, Trentino-Alto Adige/Südtirol, 38039, Italia;Guglia Margherita;46.4549558;11.6598576
mount_721;Pozza di Fassa;Sentiero delle Scalette, San Giovanni di Fassa - Sèn Jan, Comun General de Fascia, Provincia di Trento, Trentino-Alto Adige/Südtirol, 38036, Italia;Pala Patech;46.4503767;11.6457841
mount_722;Pozza di Fassa;Sentiero delle Scalette, San Giovanni di Fassa - Sèn Jan, Comun General de Fascia, Provincia di Trento, Trentino-Alto Adige/Südtirol, 38036, Italia;Punta di Socorda;46.4495672;11.6514784
mount_723;Tiers;541, San Giovanni di Fassa - Sèn Jan, Comun General de Fascia, Provincia di Trento, Trentino-Alto Adige/Südtirol, Italia;Nordturm - Torre Nord;46.4623807;11.626975
mount_724;Tiers;541, San Giovanni di Fassa - Sèn Jan, Comun General de Fascia, Provincia di Trento, Trentino-Alto Adige/Südtirol, Italia;Schartenturm - Torre del Passo;46.4640151;11.6281293
mount_725;Pozza di Fassa;541, San Giovanni di Fassa - Sèn Jan, Comun General de Fascia, Provincia di Trento, Trentino-Alto Adige/Südtirol, Italia;Torre Marcia - Morscher Turm;46.4640793;11.6291728
mount_726;Sèn Jan di Fassa;San Giovanni di Fassa - Sèn Jan, Comun General de Fascia, Provincia di Trento, Trentino-Alto Adige/Südtirol, 38036, Italia;1. Lämmerkopf - Prima Testa d'Agnello;46.4711805;11.6258023
mount_727;Pozza di Fassa;San Giovanni di Fassa - Sèn Jan, Comun General de Fascia, Provincia di Trento, Trentino-Alto Adige/Südtirol, 38036, Italia;Pale de Mesdí;46.4541358;11.6490555
mount_728;Mazzin;Via Ferrata Laurenzi, Mazzin, Comun General de Fascia, Provincia di Trento, Trentino-Alto Adige/Südtirol, 38030, Italia;Torre del Lago;46.4805561;11.6551154
mount_729;Mazzin;Via Ferrata Laurenzi, Mazzin, Comun General de Fascia, Provincia di Trento, Trentino-Alto Adige/Südtirol, 38030, Italia;Cresta del Lago;46.4806797;11.6578001
mount_730;Bellamonte;Bait de Mulat, Strada per Pragatai, Zaluna, Bellamonte, Predazzo, Comunità territoriale della Val di Fiemme, Provincia di Trento, Trentino-Alto Adige/Südtirol, 38037, Italia;Mül Piciol;46.3256322;11.6253544
mount_731;Canazei;Strada Statale 48 delle Dolomiti, Canazei, Comun General de Fascia, Provincia di Trento, Trentino-Alto Adige/Südtirol, 38032, Italia;Col di Rosc;46.4744789;11.8028123
mount_732;Mazzin;La Cisterna, Mazzin, Comun General de Fascia, Provincia di Trento, Trentino-Alto Adige/Südtirol, 38030, Italia;Sòt Palacia;46.4721731;11.6885009
mount_733;Pozza di Fassa;Strada di Rusci, Sauch, San Giovanni di Fassa - Sèn Jan, Comun General de Fascia, Provincia di Trento, Trentino-Alto Adige/Südtirol, 38031, Italia;L Veie;46.4345905;11.7501773
mount_734;Canazei;Ciamp de Mez, Canazei, Comun General de Fascia, Provincia di Trento, Trentino-Alto Adige/Südtirol, 38032, Italia;Torn Dantone;46.434962;11.7822348
mount_735;Castello Tesino;Canalone dei Bassanesi, Castello Tesino, Comunità Valsugana e Tesino, Provincia di Trento, Trentino-Alto Adige/Südtirol, Italia;Torre Gillo Cavinato;46.1762721;11.6025068
mount_736;Lavarone;Il Respiro degli Alberi, Lanzino, Lavarone, Magnifica Comunità degli Altipiani Cimbri, Provincia di Trento, Trentino-Alto Adige/Südtirol, 38046, Italia;Dosso del Monco;45.9597216;11.2559121
mount_737;Siror;Bivacco Guide Alpine di San Martino, Ferrata della Vecia, Siror, Primiero San Martino di Castrozza, Comunità di Primiero, Provincia di Trento, Trentino-Alto Adige/Südtirol, 38054, Italia;Cima delle Scarpe;46.2592147;11.849935
mount_738;Siror;"702; 715, Strada forestale Val di Roda, Siror, Primiero San Martino di Castrozza, Comunità di Primiero, Provincia di Trento, Trentino-Alto Adige/Südtirol, Italia";Rodetta;46.2596597;11.8460512
mount_739;Siror;"702; 715, Strada forestale Val di Roda, Siror, Primiero San Martino di Castrozza, Comunità di Primiero, Provincia di Trento, Trentino-Alto Adige/Südtirol, Italia";Croda di Roda;46.2603718;11.8406439
mount_740;Predazzo;Strada forestale Campigol de Mez - Le Prese, Predazzo, Comunità territoriale della Val di Fiemme, Provincia di Trento, Trentino-Alto Adige/Südtirol, 38037, Italia;Col de le Prese;46.3467246;11.5964915